<?xml version="1.0" encoding="UTF-8" standalone="no"?><gpx xmlns="http://www.topografix.com/GPX/1/1" xmlns:gpxtpx="http://www.garmin.com/xmlschemas/TrackPointExtension/v1" xmlns:xsi="http://www.w3.org/2001/XMLSchema-instance" creator="Suunto app" version="1.1" xsi:schemaLocation="http://www.topografix.com/GPX/1/1 http://www.topografix.com/GPX/1/1/gpx.xsd http://www.garmin.com/xmlschemas/TrackPointExtension/v1 http://www.garmin.com/xmlschemas/TrackPointExtensionv1.xsd"><metadata><name>suuntoapp-Trekking-2025-07-08T06-31-06Z</name><desc/><author><name>Jouni L</name></author></metadata><trk><name>suuntoapp-Trekking-2025-07-08T06-31-06Z</name><trkseg><trkpt lat="69.114937" lon="26.374877"><ele>442.0</ele><time>2025-07-08T06:31:06Z</time></trkpt><trkpt lat="69.115183" lon="26.37588"><ele>441.0</ele><time>2025-07-08T06:32:08Z</time></trkpt><trkpt lat="69.11538" lon="26.377615"><ele>441.0</ele><time>2025-07-08T06:33:08Z</time></trkpt><trkpt lat="69.115237" lon="26.378922"><ele>440.0</ele><time>2025-07-08T06:34:08Z</time></trkpt><trkpt lat="69.115" lon="26.38042"><ele>441.0</ele><time>2025-07-08T06:35:08Z</time></trkpt><trkpt lat="69.114932" lon="26.38167"><ele>440.0</ele><time>2025-07-08T06:36:08Z</time></trkpt><trkpt lat="69.114648" lon="26.382668"><ele>440.0</ele><time>2025-07-08T06:37:08Z</time></trkpt><trkpt lat="69.114408" lon="26.383693"><ele>441.0</ele><time>2025-07-08T06:38:09Z</time></trkpt><trkpt lat="69.114152" lon="26.384492"><ele>443.0</ele><time>2025-07-08T06:39:08Z</time></trkpt><trkpt lat="69.113803" lon="26.385543"><ele>443.0</ele><time>2025-07-08T06:41:08Z</time></trkpt><trkpt lat="69.113857" lon="26.386523"><ele>456.0</ele><time>2025-07-08T06:43:07Z</time></trkpt><trkpt lat="69.113803" lon="26.387492"><ele>460.0</ele><time>2025-07-08T06:44:08Z</time></trkpt><trkpt lat="69.1133" lon="26.388125"><ele>459.0</ele><time>2025-07-08T06:46:07Z</time></trkpt><trkpt lat="69.11307" lon="26.388585"><ele>460.0</ele><time>2025-07-08T06:47:07Z</time></trkpt><trkpt lat="69.112628" lon="26.389437"><ele>461.0</ele><time>2025-07-08T06:48:08Z</time></trkpt><trkpt lat="69.112408" lon="26.390165"><ele>461.0</ele><time>2025-07-08T06:49:08Z</time></trkpt><trkpt lat="69.11219" lon="26.390745"><ele>467.0</ele><time>2025-07-08T06:50:08Z</time></trkpt><trkpt lat="69.111888" lon="26.391667"><ele>471.0</ele><time>2025-07-08T06:51:07Z</time></trkpt><trkpt lat="69.11159" lon="26.392298"><ele>472.0</ele><time>2025-07-08T06:52:08Z</time></trkpt><trkpt lat="69.111393" lon="26.393883"><ele>475.0</ele><time>2025-07-08T06:53:07Z</time></trkpt><trkpt lat="69.111027" lon="26.395417"><ele>477.0</ele><time>2025-07-08T06:54:08Z</time></trkpt><trkpt lat="69.110838" lon="26.396637"><ele>478.0</ele><time>2025-07-08T06:56:08Z</time></trkpt><trkpt lat="69.110407" lon="26.398467"><ele>479.0</ele><time>2025-07-08T06:57:07Z</time></trkpt><trkpt lat="69.110168" lon="26.39962"><ele>480.0</ele><time>2025-07-08T06:58:08Z</time></trkpt><trkpt lat="69.109812" lon="26.401167"><ele>480.0</ele><time>2025-07-08T06:59:07Z</time></trkpt><trkpt lat="69.10933" lon="26.401697"><ele>480.0</ele><time>2025-07-08T07:00:08Z</time></trkpt><trkpt lat="69.108895" lon="26.402737"><ele>476.0</ele><time>2025-07-08T07:02:08Z</time></trkpt><trkpt lat="69.108423" lon="26.403365"><ele>477.0</ele><time>2025-07-08T07:03:07Z</time></trkpt><trkpt lat="69.108143" lon="26.404045"><ele>480.0</ele><time>2025-07-08T07:04:07Z</time></trkpt><trkpt lat="69.10758" lon="26.404562"><ele>484.0</ele><time>2025-07-08T07:05:08Z</time></trkpt><trkpt lat="69.107117" lon="26.404868"><ele>481.0</ele><time>2025-07-08T07:06:07Z</time></trkpt><trkpt lat="69.106813" lon="26.40531"><ele>487.0</ele><time>2025-07-08T07:07:08Z</time></trkpt><trkpt lat="69.10612" lon="26.406355"><ele>489.0</ele><time>2025-07-08T07:09:08Z</time></trkpt><trkpt lat="69.105807" lon="26.40741"><ele>490.0</ele><time>2025-07-08T07:10:07Z</time></trkpt><trkpt lat="69.105278" lon="26.408023"><ele>493.0</ele><time>2025-07-08T07:11:07Z</time></trkpt><trkpt lat="69.104927" lon="26.408805"><ele>495.0</ele><time>2025-07-08T07:12:08Z</time></trkpt><trkpt lat="69.10442" lon="26.409412"><ele>496.0</ele><time>2025-07-08T07:13:08Z</time></trkpt><trkpt lat="69.103912" lon="26.409855"><ele>496.0</ele><time>2025-07-08T07:14:08Z</time></trkpt><trkpt lat="69.103562" lon="26.410005"><ele>499.0</ele><time>2025-07-08T07:16:08Z</time></trkpt><trkpt lat="69.103018" lon="26.410017"><ele>496.0</ele><time>2025-07-08T07:17:08Z</time></trkpt><trkpt lat="69.102547" lon="26.410267"><ele>496.0</ele><time>2025-07-08T07:18:07Z</time></trkpt><trkpt lat="69.102062" lon="26.411027"><ele>495.0</ele><time>2025-07-08T07:19:08Z</time></trkpt><trkpt lat="69.101515" lon="26.411333"><ele>495.0</ele><time>2025-07-08T07:20:08Z</time></trkpt><trkpt lat="69.101055" lon="26.412058"><ele>494.0</ele><time>2025-07-08T07:21:08Z</time></trkpt><trkpt lat="69.100557" lon="26.412715"><ele>494.0</ele><time>2025-07-08T07:22:08Z</time></trkpt><trkpt lat="69.100135" lon="26.413568"><ele>490.0</ele><time>2025-07-08T07:23:08Z</time></trkpt><trkpt lat="69.099982" lon="26.413215"><ele>485.0</ele><time>2025-07-08T07:24:09Z</time></trkpt><trkpt lat="69.099763" lon="26.413093"><ele>481.0</ele><time>2025-07-08T07:41:02Z</time></trkpt><trkpt lat="69.099537" lon="26.411828"><ele>486.0</ele><time>2025-07-08T07:43:08Z</time></trkpt><trkpt lat="69.099603" lon="26.41052"><ele>487.0</ele><time>2025-07-08T07:44:07Z</time></trkpt><trkpt lat="69.099655" lon="26.409278"><ele>489.0</ele><time>2025-07-08T07:45:08Z</time></trkpt><trkpt lat="69.099657" lon="26.407583"><ele>491.0</ele><time>2025-07-08T07:46:08Z</time></trkpt><trkpt lat="69.099717" lon="26.40623"><ele>495.0</ele><time>2025-07-08T07:47:08Z</time></trkpt><trkpt lat="69.099493" lon="26.405563"><ele>497.0</ele><time>2025-07-08T07:49:07Z</time></trkpt><trkpt lat="69.0991" lon="26.404537"><ele>501.0</ele><time>2025-07-08T07:50:08Z</time></trkpt><trkpt lat="69.098812" lon="26.403667"><ele>503.0</ele><time>2025-07-08T07:51:08Z</time></trkpt><trkpt lat="69.098537" lon="26.403077"><ele>499.0</ele><time>2025-07-08T07:52:08Z</time></trkpt><trkpt lat="69.098195" lon="26.402082"><ele>498.0</ele><time>2025-07-08T07:54:08Z</time></trkpt><trkpt lat="69.097887" lon="26.400297"><ele>499.0</ele><time>2025-07-08T07:55:08Z</time></trkpt><trkpt lat="69.097557" lon="26.399588"><ele>500.0</ele><time>2025-07-08T07:56:07Z</time></trkpt><trkpt lat="69.097282" lon="26.399773"><ele>508.0</ele><time>2025-07-08T07:57:08Z</time></trkpt><trkpt lat="69.097012" lon="26.399677"><ele>510.0</ele><time>2025-07-08T07:58:07Z</time></trkpt><trkpt lat="69.096608" lon="26.400373"><ele>513.0</ele><time>2025-07-08T07:59:08Z</time></trkpt><trkpt lat="69.096153" lon="26.400708"><ele>521.0</ele><time>2025-07-08T08:00:08Z</time></trkpt><trkpt lat="69.095853" lon="26.400955"><ele>527.0</ele><time>2025-07-08T08:01:08Z</time></trkpt><trkpt lat="69.09553" lon="26.401153"><ele>536.0</ele><time>2025-07-08T08:02:07Z</time></trkpt><trkpt lat="69.095173" lon="26.401612"><ele>542.0</ele><time>2025-07-08T08:03:08Z</time></trkpt><trkpt lat="69.094717" lon="26.40288"><ele>557.0</ele><time>2025-07-08T08:05:08Z</time></trkpt><trkpt lat="69.094275" lon="26.40273"><ele>562.0</ele><time>2025-07-08T08:06:08Z</time></trkpt><trkpt lat="69.093927" lon="26.402342"><ele>568.0</ele><time>2025-07-08T08:07:07Z</time></trkpt><trkpt lat="69.093685" lon="26.402902"><ele>574.0</ele><time>2025-07-08T08:08:08Z</time></trkpt><trkpt lat="69.093367" lon="26.40206"><ele>579.0</ele><time>2025-07-08T08:09:07Z</time></trkpt><trkpt lat="69.092962" lon="26.401907"><ele>585.0</ele><time>2025-07-08T08:10:08Z</time></trkpt><trkpt lat="69.092488" lon="26.401843"><ele>589.0</ele><time>2025-07-08T08:11:08Z</time></trkpt><trkpt lat="69.091882" lon="26.401117"><ele>603.0</ele><time>2025-07-08T08:13:08Z</time></trkpt><trkpt lat="69.091478" lon="26.401122"><ele>610.0</ele><time>2025-07-08T08:14:07Z</time></trkpt><trkpt lat="69.091058" lon="26.401388"><ele>616.0</ele><time>2025-07-08T08:15:08Z</time></trkpt><trkpt lat="69.090805" lon="26.401713"><ele>623.0</ele><time>2025-07-08T08:16:07Z</time></trkpt><trkpt lat="69.090467" lon="26.402565"><ele>639.0</ele><time>2025-07-08T08:18:08Z</time></trkpt><trkpt lat="69.090742" lon="26.401863"><ele>626.0</ele><time>2025-07-08T08:30:09Z</time></trkpt><trkpt lat="69.090977" lon="26.401288"><ele>619.0</ele><time>2025-07-08T08:31:08Z</time></trkpt><trkpt lat="69.091427" lon="26.401148"><ele>607.0</ele><time>2025-07-08T08:33:07Z</time></trkpt><trkpt lat="69.091923" lon="26.401087"><ele>590.0</ele><time>2025-07-08T08:35:08Z</time></trkpt><trkpt lat="69.092695" lon="26.40111"><ele>582.0</ele><time>2025-07-08T08:36:08Z</time></trkpt><trkpt lat="69.09298" lon="26.400985"><ele>575.0</ele><time>2025-07-08T08:37:08Z</time></trkpt><trkpt lat="69.093363" lon="26.400337"><ele>566.0</ele><time>2025-07-08T08:38:07Z</time></trkpt><trkpt lat="69.093932" lon="26.400475"><ele>558.0</ele><time>2025-07-08T08:39:08Z</time></trkpt><trkpt lat="69.094408" lon="26.400563"><ele>551.0</ele><time>2025-07-08T08:40:08Z</time></trkpt><trkpt lat="69.094862" lon="26.400537"><ele>541.0</ele><time>2025-07-08T08:41:08Z</time></trkpt><trkpt lat="69.095242" lon="26.400892"><ele>535.0</ele><time>2025-07-08T08:42:08Z</time></trkpt><trkpt lat="69.095602" lon="26.400985"><ele>527.0</ele><time>2025-07-08T08:43:08Z</time></trkpt><trkpt lat="69.096032" lon="26.400798"><ele>520.0</ele><time>2025-07-08T08:44:08Z</time></trkpt><trkpt lat="69.096445" lon="26.400712"><ele>513.0</ele><time>2025-07-08T08:45:07Z</time></trkpt><trkpt lat="69.096927" lon="26.400717"><ele>507.0</ele><time>2025-07-08T08:47:08Z</time></trkpt><trkpt lat="69.097273" lon="26.400063"><ele>503.0</ele><time>2025-07-08T08:48:07Z</time></trkpt><trkpt lat="69.097722" lon="26.399712"><ele>496.0</ele><time>2025-07-08T08:49:08Z</time></trkpt><trkpt lat="69.09826" lon="26.40027"><ele>493.0</ele><time>2025-07-08T08:51:08Z</time></trkpt><trkpt lat="69.098833" lon="26.401105"><ele>493.0</ele><time>2025-07-08T08:53:08Z</time></trkpt><trkpt lat="69.098985" lon="26.402228"><ele>495.0</ele><time>2025-07-08T08:54:08Z</time></trkpt><trkpt lat="69.099047" lon="26.403402"><ele>496.0</ele><time>2025-07-08T08:55:07Z</time></trkpt><trkpt lat="69.099348" lon="26.40442"><ele>494.0</ele><time>2025-07-08T08:56:08Z</time></trkpt><trkpt lat="69.09949" lon="26.40621"><ele>490.0</ele><time>2025-07-08T08:57:08Z</time></trkpt><trkpt lat="69.099788" lon="26.407498"><ele>484.0</ele><time>2025-07-08T08:58:07Z</time></trkpt><trkpt lat="69.0999" lon="26.408838"><ele>481.0</ele><time>2025-07-08T08:59:07Z</time></trkpt><trkpt lat="69.099825" lon="26.41008"><ele>479.0</ele><time>2025-07-08T09:00:08Z</time></trkpt><trkpt lat="69.099928" lon="26.411548"><ele>478.0</ele><time>2025-07-08T09:01:08Z</time></trkpt><trkpt lat="69.099877" lon="26.412653"><ele>472.0</ele><time>2025-07-08T09:02:08Z</time></trkpt><trkpt lat="69.100118" lon="26.41313"><ele>470.0</ele><time>2025-07-08T09:03:08Z</time></trkpt><trkpt lat="69.100118" lon="26.41313"><ele>470.0</ele><time>2025-07-08T09:03:24Z</time></trkpt><trkpt lat="69.100053" lon="26.41323"><ele>466.0</ele><time>2025-07-08T09:22:41Z</time></trkpt><trkpt lat="69.09974" lon="26.414107"><ele>465.0</ele><time>2025-07-08T09:24:08Z</time></trkpt><trkpt lat="69.099572" lon="26.415197"><ele>464.0</ele><time>2025-07-08T09:25:08Z</time></trkpt><trkpt lat="69.099358" lon="26.415658"><ele>466.0</ele><time>2025-07-08T09:26:11Z</time></trkpt><trkpt lat="69.099258" lon="26.415793"><ele>464.0</ele><time>2025-07-08T10:39:23Z</time></trkpt><trkpt lat="69.099055" lon="26.416133"><ele>460.0</ele><time>2025-07-08T10:40:08Z</time></trkpt><trkpt lat="69.098792" lon="26.417357"><ele>454.0</ele><time>2025-07-08T10:41:08Z</time></trkpt><trkpt lat="69.098473" lon="26.418423"><ele>451.0</ele><time>2025-07-08T10:42:08Z</time></trkpt><trkpt lat="69.098032" lon="26.419437"><ele>450.0</ele><time>2025-07-08T10:43:08Z</time></trkpt><trkpt lat="69.097852" lon="26.420247"><ele>448.0</ele><time>2025-07-08T10:44:08Z</time></trkpt><trkpt lat="69.09771" lon="26.421092"><ele>448.0</ele><time>2025-07-08T10:45:09Z</time></trkpt><trkpt lat="69.09747" lon="26.42238"><ele>442.0</ele><time>2025-07-08T10:46:09Z</time></trkpt><trkpt lat="69.097175" lon="26.423563"><ele>442.0</ele><time>2025-07-08T10:47:08Z</time></trkpt><trkpt lat="69.096848" lon="26.424697"><ele>442.0</ele><time>2025-07-08T10:48:08Z</time></trkpt><trkpt lat="69.09646" lon="26.425615"><ele>439.0</ele><time>2025-07-08T10:49:08Z</time></trkpt><trkpt lat="69.095963" lon="26.426295"><ele>436.0</ele><time>2025-07-08T10:50:08Z</time></trkpt><trkpt lat="69.095728" lon="26.427278"><ele>433.0</ele><time>2025-07-08T10:51:09Z</time></trkpt><trkpt lat="69.095572" lon="26.427992"><ele>430.0</ele><time>2025-07-08T10:52:08Z</time></trkpt><trkpt lat="69.0953" lon="26.428982"><ele>428.0</ele><time>2025-07-08T10:53:09Z</time></trkpt><trkpt lat="69.095043" lon="26.430165"><ele>423.0</ele><time>2025-07-08T10:54:07Z</time></trkpt><trkpt lat="69.094825" lon="26.431455"><ele>420.0</ele><time>2025-07-08T10:55:09Z</time></trkpt><trkpt lat="69.094692" lon="26.432415"><ele>419.0</ele><time>2025-07-08T10:56:08Z</time></trkpt><trkpt lat="69.094608" lon="26.433853"><ele>417.0</ele><time>2025-07-08T10:57:08Z</time></trkpt><trkpt lat="69.09447" lon="26.434907"><ele>412.0</ele><time>2025-07-08T10:58:09Z</time></trkpt><trkpt lat="69.094527" lon="26.436563"><ele>412.0</ele><time>2025-07-08T11:01:09Z</time></trkpt><trkpt lat="69.094475" lon="26.437627"><ele>409.0</ele><time>2025-07-08T11:02:09Z</time></trkpt><trkpt lat="69.09446" lon="26.438693"><ele>405.0</ele><time>2025-07-08T11:03:09Z</time></trkpt><trkpt lat="69.094595" lon="26.439753"><ele>405.0</ele><time>2025-07-08T11:04:09Z</time></trkpt><trkpt lat="69.094665" lon="26.440837"><ele>404.0</ele><time>2025-07-08T11:05:08Z</time></trkpt><trkpt lat="69.09469" lon="26.442233"><ele>404.0</ele><time>2025-07-08T11:06:09Z</time></trkpt><trkpt lat="69.094967" lon="26.44397"><ele>406.0</ele><time>2025-07-08T11:07:08Z</time></trkpt><trkpt lat="69.095183" lon="26.444688"><ele>408.0</ele><time>2025-07-08T11:08:08Z</time></trkpt><trkpt lat="69.095417" lon="26.445717"><ele>408.0</ele><time>2025-07-08T11:09:09Z</time></trkpt><trkpt lat="69.095755" lon="26.446775"><ele>408.0</ele><time>2025-07-08T11:10:08Z</time></trkpt><trkpt lat="69.096017" lon="26.447512"><ele>407.0</ele><time>2025-07-08T11:11:08Z</time></trkpt><trkpt lat="69.09616" lon="26.448485"><ele>409.0</ele><time>2025-07-08T11:12:08Z</time></trkpt><trkpt lat="69.09627" lon="26.449313"><ele>409.0</ele><time>2025-07-08T11:13:08Z</time></trkpt><trkpt lat="69.096758" lon="26.45027"><ele>406.0</ele><time>2025-07-08T11:14:08Z</time></trkpt><trkpt lat="69.096828" lon="26.451033"><ele>405.0</ele><time>2025-07-08T11:15:09Z</time></trkpt><trkpt lat="69.097495" lon="26.4517"><ele>407.0</ele><time>2025-07-08T11:16:08Z</time></trkpt><trkpt lat="69.097985" lon="26.451663"><ele>406.0</ele><time>2025-07-08T11:17:09Z</time></trkpt><trkpt lat="69.098557" lon="26.452635"><ele>405.0</ele><time>2025-07-08T11:18:08Z</time></trkpt><trkpt lat="69.098912" lon="26.453503"><ele>404.0</ele><time>2025-07-08T11:19:08Z</time></trkpt><trkpt lat="69.099077" lon="26.454112"><ele>404.0</ele><time>2025-07-08T11:20:08Z</time></trkpt><trkpt lat="69.099255" lon="26.455005"><ele>404.0</ele><time>2025-07-08T11:21:09Z</time></trkpt><trkpt lat="69.099358" lon="26.45578"><ele>405.0</ele><time>2025-07-08T11:22:08Z</time></trkpt><trkpt lat="69.099362" lon="26.456792"><ele>403.0</ele><time>2025-07-08T11:23:08Z</time></trkpt><trkpt lat="69.099752" lon="26.457733"><ele>403.0</ele><time>2025-07-08T11:24:08Z</time></trkpt><trkpt lat="69.100138" lon="26.458827"><ele>400.0</ele><time>2025-07-08T11:25:07Z</time></trkpt><trkpt lat="69.100412" lon="26.459818"><ele>400.0</ele><time>2025-07-08T11:26:08Z</time></trkpt><trkpt lat="69.100577" lon="26.460638"><ele>401.0</ele><time>2025-07-08T11:27:07Z</time></trkpt><trkpt lat="69.100945" lon="26.461252"><ele>403.0</ele><time>2025-07-08T11:28:08Z</time></trkpt><trkpt lat="69.101388" lon="26.461772"><ele>403.0</ele><time>2025-07-08T11:29:08Z</time></trkpt><trkpt lat="69.101865" lon="26.462483"><ele>403.0</ele><time>2025-07-08T11:30:08Z</time></trkpt><trkpt lat="69.102207" lon="26.463363"><ele>403.0</ele><time>2025-07-08T11:31:08Z</time></trkpt><trkpt lat="69.102653" lon="26.463705"><ele>405.0</ele><time>2025-07-08T11:32:08Z</time></trkpt><trkpt lat="69.103493" lon="26.46487"><ele>408.0</ele><time>2025-07-08T11:34:08Z</time></trkpt><trkpt lat="69.104085" lon="26.464957"><ele>411.0</ele><time>2025-07-08T11:35:09Z</time></trkpt><trkpt lat="69.104598" lon="26.465518"><ele>413.0</ele><time>2025-07-08T11:36:08Z</time></trkpt><trkpt lat="69.105027" lon="26.466058"><ele>414.0</ele><time>2025-07-08T11:38:08Z</time></trkpt><trkpt lat="69.105027" lon="26.466058"><ele>414.0</ele><time>2025-07-08T11:38:18Z</time></trkpt><trkpt lat="69.105105" lon="26.466063"><ele>398.0</ele><time>2025-07-08T12:00:36Z</time></trkpt><trkpt lat="69.105105" lon="26.466063"><ele>397.0</ele><time>2025-07-08T12:01:07Z</time></trkpt><trkpt lat="69.105193" lon="26.466413"><ele>399.0</ele><time>2025-07-08T12:02:44Z</time></trkpt><trkpt lat="69.105273" lon="26.466823"><ele>398.0</ele><time>2025-07-08T12:03:08Z</time></trkpt><trkpt lat="69.105565" lon="26.467232"><ele>400.0</ele><time>2025-07-08T12:04:08Z</time></trkpt><trkpt lat="69.106072" lon="26.468215"><ele>398.0</ele><time>2025-07-08T12:05:09Z</time></trkpt><trkpt lat="69.106377" lon="26.468897"><ele>396.0</ele><time>2025-07-08T12:06:08Z</time></trkpt><trkpt lat="69.10671" lon="26.470112"><ele>394.0</ele><time>2025-07-08T12:07:09Z</time></trkpt><trkpt lat="69.106977" lon="26.471177"><ele>394.0</ele><time>2025-07-08T12:08:08Z</time></trkpt><trkpt lat="69.107073" lon="26.47275"><ele>392.0</ele><time>2025-07-08T12:10:08Z</time></trkpt><trkpt lat="69.107083" lon="26.474173"><ele>391.0</ele><time>2025-07-08T12:11:08Z</time></trkpt><trkpt lat="69.107057" lon="26.475817"><ele>393.0</ele><time>2025-07-08T12:13:08Z</time></trkpt><trkpt lat="69.107245" lon="26.477332"><ele>393.0</ele><time>2025-07-08T12:14:10Z</time></trkpt><trkpt lat="69.107112" lon="26.478355"><ele>395.0</ele><time>2025-07-08T12:15:09Z</time></trkpt><trkpt lat="69.107043" lon="26.480037"><ele>395.0</ele><time>2025-07-08T12:16:09Z</time></trkpt><trkpt lat="69.10712" lon="26.481207"><ele>395.0</ele><time>2025-07-08T12:17:08Z</time></trkpt><trkpt lat="69.107123" lon="26.482477"><ele>394.0</ele><time>2025-07-08T12:18:08Z</time></trkpt><trkpt lat="69.107143" lon="26.48373"><ele>394.0</ele><time>2025-07-08T12:19:08Z</time></trkpt><trkpt lat="69.107148" lon="26.48501"><ele>393.0</ele><time>2025-07-08T12:20:08Z</time></trkpt><trkpt lat="69.107157" lon="26.486005"><ele>393.0</ele><time>2025-07-08T12:21:09Z</time></trkpt><trkpt lat="69.10695" lon="26.487395"><ele>394.0</ele><time>2025-07-08T12:22:08Z</time></trkpt><trkpt lat="69.10664" lon="26.488543"><ele>396.0</ele><time>2025-07-08T12:23:08Z</time></trkpt><trkpt lat="69.106373" lon="26.489802"><ele>392.0</ele><time>2025-07-08T12:24:08Z</time></trkpt><trkpt lat="69.106213" lon="26.49053"><ele>390.0</ele><time>2025-07-08T12:25:08Z</time></trkpt><trkpt lat="69.105892" lon="26.490788"><ele>388.0</ele><time>2025-07-08T12:26:08Z</time></trkpt><trkpt lat="69.10551" lon="26.491663"><ele>384.0</ele><time>2025-07-08T12:27:08Z</time></trkpt><trkpt lat="69.105062" lon="26.492443"><ele>381.0</ele><time>2025-07-08T12:28:09Z</time></trkpt><trkpt lat="69.10468" lon="26.49412"><ele>381.0</ele><time>2025-07-08T12:29:09Z</time></trkpt><trkpt lat="69.104497" lon="26.494845"><ele>376.0</ele><time>2025-07-08T12:30:09Z</time></trkpt><trkpt lat="69.1044" lon="26.495628"><ele>375.0</ele><time>2025-07-08T12:31:09Z</time></trkpt><trkpt lat="69.104235" lon="26.496365"><ele>373.0</ele><time>2025-07-08T12:32:09Z</time></trkpt><trkpt lat="69.104042" lon="26.497583"><ele>369.0</ele><time>2025-07-08T12:33:09Z</time></trkpt><trkpt lat="69.103675" lon="26.498245"><ele>365.0</ele><time>2025-07-08T12:34:09Z</time></trkpt><trkpt lat="69.103405" lon="26.499187"><ele>360.0</ele><time>2025-07-08T12:35:08Z</time></trkpt><trkpt lat="69.103357" lon="26.500167"><ele>359.0</ele><time>2025-07-08T12:36:08Z</time></trkpt><trkpt lat="69.103282" lon="26.50148"><ele>359.0</ele><time>2025-07-08T12:37:08Z</time></trkpt><trkpt lat="69.103112" lon="26.50253"><ele>358.0</ele><time>2025-07-08T12:38:08Z</time></trkpt><trkpt lat="69.103022" lon="26.503583"><ele>359.0</ele><time>2025-07-08T12:39:08Z</time></trkpt><trkpt lat="69.10284" lon="26.504423"><ele>354.0</ele><time>2025-07-08T12:40:08Z</time></trkpt><trkpt lat="69.102783" lon="26.50549"><ele>347.0</ele><time>2025-07-08T12:41:08Z</time></trkpt><trkpt lat="69.102837" lon="26.506527"><ele>347.0</ele><time>2025-07-08T12:42:08Z</time></trkpt><trkpt lat="69.103037" lon="26.508303"><ele>346.0</ele><time>2025-07-08T12:44:09Z</time></trkpt><trkpt lat="69.103085" lon="26.509547"><ele>345.0</ele><time>2025-07-08T12:45:09Z</time></trkpt><trkpt lat="69.10325" lon="26.51064"><ele>344.0</ele><time>2025-07-08T12:46:08Z</time></trkpt><trkpt lat="69.103617" lon="26.511735"><ele>348.0</ele><time>2025-07-08T12:48:08Z</time></trkpt><trkpt lat="69.103765" lon="26.512523"><ele>349.0</ele><time>2025-07-08T12:49:08Z</time></trkpt><trkpt lat="69.104167" lon="26.513393"><ele>348.0</ele><time>2025-07-08T12:51:08Z</time></trkpt><trkpt lat="69.104393" lon="26.514427"><ele>346.0</ele><time>2025-07-08T12:52:09Z</time></trkpt><trkpt lat="69.104727" lon="26.515658"><ele>345.0</ele><time>2025-07-08T12:53:07Z</time></trkpt><trkpt lat="69.105167" lon="26.516352"><ele>344.0</ele><time>2025-07-08T12:54:09Z</time></trkpt><trkpt lat="69.105458" lon="26.517218"><ele>343.0</ele><time>2025-07-08T12:56:07Z</time></trkpt><trkpt lat="69.105498" lon="26.51803"><ele>333.0</ele><time>2025-07-08T12:57:08Z</time></trkpt><trkpt lat="69.105712" lon="26.519017"><ele>324.0</ele><time>2025-07-08T13:00:08Z</time></trkpt><trkpt lat="69.105893" lon="26.519793"><ele>321.0</ele><time>2025-07-08T13:01:08Z</time></trkpt><trkpt lat="69.106243" lon="26.520213"><ele>321.0</ele><time>2025-07-08T13:02:07Z</time></trkpt><trkpt lat="69.106498" lon="26.520847"><ele>321.0</ele><time>2025-07-08T13:03:08Z</time></trkpt><trkpt lat="69.106847" lon="26.521533"><ele>325.0</ele><time>2025-07-08T13:04:08Z</time></trkpt><trkpt lat="69.106847" lon="26.521533"><ele>325.0</ele><time>2025-07-08T13:04:32Z</time></trkpt><trkpt lat="69.107105" lon="26.52132"><ele>326.0</ele><time>2025-07-08T13:15:56Z</time></trkpt><trkpt lat="69.107262" lon="26.52209"><ele>320.0</ele><time>2025-07-08T13:17:08Z</time></trkpt><trkpt lat="69.107502" lon="26.523643"><ele>320.0</ele><time>2025-07-08T13:19:09Z</time></trkpt><trkpt lat="69.107693" lon="26.524437"><ele>318.0</ele><time>2025-07-08T13:20:08Z</time></trkpt><trkpt lat="69.108232" lon="26.524982"><ele>320.0</ele><time>2025-07-08T13:21:08Z</time></trkpt><trkpt lat="69.108632" lon="26.525595"><ele>319.0</ele><time>2025-07-08T13:22:08Z</time></trkpt><trkpt lat="69.109077" lon="26.526437"><ele>315.0</ele><time>2025-07-08T13:24:08Z</time></trkpt><trkpt lat="69.10945" lon="26.526755"><ele>319.0</ele><time>2025-07-08T13:25:09Z</time></trkpt><trkpt lat="69.109737" lon="26.527368"><ele>316.0</ele><time>2025-07-08T13:26:08Z</time></trkpt><trkpt lat="69.110132" lon="26.528187"><ele>315.0</ele><time>2025-07-08T13:27:07Z</time></trkpt><trkpt lat="69.110533" lon="26.529115"><ele>312.0</ele><time>2025-07-08T13:28:08Z</time></trkpt><trkpt lat="69.110833" lon="26.529645"><ele>313.0</ele><time>2025-07-08T13:29:08Z</time></trkpt><trkpt lat="69.111003" lon="26.530287"><ele>316.0</ele><time>2025-07-08T13:30:08Z</time></trkpt><trkpt lat="69.111385" lon="26.531703"><ele>314.0</ele><time>2025-07-08T13:32:08Z</time></trkpt><trkpt lat="69.111698" lon="26.532183"><ele>310.0</ele><time>2025-07-08T13:33:08Z</time></trkpt><trkpt lat="69.111927" lon="26.532975"><ele>309.0</ele><time>2025-07-08T13:34:08Z</time></trkpt><trkpt lat="69.112263" lon="26.533703"><ele>307.0</ele><time>2025-07-08T13:35:09Z</time></trkpt><trkpt lat="69.112423" lon="26.534792"><ele>305.0</ele><time>2025-07-08T13:36:09Z</time></trkpt><trkpt lat="69.112557" lon="26.535837"><ele>304.0</ele><time>2025-07-08T13:37:08Z</time></trkpt><trkpt lat="69.112563" lon="26.537355"><ele>303.0</ele><time>2025-07-08T13:39:08Z</time></trkpt><trkpt lat="69.112662" lon="26.538577"><ele>301.0</ele><time>2025-07-08T13:40:08Z</time></trkpt><trkpt lat="69.112813" lon="26.539782"><ele>300.0</ele><time>2025-07-08T13:41:09Z</time></trkpt><trkpt lat="69.112952" lon="26.541053"><ele>299.0</ele><time>2025-07-08T13:42:08Z</time></trkpt><trkpt lat="69.112963" lon="26.541448"><ele>300.0</ele><time>2025-07-08T13:43:53Z</time></trkpt></trkseg></trk></gpx>