<?xml version="1.0" encoding="UTF-8" standalone="no"?><gpx xmlns="http://www.topografix.com/GPX/1/1" xmlns:gpxtpx="http://www.garmin.com/xmlschemas/TrackPointExtension/v1" xmlns:xsi="http://www.w3.org/2001/XMLSchema-instance" creator="Suunto app" version="1.1" xsi:schemaLocation="http://www.topografix.com/GPX/1/1 http://www.topografix.com/GPX/1/1/gpx.xsd http://www.garmin.com/xmlschemas/TrackPointExtension/v1 http://www.garmin.com/xmlschemas/TrackPointExtensionv1.xsd"><metadata><name>suuntoapp-Trekking-2025-07-10T06-32-42Z</name><desc/><author><name>Jouni L</name></author></metadata><trk><name>suuntoapp-Trekking-2025-07-10T06-32-42Z</name><trkseg><trkpt lat="69.170177" lon="26.636928"><ele>373.0</ele><time>2025-07-10T06:32:42Z</time></trkpt><trkpt lat="69.170165" lon="26.636972"><ele>373.0</ele><time>2025-07-10T06:32:46Z</time></trkpt><trkpt lat="69.170185" lon="26.637"><ele>373.0</ele><time>2025-07-10T06:32:50Z</time></trkpt><trkpt lat="69.170205" lon="26.637038"><ele>373.0</ele><time>2025-07-10T06:32:54Z</time></trkpt><trkpt lat="69.17022" lon="26.637068"><ele>373.0</ele><time>2025-07-10T06:32:57Z</time></trkpt><trkpt lat="69.17024" lon="26.637097"><ele>373.0</ele><time>2025-07-10T06:33:00Z</time></trkpt><trkpt lat="69.170258" lon="26.637097"><ele>373.0</ele><time>2025-07-10T06:33:03Z</time></trkpt><trkpt lat="69.170278" lon="26.6371"><ele>373.0</ele><time>2025-07-10T06:33:06Z</time></trkpt><trkpt lat="69.170302" lon="26.637107"><ele>373.0</ele><time>2025-07-10T06:33:09Z</time></trkpt><trkpt lat="69.17032" lon="26.637115"><ele>373.0</ele><time>2025-07-10T06:33:12Z</time></trkpt><trkpt lat="69.170343" lon="26.637115"><ele>373.0</ele><time>2025-07-10T06:33:14Z</time></trkpt><trkpt lat="69.170363" lon="26.63712"><ele>373.0</ele><time>2025-07-10T06:33:16Z</time></trkpt><trkpt lat="69.170392" lon="26.637132"><ele>373.0</ele><time>2025-07-10T06:33:20Z</time></trkpt><trkpt lat="69.17041" lon="26.637148"><ele>372.0</ele><time>2025-07-10T06:33:21Z</time></trkpt><trkpt lat="69.170435" lon="26.63718"><ele>372.0</ele><time>2025-07-10T06:33:24Z</time></trkpt><trkpt lat="69.170453" lon="26.637212"><ele>372.0</ele><time>2025-07-10T06:33:26Z</time></trkpt><trkpt lat="69.17047" lon="26.637235"><ele>372.0</ele><time>2025-07-10T06:33:28Z</time></trkpt><trkpt lat="69.170487" lon="26.637268"><ele>372.0</ele><time>2025-07-10T06:33:31Z</time></trkpt><trkpt lat="69.170507" lon="26.637315"><ele>372.0</ele><time>2025-07-10T06:33:33Z</time></trkpt><trkpt lat="69.170522" lon="26.637355"><ele>372.0</ele><time>2025-07-10T06:33:35Z</time></trkpt><trkpt lat="69.170535" lon="26.637388"><ele>372.0</ele><time>2025-07-10T06:33:37Z</time></trkpt><trkpt lat="69.170553" lon="26.63741"><ele>372.0</ele><time>2025-07-10T06:33:39Z</time></trkpt><trkpt lat="69.170572" lon="26.637423"><ele>372.0</ele><time>2025-07-10T06:33:42Z</time></trkpt><trkpt lat="69.170592" lon="26.637437"><ele>372.0</ele><time>2025-07-10T06:33:43Z</time></trkpt><trkpt lat="69.170607" lon="26.637465"><ele>372.0</ele><time>2025-07-10T06:33:46Z</time></trkpt><trkpt lat="69.170622" lon="26.637495"><ele>372.0</ele><time>2025-07-10T06:33:47Z</time></trkpt><trkpt lat="69.170647" lon="26.637525"><ele>372.0</ele><time>2025-07-10T06:33:50Z</time></trkpt><trkpt lat="69.170663" lon="26.637545"><ele>372.0</ele><time>2025-07-10T06:33:52Z</time></trkpt><trkpt lat="69.170683" lon="26.63756"><ele>372.0</ele><time>2025-07-10T06:33:54Z</time></trkpt><trkpt lat="69.170703" lon="26.637582"><ele>372.0</ele><time>2025-07-10T06:33:56Z</time></trkpt><trkpt lat="69.170722" lon="26.637592"><ele>372.0</ele><time>2025-07-10T06:33:58Z</time></trkpt><trkpt lat="69.170742" lon="26.637605"><ele>373.0</ele><time>2025-07-10T06:34:00Z</time></trkpt><trkpt lat="69.170762" lon="26.637625"><ele>373.0</ele><time>2025-07-10T06:34:02Z</time></trkpt><trkpt lat="69.170778" lon="26.637645"><ele>373.0</ele><time>2025-07-10T06:34:04Z</time></trkpt><trkpt lat="69.170797" lon="26.63766"><ele>373.0</ele><time>2025-07-10T06:34:06Z</time></trkpt><trkpt lat="69.170822" lon="26.637688"><ele>373.0</ele><time>2025-07-10T06:34:09Z</time></trkpt><trkpt lat="69.17084" lon="26.637703"><ele>372.0</ele><time>2025-07-10T06:34:11Z</time></trkpt><trkpt lat="69.170858" lon="26.63772"><ele>372.0</ele><time>2025-07-10T06:34:13Z</time></trkpt><trkpt lat="69.170877" lon="26.637737"><ele>372.0</ele><time>2025-07-10T06:34:15Z</time></trkpt><trkpt lat="69.170897" lon="26.637758"><ele>372.0</ele><time>2025-07-10T06:34:17Z</time></trkpt><trkpt lat="69.170915" lon="26.637777"><ele>372.0</ele><time>2025-07-10T06:34:19Z</time></trkpt><trkpt lat="69.170935" lon="26.637795"><ele>372.0</ele><time>2025-07-10T06:34:21Z</time></trkpt><trkpt lat="69.170952" lon="26.63781"><ele>372.0</ele><time>2025-07-10T06:34:24Z</time></trkpt><trkpt lat="69.170975" lon="26.637837"><ele>372.0</ele><time>2025-07-10T06:34:26Z</time></trkpt><trkpt lat="69.170997" lon="26.637863"><ele>372.0</ele><time>2025-07-10T06:34:29Z</time></trkpt><trkpt lat="69.171015" lon="26.637875"><ele>372.0</ele><time>2025-07-10T06:34:31Z</time></trkpt><trkpt lat="69.171038" lon="26.637888"><ele>372.0</ele><time>2025-07-10T06:34:33Z</time></trkpt><trkpt lat="69.17106" lon="26.637892"><ele>372.0</ele><time>2025-07-10T06:34:36Z</time></trkpt><trkpt lat="69.171082" lon="26.637915"><ele>372.0</ele><time>2025-07-10T06:34:37Z</time></trkpt><trkpt lat="69.171107" lon="26.63793"><ele>372.0</ele><time>2025-07-10T06:34:40Z</time></trkpt><trkpt lat="69.171127" lon="26.637955"><ele>372.0</ele><time>2025-07-10T06:34:42Z</time></trkpt><trkpt lat="69.171148" lon="26.637972"><ele>372.0</ele><time>2025-07-10T06:34:45Z</time></trkpt><trkpt lat="69.171165" lon="26.638"><ele>372.0</ele><time>2025-07-10T06:34:47Z</time></trkpt><trkpt lat="69.171185" lon="26.63802"><ele>372.0</ele><time>2025-07-10T06:34:49Z</time></trkpt><trkpt lat="69.1712" lon="26.638053"><ele>373.0</ele><time>2025-07-10T06:34:52Z</time></trkpt><trkpt lat="69.171217" lon="26.638092"><ele>373.0</ele><time>2025-07-10T06:34:53Z</time></trkpt><trkpt lat="69.171245" lon="26.638107"><ele>373.0</ele><time>2025-07-10T06:34:57Z</time></trkpt><trkpt lat="69.171267" lon="26.638122"><ele>373.0</ele><time>2025-07-10T06:34:58Z</time></trkpt><trkpt lat="69.171285" lon="26.638148"><ele>372.0</ele><time>2025-07-10T06:35:00Z</time></trkpt><trkpt lat="69.1713" lon="26.638178"><ele>372.0</ele><time>2025-07-10T06:35:03Z</time></trkpt><trkpt lat="69.17132" lon="26.638197"><ele>372.0</ele><time>2025-07-10T06:35:04Z</time></trkpt><trkpt lat="69.171347" lon="26.638223"><ele>372.0</ele><time>2025-07-10T06:35:08Z</time></trkpt><trkpt lat="69.171368" lon="26.638255"><ele>372.0</ele><time>2025-07-10T06:35:11Z</time></trkpt><trkpt lat="69.171387" lon="26.63829"><ele>372.0</ele><time>2025-07-10T06:35:13Z</time></trkpt><trkpt lat="69.171408" lon="26.638298"><ele>372.0</ele><time>2025-07-10T06:35:15Z</time></trkpt><trkpt lat="69.171432" lon="26.638303"><ele>372.0</ele><time>2025-07-10T06:35:16Z</time></trkpt><trkpt lat="69.171452" lon="26.638322"><ele>372.0</ele><time>2025-07-10T06:35:18Z</time></trkpt><trkpt lat="69.17147" lon="26.638347"><ele>372.0</ele><time>2025-07-10T06:35:20Z</time></trkpt><trkpt lat="69.171488" lon="26.638368"><ele>372.0</ele><time>2025-07-10T06:35:23Z</time></trkpt><trkpt lat="69.171515" lon="26.638397"><ele>372.0</ele><time>2025-07-10T06:35:25Z</time></trkpt><trkpt lat="69.171537" lon="26.63842"><ele>372.0</ele><time>2025-07-10T06:35:27Z</time></trkpt><trkpt lat="69.171557" lon="26.638432"><ele>372.0</ele><time>2025-07-10T06:35:30Z</time></trkpt><trkpt lat="69.171968" lon="26.638558"><ele>369.0</ele><time>2025-07-10T06:36:06Z</time></trkpt><trkpt lat="69.17232" lon="26.638923"><ele>364.0</ele><time>2025-07-10T06:37:06Z</time></trkpt><trkpt lat="69.172887" lon="26.639162"><ele>358.0</ele><time>2025-07-10T06:38:06Z</time></trkpt><trkpt lat="69.173563" lon="26.639575"><ele>356.0</ele><time>2025-07-10T06:39:06Z</time></trkpt><trkpt lat="69.173658" lon="26.640987"><ele>352.0</ele><time>2025-07-10T06:40:06Z</time></trkpt><trkpt lat="69.173432" lon="26.64251"><ele>351.0</ele><time>2025-07-10T06:41:05Z</time></trkpt><trkpt lat="69.173045" lon="26.643258"><ele>343.0</ele><time>2025-07-10T06:42:06Z</time></trkpt><trkpt lat="69.172858" lon="26.644392"><ele>335.0</ele><time>2025-07-10T06:43:06Z</time></trkpt><trkpt lat="69.172592" lon="26.645035"><ele>328.0</ele><time>2025-07-10T06:44:05Z</time></trkpt><trkpt lat="69.17243" lon="26.64631"><ele>318.0</ele><time>2025-07-10T06:45:06Z</time></trkpt><trkpt lat="69.172095" lon="26.64657"><ele>317.0</ele><time>2025-07-10T06:46:05Z</time></trkpt><trkpt lat="69.172118" lon="26.647557"><ele>311.0</ele><time>2025-07-10T06:47:06Z</time></trkpt><trkpt lat="69.17171" lon="26.647745"><ele>304.0</ele><time>2025-07-10T06:48:05Z</time></trkpt><trkpt lat="69.171268" lon="26.649708"><ele>291.0</ele><time>2025-07-10T06:50:06Z</time></trkpt><trkpt lat="69.17137" lon="26.65079"><ele>284.0</ele><time>2025-07-10T06:52:06Z</time></trkpt><trkpt lat="69.171463" lon="26.652123"><ele>282.0</ele><time>2025-07-10T06:53:05Z</time></trkpt><trkpt lat="69.171507" lon="26.653047"><ele>279.0</ele><time>2025-07-10T06:54:06Z</time></trkpt><trkpt lat="69.171808" lon="26.654442"><ele>280.0</ele><time>2025-07-10T06:55:06Z</time></trkpt><trkpt lat="69.172017" lon="26.655578"><ele>279.0</ele><time>2025-07-10T06:56:06Z</time></trkpt><trkpt lat="69.172457" lon="26.656852"><ele>278.0</ele><time>2025-07-10T06:57:06Z</time></trkpt><trkpt lat="69.172655" lon="26.658127"><ele>275.0</ele><time>2025-07-10T06:58:05Z</time></trkpt><trkpt lat="69.173098" lon="26.659013"><ele>274.0</ele><time>2025-07-10T06:59:06Z</time></trkpt><trkpt lat="69.1735" lon="26.660027"><ele>273.0</ele><time>2025-07-10T07:00:05Z</time></trkpt><trkpt lat="69.173852" lon="26.660322"><ele>273.0</ele><time>2025-07-10T07:01:06Z</time></trkpt><trkpt lat="69.174352" lon="26.660903"><ele>273.0</ele><time>2025-07-10T07:02:06Z</time></trkpt><trkpt lat="69.174782" lon="26.661617"><ele>273.0</ele><time>2025-07-10T07:03:06Z</time></trkpt><trkpt lat="69.175112" lon="26.66191"><ele>274.0</ele><time>2025-07-10T07:04:06Z</time></trkpt><trkpt lat="69.175498" lon="26.662645"><ele>274.0</ele><time>2025-07-10T07:05:05Z</time></trkpt><trkpt lat="69.176083" lon="26.663822"><ele>270.0</ele><time>2025-07-10T07:07:06Z</time></trkpt><trkpt lat="69.176452" lon="26.66506"><ele>270.0</ele><time>2025-07-10T07:08:06Z</time></trkpt><trkpt lat="69.176972" lon="26.66564"><ele>271.0</ele><time>2025-07-10T07:09:06Z</time></trkpt><trkpt lat="69.177337" lon="26.666605"><ele>270.0</ele><time>2025-07-10T07:10:05Z</time></trkpt><trkpt lat="69.177855" lon="26.667013"><ele>270.0</ele><time>2025-07-10T07:11:06Z</time></trkpt><trkpt lat="69.178268" lon="26.667857"><ele>271.0</ele><time>2025-07-10T07:12:06Z</time></trkpt><trkpt lat="69.17871" lon="26.668328"><ele>270.0</ele><time>2025-07-10T07:13:05Z</time></trkpt><trkpt lat="69.17905" lon="26.66886"><ele>272.0</ele><time>2025-07-10T07:14:06Z</time></trkpt><trkpt lat="69.179372" lon="26.669715"><ele>269.0</ele><time>2025-07-10T07:15:05Z</time></trkpt><trkpt lat="69.17977" lon="26.670628"><ele>268.0</ele><time>2025-07-10T07:16:06Z</time></trkpt><trkpt lat="69.179825" lon="26.671843"><ele>268.0</ele><time>2025-07-10T07:17:05Z</time></trkpt><trkpt lat="69.180055" lon="26.672767"><ele>268.0</ele><time>2025-07-10T07:18:05Z</time></trkpt><trkpt lat="69.180477" lon="26.67366"><ele>268.0</ele><time>2025-07-10T07:19:06Z</time></trkpt><trkpt lat="69.180808" lon="26.674783"><ele>269.0</ele><time>2025-07-10T07:20:05Z</time></trkpt><trkpt lat="69.181177" lon="26.675718"><ele>269.0</ele><time>2025-07-10T07:21:06Z</time></trkpt><trkpt lat="69.181493" lon="26.676205"><ele>268.0</ele><time>2025-07-10T07:22:06Z</time></trkpt><trkpt lat="69.181762" lon="26.677093"><ele>268.0</ele><time>2025-07-10T07:23:06Z</time></trkpt><trkpt lat="69.182142" lon="26.677542"><ele>267.0</ele><time>2025-07-10T07:24:06Z</time></trkpt><trkpt lat="69.182482" lon="26.678283"><ele>266.0</ele><time>2025-07-10T07:25:05Z</time></trkpt><trkpt lat="69.182927" lon="26.679332"><ele>263.0</ele><time>2025-07-10T07:26:05Z</time></trkpt><trkpt lat="69.18323" lon="26.680022"><ele>264.0</ele><time>2025-07-10T07:27:07Z</time></trkpt><trkpt lat="69.18359" lon="26.681103"><ele>262.0</ele><time>2025-07-10T07:28:06Z</time></trkpt><trkpt lat="69.184045" lon="26.68157"><ele>262.0</ele><time>2025-07-10T07:29:05Z</time></trkpt><trkpt lat="69.184433" lon="26.681808"><ele>262.0</ele><time>2025-07-10T07:30:05Z</time></trkpt><trkpt lat="69.184335" lon="26.682817"><ele>264.0</ele><time>2025-07-10T07:31:06Z</time></trkpt><trkpt lat="69.184335" lon="26.682817"><ele>264.0</ele><time>2025-07-10T07:31:08Z</time></trkpt><trkpt lat="69.184597" lon="26.68421"><ele>263.0</ele><time>2025-07-10T07:45:06Z</time></trkpt><trkpt lat="69.1852" lon="26.684627"><ele>262.0</ele><time>2025-07-10T07:46:06Z</time></trkpt><trkpt lat="69.185422" lon="26.685408"><ele>262.0</ele><time>2025-07-10T07:47:06Z</time></trkpt><trkpt lat="69.185863" lon="26.686227"><ele>262.0</ele><time>2025-07-10T07:48:06Z</time></trkpt><trkpt lat="69.186132" lon="26.687193"><ele>260.0</ele><time>2025-07-10T07:49:06Z</time></trkpt><trkpt lat="69.186768" lon="26.688623"><ele>259.0</ele><time>2025-07-10T07:50:06Z</time></trkpt><trkpt lat="69.187128" lon="26.688978"><ele>259.0</ele><time>2025-07-10T07:51:06Z</time></trkpt><trkpt lat="69.18741" lon="26.68928"><ele>259.0</ele><time>2025-07-10T07:52:06Z</time></trkpt><trkpt lat="69.18807" lon="26.689918"><ele>258.0</ele><time>2025-07-10T07:53:06Z</time></trkpt><trkpt lat="69.188343" lon="26.689985"><ele>258.0</ele><time>2025-07-10T07:55:07Z</time></trkpt><trkpt lat="69.188343" lon="26.689985"><ele>258.0</ele><time>2025-07-10T07:55:18Z</time></trkpt><trkpt lat="69.188432" lon="26.690482"><ele>257.0</ele><time>2025-07-10T08:02:53Z</time></trkpt><trkpt lat="69.188582" lon="26.690678"><ele>254.0</ele><time>2025-07-10T08:04:06Z</time></trkpt><trkpt lat="69.189548" lon="26.690868"><ele>253.0</ele><time>2025-07-10T08:06:06Z</time></trkpt><trkpt lat="69.190225" lon="26.690908"><ele>253.0</ele><time>2025-07-10T08:07:06Z</time></trkpt><trkpt lat="69.190505" lon="26.691285"><ele>253.0</ele><time>2025-07-10T08:08:05Z</time></trkpt><trkpt lat="69.190835" lon="26.691403"><ele>252.0</ele><time>2025-07-10T08:09:06Z</time></trkpt><trkpt lat="69.191117" lon="26.69183"><ele>252.0</ele><time>2025-07-10T08:10:06Z</time></trkpt><trkpt lat="69.191408" lon="26.692527"><ele>251.0</ele><time>2025-07-10T08:11:05Z</time></trkpt><trkpt lat="69.191742" lon="26.692845"><ele>252.0</ele><time>2025-07-10T08:12:07Z</time></trkpt><trkpt lat="69.19228" lon="26.693793"><ele>251.0</ele><time>2025-07-10T08:15:07Z</time></trkpt><trkpt lat="69.192675" lon="26.694417"><ele>251.0</ele><time>2025-07-10T08:16:06Z</time></trkpt><trkpt lat="69.192938" lon="26.694942"><ele>252.0</ele><time>2025-07-10T08:17:06Z</time></trkpt><trkpt lat="69.19326" lon="26.695112"><ele>254.0</ele><time>2025-07-10T08:18:05Z</time></trkpt><trkpt lat="69.193717" lon="26.695415"><ele>252.0</ele><time>2025-07-10T08:19:07Z</time></trkpt><trkpt lat="69.19397" lon="26.695732"><ele>252.0</ele><time>2025-07-10T08:20:06Z</time></trkpt><trkpt lat="69.194262" lon="26.69561"><ele>253.0</ele><time>2025-07-10T08:21:06Z</time></trkpt><trkpt lat="69.195008" lon="26.695743"><ele>248.0</ele><time>2025-07-10T08:23:07Z</time></trkpt><trkpt lat="69.195457" lon="26.696287"><ele>250.0</ele><time>2025-07-10T08:24:06Z</time></trkpt><trkpt lat="69.19596" lon="26.696658"><ele>248.0</ele><time>2025-07-10T08:25:06Z</time></trkpt><trkpt lat="69.196398" lon="26.696628"><ele>249.0</ele><time>2025-07-10T08:26:05Z</time></trkpt><trkpt lat="69.197415" lon="26.697368"><ele>250.0</ele><time>2025-07-10T08:27:08Z</time></trkpt><trkpt lat="69.197772" lon="26.696853"><ele>249.0</ele><time>2025-07-10T08:28:06Z</time></trkpt><trkpt lat="69.198335" lon="26.696605"><ele>249.0</ele><time>2025-07-10T08:29:06Z</time></trkpt><trkpt lat="69.198642" lon="26.69791"><ele>250.0</ele><time>2025-07-10T08:30:06Z</time></trkpt><trkpt lat="69.199162" lon="26.697875"><ele>249.0</ele><time>2025-07-10T08:31:06Z</time></trkpt><trkpt lat="69.199962" lon="26.698593"><ele>246.0</ele><time>2025-07-10T08:32:08Z</time></trkpt><trkpt lat="69.200282" lon="26.698562"><ele>245.0</ele><time>2025-07-10T08:33:06Z</time></trkpt><trkpt lat="69.200608" lon="26.699493"><ele>243.0</ele><time>2025-07-10T08:34:05Z</time></trkpt><trkpt lat="69.200972" lon="26.699565"><ele>243.0</ele><time>2025-07-10T08:35:06Z</time></trkpt><trkpt lat="69.201495" lon="26.699987"><ele>243.0</ele><time>2025-07-10T08:36:06Z</time></trkpt><trkpt lat="69.201972" lon="26.700395"><ele>242.0</ele><time>2025-07-10T08:37:06Z</time></trkpt><trkpt lat="69.20231" lon="26.700895"><ele>242.0</ele><time>2025-07-10T08:38:06Z</time></trkpt><trkpt lat="69.202622" lon="26.701932"><ele>243.0</ele><time>2025-07-10T08:39:05Z</time></trkpt><trkpt lat="69.203505" lon="26.70202"><ele>242.0</ele><time>2025-07-10T08:40:08Z</time></trkpt><trkpt lat="69.203717" lon="26.70344"><ele>242.0</ele><time>2025-07-10T08:41:06Z</time></trkpt><trkpt lat="69.203563" lon="26.7049"><ele>242.0</ele><time>2025-07-10T08:42:06Z</time></trkpt><trkpt lat="69.20346" lon="26.706872"><ele>242.0</ele><time>2025-07-10T08:43:06Z</time></trkpt><trkpt lat="69.203478" lon="26.708003"><ele>241.0</ele><time>2025-07-10T08:44:05Z</time></trkpt><trkpt lat="69.203273" lon="26.709513"><ele>241.0</ele><time>2025-07-10T08:45:06Z</time></trkpt><trkpt lat="69.203127" lon="26.71066"><ele>240.0</ele><time>2025-07-10T08:46:06Z</time></trkpt><trkpt lat="69.203202" lon="26.712538"><ele>240.0</ele><time>2025-07-10T08:47:05Z</time></trkpt><trkpt lat="69.202937" lon="26.714593"><ele>238.0</ele><time>2025-07-10T08:48:06Z</time></trkpt><trkpt lat="69.203123" lon="26.715473"><ele>241.0</ele><time>2025-07-10T08:49:06Z</time></trkpt><trkpt lat="69.203223" lon="26.717278"><ele>240.0</ele><time>2025-07-10T08:50:06Z</time></trkpt><trkpt lat="69.203442" lon="26.718982"><ele>237.0</ele><time>2025-07-10T08:51:05Z</time></trkpt><trkpt lat="69.203442" lon="26.718982"><ele>240.0</ele><time>2025-07-10T08:51:52Z</time></trkpt><trkpt lat="69.203673" lon="26.719175"><ele>243.0</ele><time>2025-07-10T09:07:02Z</time></trkpt><trkpt lat="69.20402" lon="26.719583"><ele>243.0</ele><time>2025-07-10T09:08:05Z</time></trkpt><trkpt lat="69.20451" lon="26.721265"><ele>240.0</ele><time>2025-07-10T09:09:06Z</time></trkpt><trkpt lat="69.20485" lon="26.722312"><ele>240.0</ele><time>2025-07-10T09:10:06Z</time></trkpt><trkpt lat="69.205128" lon="26.723232"><ele>239.0</ele><time>2025-07-10T09:11:06Z</time></trkpt><trkpt lat="69.205658" lon="26.723562"><ele>238.0</ele><time>2025-07-10T09:12:07Z</time></trkpt><trkpt lat="69.206025" lon="26.724277"><ele>240.0</ele><time>2025-07-10T09:13:05Z</time></trkpt><trkpt lat="69.206455" lon="26.725053"><ele>239.0</ele><time>2025-07-10T09:14:08Z</time></trkpt><trkpt lat="69.206822" lon="26.7252"><ele>239.0</ele><time>2025-07-10T09:15:06Z</time></trkpt><trkpt lat="69.207405" lon="26.726642"><ele>238.0</ele><time>2025-07-10T09:16:07Z</time></trkpt><trkpt lat="69.20787" lon="26.726752"><ele>239.0</ele><time>2025-07-10T09:17:06Z</time></trkpt><trkpt lat="69.208335" lon="26.727792"><ele>238.0</ele><time>2025-07-10T09:18:06Z</time></trkpt><trkpt lat="69.208792" lon="26.72889"><ele>238.0</ele><time>2025-07-10T09:19:06Z</time></trkpt><trkpt lat="69.209257" lon="26.730183"><ele>237.0</ele><time>2025-07-10T09:20:06Z</time></trkpt><trkpt lat="69.209745" lon="26.730837"><ele>236.0</ele><time>2025-07-10T09:21:06Z</time></trkpt><trkpt lat="69.210297" lon="26.731217"><ele>236.0</ele><time>2025-07-10T09:22:05Z</time></trkpt><trkpt lat="69.210575" lon="26.731255"><ele>235.0</ele><time>2025-07-10T09:23:06Z</time></trkpt><trkpt lat="69.21097" lon="26.731615"><ele>236.0</ele><time>2025-07-10T09:24:06Z</time></trkpt><trkpt lat="69.211245" lon="26.732115"><ele>237.0</ele><time>2025-07-10T09:25:06Z</time></trkpt><trkpt lat="69.211822" lon="26.732538"><ele>237.0</ele><time>2025-07-10T09:26:06Z</time></trkpt><trkpt lat="69.212218" lon="26.733272"><ele>237.0</ele><time>2025-07-10T09:27:06Z</time></trkpt><trkpt lat="69.212465" lon="26.733938"><ele>238.0</ele><time>2025-07-10T09:28:06Z</time></trkpt><trkpt lat="69.213067" lon="26.73513"><ele>239.0</ele><time>2025-07-10T09:30:06Z</time></trkpt><trkpt lat="69.213167" lon="26.736008"><ele>241.0</ele><time>2025-07-10T09:32:06Z</time></trkpt><trkpt lat="69.213767" lon="26.737247"><ele>241.0</ele><time>2025-07-10T09:33:07Z</time></trkpt><trkpt lat="69.214287" lon="26.738192"><ele>240.0</ele><time>2025-07-10T09:34:05Z</time></trkpt><trkpt lat="69.214598" lon="26.739012"><ele>240.0</ele><time>2025-07-10T09:35:06Z</time></trkpt><trkpt lat="69.21491" lon="26.738797"><ele>241.0</ele><time>2025-07-10T09:36:06Z</time></trkpt><trkpt lat="69.215263" lon="26.738742"><ele>241.0</ele><time>2025-07-10T09:37:06Z</time></trkpt><trkpt lat="69.215165" lon="26.740688"><ele>240.0</ele><time>2025-07-10T09:38:06Z</time></trkpt><trkpt lat="69.215177" lon="26.741703"><ele>241.0</ele><time>2025-07-10T09:39:06Z</time></trkpt><trkpt lat="69.215408" lon="26.742785"><ele>240.0</ele><time>2025-07-10T09:40:06Z</time></trkpt><trkpt lat="69.215758" lon="26.74384"><ele>237.0</ele><time>2025-07-10T09:41:05Z</time></trkpt><trkpt lat="69.216837" lon="26.74561"><ele>235.0</ele><time>2025-07-10T09:42:07Z</time></trkpt><trkpt lat="69.217278" lon="26.746668"><ele>235.0</ele><time>2025-07-10T09:43:06Z</time></trkpt><trkpt lat="69.218097" lon="26.748333"><ele>238.0</ele><time>2025-07-10T09:45:05Z</time></trkpt><trkpt lat="69.218537" lon="26.747828"><ele>233.0</ele><time>2025-07-10T09:47:06Z</time></trkpt><trkpt lat="69.21878" lon="26.750668"><ele>234.0</ele><time>2025-07-10T09:48:08Z</time></trkpt><trkpt lat="69.219183" lon="26.75056"><ele>233.0</ele><time>2025-07-10T09:50:06Z</time></trkpt><trkpt lat="69.21968" lon="26.751852"><ele>230.0</ele><time>2025-07-10T09:51:06Z</time></trkpt><trkpt lat="69.220108" lon="26.752638"><ele>229.0</ele><time>2025-07-10T09:52:06Z</time></trkpt><trkpt lat="69.220538" lon="26.753468"><ele>232.0</ele><time>2025-07-10T09:54:05Z</time></trkpt><trkpt lat="69.220997" lon="26.75387"><ele>231.0</ele><time>2025-07-10T09:55:06Z</time></trkpt><trkpt lat="69.221263" lon="26.754465"><ele>231.0</ele><time>2025-07-10T09:56:06Z</time></trkpt><trkpt lat="69.221683" lon="26.754888"><ele>232.0</ele><time>2025-07-10T09:57:06Z</time></trkpt><trkpt lat="69.222238" lon="26.756545"><ele>231.0</ele><time>2025-07-10T09:59:05Z</time></trkpt><trkpt lat="69.222662" lon="26.75779"><ele>229.0</ele><time>2025-07-10T10:00:06Z</time></trkpt><trkpt lat="69.22283" lon="26.758665"><ele>230.0</ele><time>2025-07-10T10:01:06Z</time></trkpt><trkpt lat="69.223098" lon="26.759493"><ele>229.0</ele><time>2025-07-10T10:02:06Z</time></trkpt><trkpt lat="69.223585" lon="26.75968"><ele>231.0</ele><time>2025-07-10T10:03:06Z</time></trkpt><trkpt lat="69.223673" lon="26.760595"><ele>231.0</ele><time>2025-07-10T10:04:05Z</time></trkpt><trkpt lat="69.224262" lon="26.762015"><ele>229.0</ele><time>2025-07-10T10:05:06Z</time></trkpt><trkpt lat="69.224683" lon="26.763102"><ele>227.0</ele><time>2025-07-10T10:06:06Z</time></trkpt><trkpt lat="69.224683" lon="26.763102"><ele>227.0</ele><time>2025-07-10T10:06:30Z</time></trkpt><trkpt lat="69.224975" lon="26.764502"><ele>227.0</ele><time>2025-07-10T10:22:47Z</time></trkpt><trkpt lat="69.225388" lon="26.765485"><ele>227.0</ele><time>2025-07-10T10:24:06Z</time></trkpt><trkpt lat="69.225773" lon="26.766327"><ele>227.0</ele><time>2025-07-10T10:25:06Z</time></trkpt><trkpt lat="69.226163" lon="26.766787"><ele>228.0</ele><time>2025-07-10T10:27:05Z</time></trkpt><trkpt lat="69.22653" lon="26.768105"><ele>227.0</ele><time>2025-07-10T10:29:05Z</time></trkpt><trkpt lat="69.226863" lon="26.769013"><ele>228.0</ele><time>2025-07-10T10:30:06Z</time></trkpt><trkpt lat="69.227388" lon="26.769403"><ele>226.0</ele><time>2025-07-10T10:31:07Z</time></trkpt><trkpt lat="69.227877" lon="26.770543"><ele>228.0</ele><time>2025-07-10T10:33:06Z</time></trkpt><trkpt lat="69.228262" lon="26.771138"><ele>226.0</ele><time>2025-07-10T10:34:07Z</time></trkpt><trkpt lat="69.228502" lon="26.772178"><ele>225.0</ele><time>2025-07-10T10:35:07Z</time></trkpt><trkpt lat="69.22918" lon="26.773497"><ele>225.0</ele><time>2025-07-10T10:37:07Z</time></trkpt><trkpt lat="69.22946" lon="26.774207"><ele>224.0</ele><time>2025-07-10T10:38:07Z</time></trkpt><trkpt lat="69.230902" lon="26.774875"><ele>229.0</ele><time>2025-07-10T10:40:35Z</time></trkpt><trkpt lat="69.231423" lon="26.775965"><ele>228.0</ele><time>2025-07-10T10:41:50Z</time></trkpt><trkpt lat="69.23273" lon="26.777923"><ele>227.0</ele><time>2025-07-10T10:44:05Z</time></trkpt><trkpt lat="69.234193" lon="26.780298"><ele>221.0</ele><time>2025-07-10T10:48:06Z</time></trkpt><trkpt lat="69.235268" lon="26.78195"><ele>218.0</ele><time>2025-07-10T10:50:06Z</time></trkpt><trkpt lat="69.23632" lon="26.783142"><ele>217.0</ele><time>2025-07-10T10:50:38Z</time></trkpt><trkpt lat="69.237533" lon="26.782647"><ele>218.0</ele><time>2025-07-10T10:52:38Z</time></trkpt><trkpt lat="69.238272" lon="26.784373"><ele>214.0</ele><time>2025-07-10T10:53:37Z</time></trkpt><trkpt lat="69.238723" lon="26.785328"><ele>214.0</ele><time>2025-07-10T10:54:37Z</time></trkpt><trkpt lat="69.239053" lon="26.7864"><ele>213.0</ele><time>2025-07-10T10:55:37Z</time></trkpt><trkpt lat="69.239392" lon="26.787525"><ele>213.0</ele><time>2025-07-10T10:56:36Z</time></trkpt><trkpt lat="69.240022" lon="26.787787"><ele>213.0</ele><time>2025-07-10T10:57:37Z</time></trkpt><trkpt lat="69.240397" lon="26.78894"><ele>212.0</ele><time>2025-07-10T10:58:36Z</time></trkpt><trkpt lat="69.241102" lon="26.789568"><ele>211.0</ele><time>2025-07-10T10:59:36Z</time></trkpt><trkpt lat="69.241577" lon="26.790177"><ele>212.0</ele><time>2025-07-10T11:00:36Z</time></trkpt><trkpt lat="69.241972" lon="26.791643"><ele>212.0</ele><time>2025-07-10T11:01:36Z</time></trkpt><trkpt lat="69.242292" lon="26.792787"><ele>213.0</ele><time>2025-07-10T11:02:37Z</time></trkpt><trkpt lat="69.242832" lon="26.79328"><ele>211.0</ele><time>2025-07-10T11:03:37Z</time></trkpt><trkpt lat="69.24366" lon="26.792355"><ele>217.0</ele><time>2025-07-10T11:16:55Z</time></trkpt><trkpt lat="69.243692" lon="26.79281"><ele>216.0</ele><time>2025-07-10T11:17:36Z</time></trkpt><trkpt lat="69.24378" lon="26.793877"><ele>218.0</ele><time>2025-07-10T11:18:37Z</time></trkpt><trkpt lat="69.244083" lon="26.7955"><ele>221.0</ele><time>2025-07-10T11:20:37Z</time></trkpt><trkpt lat="69.244403" lon="26.79673"><ele>218.0</ele><time>2025-07-10T11:21:37Z</time></trkpt><trkpt lat="69.244818" lon="26.797617"><ele>219.0</ele><time>2025-07-10T11:22:37Z</time></trkpt><trkpt lat="69.245188" lon="26.798295"><ele>219.0</ele><time>2025-07-10T11:23:36Z</time></trkpt><trkpt lat="69.245925" lon="26.7988"><ele>218.0</ele><time>2025-07-10T11:24:36Z</time></trkpt><trkpt lat="69.246397" lon="26.798963"><ele>220.0</ele><time>2025-07-10T11:25:36Z</time></trkpt><trkpt lat="69.246958" lon="26.798415"><ele>218.0</ele><time>2025-07-10T11:26:37Z</time></trkpt><trkpt lat="69.247473" lon="26.798442"><ele>221.0</ele><time>2025-07-10T11:27:37Z</time></trkpt><trkpt lat="69.247975" lon="26.79935"><ele>226.0</ele><time>2025-07-10T11:28:37Z</time></trkpt><trkpt lat="69.248323" lon="26.799968"><ele>227.0</ele><time>2025-07-10T11:29:37Z</time></trkpt><trkpt lat="69.248637" lon="26.800637"><ele>227.0</ele><time>2025-07-10T11:30:36Z</time></trkpt><trkpt lat="69.249227" lon="26.801325"><ele>225.0</ele><time>2025-07-10T11:31:36Z</time></trkpt><trkpt lat="69.249785" lon="26.801893"><ele>226.0</ele><time>2025-07-10T11:32:37Z</time></trkpt><trkpt lat="69.250262" lon="26.802617"><ele>227.0</ele><time>2025-07-10T11:33:37Z</time></trkpt><trkpt lat="69.250808" lon="26.80323"><ele>228.0</ele><time>2025-07-10T11:35:37Z</time></trkpt><trkpt lat="69.251203" lon="26.80403"><ele>229.0</ele><time>2025-07-10T11:36:36Z</time></trkpt><trkpt lat="69.251547" lon="26.804707"><ele>226.0</ele><time>2025-07-10T11:37:37Z</time></trkpt><trkpt lat="69.25191" lon="26.806182"><ele>222.0</ele><time>2025-07-10T11:38:37Z</time></trkpt><trkpt lat="69.252167" lon="26.807237"><ele>218.0</ele><time>2025-07-10T11:39:37Z</time></trkpt><trkpt lat="69.2524" lon="26.808695"><ele>216.0</ele><time>2025-07-10T11:40:36Z</time></trkpt><trkpt lat="69.25253" lon="26.810463"><ele>217.0</ele><time>2025-07-10T11:41:37Z</time></trkpt><trkpt lat="69.252775" lon="26.811497"><ele>219.0</ele><time>2025-07-10T11:42:37Z</time></trkpt><trkpt lat="69.253058" lon="26.812163"><ele>219.0</ele><time>2025-07-10T11:43:37Z</time></trkpt><trkpt lat="69.253308" lon="26.812553"><ele>219.0</ele><time>2025-07-10T11:44:37Z</time></trkpt><trkpt lat="69.25381" lon="26.813627"><ele>220.0</ele><time>2025-07-10T11:45:36Z</time></trkpt><trkpt lat="69.254185" lon="26.81471"><ele>218.0</ele><time>2025-07-10T11:46:37Z</time></trkpt><trkpt lat="69.254518" lon="26.816063"><ele>215.0</ele><time>2025-07-10T11:47:37Z</time></trkpt><trkpt lat="69.25487" lon="26.816798"><ele>216.0</ele><time>2025-07-10T11:49:36Z</time></trkpt><trkpt lat="69.255235" lon="26.817415"><ele>216.0</ele><time>2025-07-10T11:50:36Z</time></trkpt><trkpt lat="69.254823" lon="26.816958"><ele>216.0</ele><time>2025-07-10T11:51:36Z</time></trkpt><trkpt lat="69.254185" lon="26.81703"><ele>215.0</ele><time>2025-07-10T11:52:36Z</time></trkpt><trkpt lat="69.253785" lon="26.817202"><ele>216.0</ele><time>2025-07-10T11:53:36Z</time></trkpt><trkpt lat="69.253277" lon="26.81657"><ele>217.0</ele><time>2025-07-10T11:54:37Z</time></trkpt><trkpt lat="69.25271" lon="26.816745"><ele>217.0</ele><time>2025-07-10T11:55:36Z</time></trkpt><trkpt lat="69.252075" lon="26.817223"><ele>223.0</ele><time>2025-07-10T11:56:37Z</time></trkpt><trkpt lat="69.252075" lon="26.817223"><ele>223.0</ele><time>2025-07-10T11:56:47Z</time></trkpt></trkseg></trk></gpx>