<?xml version="1.0" encoding="UTF-8" standalone="no"?><gpx xmlns="http://www.topografix.com/GPX/1/1" xmlns:gpxtpx="http://www.garmin.com/xmlschemas/TrackPointExtension/v1" xmlns:xsi="http://www.w3.org/2001/XMLSchema-instance" creator="Suunto app" version="1.1" xsi:schemaLocation="http://www.topografix.com/GPX/1/1 http://www.topografix.com/GPX/1/1/gpx.xsd http://www.garmin.com/xmlschemas/TrackPointExtension/v1 http://www.garmin.com/xmlschemas/TrackPointExtensionv1.xsd"><metadata><name>suuntoapp-Trekking-2025-07-07T08-18-50Z</name><desc/><author><name>Jouni L</name></author></metadata><trk><name>suuntoapp-Trekking-2025-07-07T08-18-50Z</name><trkseg><trkpt lat="69.147287" lon="26.30442"><ele>336.0</ele><time>2025-07-07T08:18:50Z</time></trkpt><trkpt lat="69.14729" lon="26.304385"><ele>336.0</ele><time>2025-07-07T08:18:54Z</time></trkpt><trkpt lat="69.147292" lon="26.304332"><ele>336.0</ele><time>2025-07-07T08:18:58Z</time></trkpt><trkpt lat="69.147285" lon="26.30427"><ele>336.0</ele><time>2025-07-07T08:19:01Z</time></trkpt><trkpt lat="69.147283" lon="26.30422"><ele>336.0</ele><time>2025-07-07T08:19:03Z</time></trkpt><trkpt lat="69.14729" lon="26.304168"><ele>336.0</ele><time>2025-07-07T08:19:05Z</time></trkpt><trkpt lat="69.147298" lon="26.304098"><ele>336.0</ele><time>2025-07-07T08:19:08Z</time></trkpt><trkpt lat="69.1473" lon="26.30404"><ele>336.0</ele><time>2025-07-07T08:19:10Z</time></trkpt><trkpt lat="69.147302" lon="26.30399"><ele>336.0</ele><time>2025-07-07T08:19:12Z</time></trkpt><trkpt lat="69.147305" lon="26.30394"><ele>336.0</ele><time>2025-07-07T08:19:14Z</time></trkpt><trkpt lat="69.147307" lon="26.303867"><ele>336.0</ele><time>2025-07-07T08:19:17Z</time></trkpt><trkpt lat="69.14731" lon="26.303802"><ele>336.0</ele><time>2025-07-07T08:19:20Z</time></trkpt><trkpt lat="69.147312" lon="26.303748"><ele>336.0</ele><time>2025-07-07T08:19:22Z</time></trkpt><trkpt lat="69.14732" lon="26.3037"><ele>336.0</ele><time>2025-07-07T08:19:24Z</time></trkpt><trkpt lat="69.147327" lon="26.30363"><ele>336.0</ele><time>2025-07-07T08:19:27Z</time></trkpt><trkpt lat="69.147337" lon="26.303568"><ele>336.0</ele><time>2025-07-07T08:19:30Z</time></trkpt><trkpt lat="69.147327" lon="26.302107"><ele>331.0</ele><time>2025-07-07T08:21:07Z</time></trkpt><trkpt lat="69.146955" lon="26.301293"><ele>333.0</ele><time>2025-07-07T08:22:06Z</time></trkpt><trkpt lat="69.14667" lon="26.300363"><ele>331.0</ele><time>2025-07-07T08:23:06Z</time></trkpt><trkpt lat="69.146345" lon="26.299735"><ele>333.0</ele><time>2025-07-07T08:24:06Z</time></trkpt><trkpt lat="69.146207" lon="26.298302"><ele>335.0</ele><time>2025-07-07T08:25:06Z</time></trkpt><trkpt lat="69.145885" lon="26.297053"><ele>331.0</ele><time>2025-07-07T08:27:06Z</time></trkpt><trkpt lat="69.145145" lon="26.297262"><ele>335.0</ele><time>2025-07-07T08:29:06Z</time></trkpt><trkpt lat="69.144675" lon="26.29692"><ele>335.0</ele><time>2025-07-07T08:30:06Z</time></trkpt><trkpt lat="69.144427" lon="26.296597"><ele>336.0</ele><time>2025-07-07T08:31:06Z</time></trkpt><trkpt lat="69.144075" lon="26.296912"><ele>336.0</ele><time>2025-07-07T08:32:06Z</time></trkpt><trkpt lat="69.14359" lon="26.297272"><ele>337.0</ele><time>2025-07-07T08:33:07Z</time></trkpt><trkpt lat="69.143128" lon="26.298285"><ele>340.0</ele><time>2025-07-07T08:34:06Z</time></trkpt><trkpt lat="69.142698" lon="26.298423"><ele>340.0</ele><time>2025-07-07T08:35:06Z</time></trkpt><trkpt lat="69.142303" lon="26.298762"><ele>342.0</ele><time>2025-07-07T08:36:06Z</time></trkpt><trkpt lat="69.141983" lon="26.299932"><ele>345.0</ele><time>2025-07-07T08:37:06Z</time></trkpt><trkpt lat="69.141577" lon="26.300827"><ele>345.0</ele><time>2025-07-07T08:38:07Z</time></trkpt><trkpt lat="69.14116" lon="26.301522"><ele>345.0</ele><time>2025-07-07T08:39:06Z</time></trkpt><trkpt lat="69.140922" lon="26.30188"><ele>345.0</ele><time>2025-07-07T08:40:07Z</time></trkpt><trkpt lat="69.140573" lon="26.302598"><ele>347.0</ele><time>2025-07-07T08:41:06Z</time></trkpt><trkpt lat="69.14036" lon="26.303125"><ele>350.0</ele><time>2025-07-07T08:42:06Z</time></trkpt><trkpt lat="69.139875" lon="26.303742"><ele>352.0</ele><time>2025-07-07T08:43:07Z</time></trkpt><trkpt lat="69.13937" lon="26.304063"><ele>354.0</ele><time>2025-07-07T08:45:06Z</time></trkpt><trkpt lat="69.139017" lon="26.30456"><ele>358.0</ele><time>2025-07-07T08:46:06Z</time></trkpt><trkpt lat="69.138663" lon="26.30574"><ele>357.0</ele><time>2025-07-07T08:48:06Z</time></trkpt><trkpt lat="69.13827" lon="26.306357"><ele>357.0</ele><time>2025-07-07T08:49:06Z</time></trkpt><trkpt lat="69.138165" lon="26.307212"><ele>361.0</ele><time>2025-07-07T08:50:06Z</time></trkpt><trkpt lat="69.13784" lon="26.307737"><ele>363.0</ele><time>2025-07-07T08:51:06Z</time></trkpt><trkpt lat="69.137855" lon="26.308537"><ele>362.0</ele><time>2025-07-07T08:52:07Z</time></trkpt><trkpt lat="69.137243" lon="26.30931"><ele>365.0</ele><time>2025-07-07T08:54:06Z</time></trkpt><trkpt lat="69.136997" lon="26.309908"><ele>367.0</ele><time>2025-07-07T08:55:06Z</time></trkpt><trkpt lat="69.136542" lon="26.310977"><ele>369.0</ele><time>2025-07-07T08:56:06Z</time></trkpt><trkpt lat="69.136372" lon="26.311875"><ele>371.0</ele><time>2025-07-07T08:57:06Z</time></trkpt><trkpt lat="69.13611" lon="26.312967"><ele>374.0</ele><time>2025-07-07T08:58:07Z</time></trkpt><trkpt lat="69.135893" lon="26.31407"><ele>382.0</ele><time>2025-07-07T08:59:06Z</time></trkpt><trkpt lat="69.135818" lon="26.315067"><ele>386.0</ele><time>2025-07-07T09:01:06Z</time></trkpt><trkpt lat="69.135668" lon="26.316223"><ele>386.0</ele><time>2025-07-07T09:02:06Z</time></trkpt><trkpt lat="69.135422" lon="26.317345"><ele>387.0</ele><time>2025-07-07T09:04:06Z</time></trkpt><trkpt lat="69.135285" lon="26.318023"><ele>391.0</ele><time>2025-07-07T09:05:07Z</time></trkpt><trkpt lat="69.134648" lon="26.318592"><ele>392.0</ele><time>2025-07-07T09:06:06Z</time></trkpt><trkpt lat="69.13419" lon="26.318868"><ele>391.0</ele><time>2025-07-07T09:07:06Z</time></trkpt><trkpt lat="69.133917" lon="26.318728"><ele>389.0</ele><time>2025-07-07T09:08:06Z</time></trkpt><trkpt lat="69.134045" lon="26.319838"><ele>391.0</ele><time>2025-07-07T09:11:06Z</time></trkpt><trkpt lat="69.134222" lon="26.320675"><ele>399.0</ele><time>2025-07-07T09:12:06Z</time></trkpt><trkpt lat="69.1342" lon="26.321648"><ele>400.0</ele><time>2025-07-07T09:13:07Z</time></trkpt><trkpt lat="69.134072" lon="26.323073"><ele>398.0</ele><time>2025-07-07T09:14:06Z</time></trkpt><trkpt lat="69.133972" lon="26.324233"><ele>401.0</ele><time>2025-07-07T09:15:06Z</time></trkpt><trkpt lat="69.13386" lon="26.325103"><ele>406.0</ele><time>2025-07-07T09:16:06Z</time></trkpt><trkpt lat="69.133767" lon="26.326417"><ele>409.0</ele><time>2025-07-07T09:17:06Z</time></trkpt><trkpt lat="69.133462" lon="26.327202"><ele>414.0</ele><time>2025-07-07T09:18:06Z</time></trkpt><trkpt lat="69.133082" lon="26.327537"><ele>418.0</ele><time>2025-07-07T09:19:06Z</time></trkpt><trkpt lat="69.133082" lon="26.327537"><ele>420.0</ele><time>2025-07-07T09:19:24Z</time></trkpt><trkpt lat="69.13298" lon="26.328007"><ele>419.0</ele><time>2025-07-07T09:40:12Z</time></trkpt><trkpt lat="69.132755" lon="26.32863"><ele>418.0</ele><time>2025-07-07T09:41:07Z</time></trkpt><trkpt lat="69.132378" lon="26.329112"><ele>419.0</ele><time>2025-07-07T09:42:06Z</time></trkpt><trkpt lat="69.131822" lon="26.329647"><ele>419.0</ele><time>2025-07-07T09:43:06Z</time></trkpt><trkpt lat="69.131435" lon="26.330042"><ele>420.0</ele><time>2025-07-07T09:44:06Z</time></trkpt><trkpt lat="69.130982" lon="26.329953"><ele>420.0</ele><time>2025-07-07T09:45:06Z</time></trkpt><trkpt lat="69.130643" lon="26.330302"><ele>420.0</ele><time>2025-07-07T09:46:06Z</time></trkpt><trkpt lat="69.130133" lon="26.330633"><ele>422.0</ele><time>2025-07-07T09:47:06Z</time></trkpt><trkpt lat="69.129633" lon="26.331155"><ele>424.0</ele><time>2025-07-07T09:48:07Z</time></trkpt><trkpt lat="69.129057" lon="26.33124"><ele>426.0</ele><time>2025-07-07T09:49:06Z</time></trkpt><trkpt lat="69.12856" lon="26.332243"><ele>427.0</ele><time>2025-07-07T09:50:06Z</time></trkpt><trkpt lat="69.127917" lon="26.333522"><ele>432.0</ele><time>2025-07-07T09:52:06Z</time></trkpt><trkpt lat="69.127353" lon="26.334305"><ele>437.0</ele><time>2025-07-07T09:53:06Z</time></trkpt><trkpt lat="69.12703" lon="26.334933"><ele>438.0</ele><time>2025-07-07T09:54:06Z</time></trkpt><trkpt lat="69.126602" lon="26.335677"><ele>439.0</ele><time>2025-07-07T09:55:07Z</time></trkpt><trkpt lat="69.126183" lon="26.336373"><ele>442.0</ele><time>2025-07-07T09:56:06Z</time></trkpt><trkpt lat="69.125663" lon="26.336727"><ele>444.0</ele><time>2025-07-07T09:57:06Z</time></trkpt><trkpt lat="69.125165" lon="26.337075"><ele>444.0</ele><time>2025-07-07T09:58:06Z</time></trkpt><trkpt lat="69.124925" lon="26.337438"><ele>445.0</ele><time>2025-07-07T10:00:06Z</time></trkpt><trkpt lat="69.124503" lon="26.337432"><ele>444.0</ele><time>2025-07-07T10:01:07Z</time></trkpt><trkpt lat="69.12387" lon="26.337792"><ele>444.0</ele><time>2025-07-07T10:02:06Z</time></trkpt><trkpt lat="69.123417" lon="26.338902"><ele>444.0</ele><time>2025-07-07T10:03:06Z</time></trkpt><trkpt lat="69.12291" lon="26.339437"><ele>444.0</ele><time>2025-07-07T10:04:06Z</time></trkpt><trkpt lat="69.122635" lon="26.339802"><ele>443.0</ele><time>2025-07-07T10:05:06Z</time></trkpt><trkpt lat="69.122095" lon="26.340177"><ele>441.0</ele><time>2025-07-07T10:08:07Z</time></trkpt><trkpt lat="69.121485" lon="26.340428"><ele>438.0</ele><time>2025-07-07T10:09:06Z</time></trkpt><trkpt lat="69.121012" lon="26.340875"><ele>437.0</ele><time>2025-07-07T10:10:07Z</time></trkpt><trkpt lat="69.12079" lon="26.341707"><ele>435.0</ele><time>2025-07-07T10:11:06Z</time></trkpt><trkpt lat="69.120542" lon="26.342647"><ele>432.0</ele><time>2025-07-07T10:12:07Z</time></trkpt><trkpt lat="69.120188" lon="26.343327"><ele>432.0</ele><time>2025-07-07T10:13:07Z</time></trkpt><trkpt lat="69.120007" lon="26.343988"><ele>431.0</ele><time>2025-07-07T10:14:06Z</time></trkpt><trkpt lat="69.119562" lon="26.344545"><ele>428.0</ele><time>2025-07-07T10:15:06Z</time></trkpt><trkpt lat="69.119185" lon="26.34519"><ele>426.0</ele><time>2025-07-07T10:17:06Z</time></trkpt><trkpt lat="69.118698" lon="26.345835"><ele>423.0</ele><time>2025-07-07T10:19:07Z</time></trkpt><trkpt lat="69.118382" lon="26.346928"><ele>420.0</ele><time>2025-07-07T10:21:07Z</time></trkpt><trkpt lat="69.118133" lon="26.347397"><ele>418.0</ele><time>2025-07-07T10:22:07Z</time></trkpt><trkpt lat="69.117665" lon="26.347987"><ele>416.0</ele><time>2025-07-07T10:23:06Z</time></trkpt><trkpt lat="69.117382" lon="26.348955"><ele>416.0</ele><time>2025-07-07T10:24:06Z</time></trkpt><trkpt lat="69.117278" lon="26.350085"><ele>412.0</ele><time>2025-07-07T10:25:07Z</time></trkpt><trkpt lat="69.117107" lon="26.351175"><ele>409.0</ele><time>2025-07-07T10:26:07Z</time></trkpt><trkpt lat="69.116892" lon="26.352367"><ele>405.0</ele><time>2025-07-07T10:27:06Z</time></trkpt><trkpt lat="69.116712" lon="26.35362"><ele>401.0</ele><time>2025-07-07T10:28:07Z</time></trkpt><trkpt lat="69.11635" lon="26.354838"><ele>398.0</ele><time>2025-07-07T10:29:07Z</time></trkpt><trkpt lat="69.116315" lon="26.35586"><ele>396.0</ele><time>2025-07-07T10:31:07Z</time></trkpt><trkpt lat="69.116237" lon="26.3569"><ele>395.0</ele><time>2025-07-07T10:32:07Z</time></trkpt><trkpt lat="69.116137" lon="26.358338"><ele>393.0</ele><time>2025-07-07T10:33:06Z</time></trkpt><trkpt lat="69.115962" lon="26.359072"><ele>391.0</ele><time>2025-07-07T10:34:08Z</time></trkpt><trkpt lat="69.115987" lon="26.360462"><ele>388.0</ele><time>2025-07-07T10:35:07Z</time></trkpt><trkpt lat="69.115942" lon="26.361953"><ele>385.0</ele><time>2025-07-07T10:36:07Z</time></trkpt><trkpt lat="69.115885" lon="26.363183"><ele>383.0</ele><time>2025-07-07T10:37:07Z</time></trkpt><trkpt lat="69.115862" lon="26.3641"><ele>382.0</ele><time>2025-07-07T10:38:08Z</time></trkpt><trkpt lat="69.115872" lon="26.365377"><ele>381.0</ele><time>2025-07-07T10:39:06Z</time></trkpt><trkpt lat="69.11578" lon="26.366567"><ele>379.0</ele><time>2025-07-07T10:40:07Z</time></trkpt><trkpt lat="69.115722" lon="26.367625"><ele>379.0</ele><time>2025-07-07T10:41:07Z</time></trkpt><trkpt lat="69.115722" lon="26.367625"><ele>379.0</ele><time>2025-07-07T10:41:50Z</time></trkpt><trkpt lat="69.116125" lon="26.368468"><ele>378.0</ele><time>2025-07-07T10:56:16Z</time></trkpt><trkpt lat="69.116065" lon="26.369107"><ele>376.0</ele><time>2025-07-07T10:57:06Z</time></trkpt><trkpt lat="69.115767" lon="26.370302"><ele>374.0</ele><time>2025-07-07T10:58:07Z</time></trkpt><trkpt lat="69.115718" lon="26.371207"><ele>372.0</ele><time>2025-07-07T10:59:06Z</time></trkpt><trkpt lat="69.115697" lon="26.372092"><ele>371.0</ele><time>2025-07-07T11:00:07Z</time></trkpt><trkpt lat="69.115612" lon="26.373132"><ele>370.0</ele><time>2025-07-07T11:01:07Z</time></trkpt><trkpt lat="69.115583" lon="26.374575"><ele>374.0</ele><time>2025-07-07T11:06:07Z</time></trkpt><trkpt lat="69.115548" lon="26.375332"><ele>377.0</ele><time>2025-07-07T11:07:07Z</time></trkpt><trkpt lat="69.115088" lon="26.375493"><ele>379.0</ele><time>2025-07-07T11:09:07Z</time></trkpt><trkpt lat="69.114703" lon="26.375748"><ele>382.0</ele><time>2025-07-07T11:10:06Z</time></trkpt><trkpt lat="69.114507" lon="26.375863"><ele>385.0</ele><time>2025-07-07T11:12:01Z</time></trkpt></trkseg></trk></gpx>