<?xml version="1.0" encoding="UTF-8" standalone="no"?><gpx xmlns="http://www.topografix.com/GPX/1/1" xmlns:gpxtpx="http://www.garmin.com/xmlschemas/TrackPointExtension/v1" xmlns:xsi="http://www.w3.org/2001/XMLSchema-instance" creator="Suunto app" version="1.1" xsi:schemaLocation="http://www.topografix.com/GPX/1/1 http://www.topografix.com/GPX/1/1/gpx.xsd http://www.garmin.com/xmlschemas/TrackPointExtension/v1 http://www.garmin.com/xmlschemas/TrackPointExtensionv1.xsd"><metadata><name>suuntoapp-Trekking-2025-07-09T07-27-42Z</name><desc/><author><name>Jouni L</name></author></metadata><trk><name>suuntoapp-Trekking-2025-07-09T07-27-42Z</name><trkseg><trkpt lat="69.112822" lon="26.541803"><ele>288.0</ele><time>2025-07-09T07:27:42Z</time></trkpt><trkpt lat="69.112835" lon="26.541767"><ele>288.0</ele><time>2025-07-09T07:27:44Z</time></trkpt><trkpt lat="69.112853" lon="26.54175"><ele>288.0</ele><time>2025-07-09T07:27:47Z</time></trkpt><trkpt lat="69.112867" lon="26.541687"><ele>288.0</ele><time>2025-07-09T07:27:50Z</time></trkpt><trkpt lat="69.11287" lon="26.541618"><ele>288.0</ele><time>2025-07-09T07:27:53Z</time></trkpt><trkpt lat="69.112873" lon="26.541567"><ele>288.0</ele><time>2025-07-09T07:27:55Z</time></trkpt><trkpt lat="69.112882" lon="26.541505"><ele>288.0</ele><time>2025-07-09T07:27:58Z</time></trkpt><trkpt lat="69.112883" lon="26.541432"><ele>288.0</ele><time>2025-07-09T07:28:02Z</time></trkpt><trkpt lat="69.112882" lon="26.541377"><ele>288.0</ele><time>2025-07-09T07:28:03Z</time></trkpt><trkpt lat="69.112883" lon="26.541323"><ele>288.0</ele><time>2025-07-09T07:28:05Z</time></trkpt><trkpt lat="69.112877" lon="26.541262"><ele>288.0</ele><time>2025-07-09T07:28:08Z</time></trkpt><trkpt lat="69.112868" lon="26.541197"><ele>288.0</ele><time>2025-07-09T07:28:11Z</time></trkpt><trkpt lat="69.112843" lon="26.541213"><ele>288.0</ele><time>2025-07-09T07:28:24Z</time></trkpt><trkpt lat="69.112827" lon="26.541195"><ele>288.0</ele><time>2025-07-09T07:28:26Z</time></trkpt><trkpt lat="69.112812" lon="26.541148"><ele>288.0</ele><time>2025-07-09T07:28:28Z</time></trkpt><trkpt lat="69.112795" lon="26.541103"><ele>288.0</ele><time>2025-07-09T07:28:32Z</time></trkpt><trkpt lat="69.112787" lon="26.541052"><ele>288.0</ele><time>2025-07-09T07:28:34Z</time></trkpt><trkpt lat="69.112777" lon="26.541003"><ele>288.0</ele><time>2025-07-09T07:28:36Z</time></trkpt><trkpt lat="69.112767" lon="26.540958"><ele>288.0</ele><time>2025-07-09T07:28:38Z</time></trkpt><trkpt lat="69.112755" lon="26.540918"><ele>288.0</ele><time>2025-07-09T07:28:40Z</time></trkpt><trkpt lat="69.112732" lon="26.540867"><ele>288.0</ele><time>2025-07-09T07:28:43Z</time></trkpt><trkpt lat="69.112715" lon="26.540838"><ele>288.0</ele><time>2025-07-09T07:28:45Z</time></trkpt><trkpt lat="69.112705" lon="26.540792"><ele>288.0</ele><time>2025-07-09T07:28:47Z</time></trkpt><trkpt lat="69.112695" lon="26.540742"><ele>288.0</ele><time>2025-07-09T07:28:49Z</time></trkpt><trkpt lat="69.112682" lon="26.540697"><ele>288.0</ele><time>2025-07-09T07:28:51Z</time></trkpt><trkpt lat="69.112673" lon="26.540647"><ele>288.0</ele><time>2025-07-09T07:28:53Z</time></trkpt><trkpt lat="69.112665" lon="26.540598"><ele>288.0</ele><time>2025-07-09T07:28:55Z</time></trkpt><trkpt lat="69.112657" lon="26.540525"><ele>288.0</ele><time>2025-07-09T07:28:58Z</time></trkpt><trkpt lat="69.112648" lon="26.540472"><ele>288.0</ele><time>2025-07-09T07:29:00Z</time></trkpt><trkpt lat="69.11264" lon="26.540413"><ele>288.0</ele><time>2025-07-09T07:29:02Z</time></trkpt><trkpt lat="69.112632" lon="26.540352"><ele>288.0</ele><time>2025-07-09T07:29:04Z</time></trkpt><trkpt lat="69.11263" lon="26.540297"><ele>288.0</ele><time>2025-07-09T07:29:06Z</time></trkpt><trkpt lat="69.112627" lon="26.540232"><ele>288.0</ele><time>2025-07-09T07:29:08Z</time></trkpt><trkpt lat="69.11262" lon="26.540178"><ele>288.0</ele><time>2025-07-09T07:29:10Z</time></trkpt><trkpt lat="69.11261" lon="26.540123"><ele>288.0</ele><time>2025-07-09T07:29:12Z</time></trkpt><trkpt lat="69.112605" lon="26.540063"><ele>288.0</ele><time>2025-07-09T07:29:14Z</time></trkpt><trkpt lat="69.112603" lon="26.54001"><ele>288.0</ele><time>2025-07-09T07:29:16Z</time></trkpt><trkpt lat="69.112598" lon="26.539955"><ele>288.0</ele><time>2025-07-09T07:29:18Z</time></trkpt><trkpt lat="69.112597" lon="26.539902"><ele>288.0</ele><time>2025-07-09T07:29:20Z</time></trkpt><trkpt lat="69.112597" lon="26.539852"><ele>288.0</ele><time>2025-07-09T07:29:22Z</time></trkpt><trkpt lat="69.112602" lon="26.539788"><ele>288.0</ele><time>2025-07-09T07:29:25Z</time></trkpt><trkpt lat="69.112598" lon="26.539717"><ele>288.0</ele><time>2025-07-09T07:29:28Z</time></trkpt><trkpt lat="69.112597" lon="26.539662"><ele>288.0</ele><time>2025-07-09T07:29:30Z</time></trkpt><trkpt lat="69.112602" lon="26.539583"><ele>289.0</ele><time>2025-07-09T07:29:33Z</time></trkpt><trkpt lat="69.112608" lon="26.53953"><ele>289.0</ele><time>2025-07-09T07:29:35Z</time></trkpt><trkpt lat="69.112615" lon="26.539478"><ele>289.0</ele><time>2025-07-09T07:29:37Z</time></trkpt><trkpt lat="69.112627" lon="26.539433"><ele>289.0</ele><time>2025-07-09T07:29:39Z</time></trkpt><trkpt lat="69.11264" lon="26.539387"><ele>289.0</ele><time>2025-07-09T07:29:41Z</time></trkpt><trkpt lat="69.112655" lon="26.539347"><ele>289.0</ele><time>2025-07-09T07:29:43Z</time></trkpt><trkpt lat="69.112667" lon="26.539305"><ele>289.0</ele><time>2025-07-09T07:29:45Z</time></trkpt><trkpt lat="69.11268" lon="26.539258"><ele>289.0</ele><time>2025-07-09T07:29:47Z</time></trkpt><trkpt lat="69.112697" lon="26.539212"><ele>289.0</ele><time>2025-07-09T07:29:49Z</time></trkpt><trkpt lat="69.112715" lon="26.539178"><ele>289.0</ele><time>2025-07-09T07:29:51Z</time></trkpt><trkpt lat="69.112727" lon="26.539133"><ele>289.0</ele><time>2025-07-09T07:29:53Z</time></trkpt><trkpt lat="69.112742" lon="26.539088"><ele>289.0</ele><time>2025-07-09T07:29:56Z</time></trkpt><trkpt lat="69.112757" lon="26.539022"><ele>289.0</ele><time>2025-07-09T07:29:59Z</time></trkpt><trkpt lat="69.112768" lon="26.538982"><ele>289.0</ele><time>2025-07-09T07:30:01Z</time></trkpt><trkpt lat="69.11278" lon="26.538945"><ele>289.0</ele><time>2025-07-09T07:30:03Z</time></trkpt><trkpt lat="69.112792" lon="26.538897"><ele>289.0</ele><time>2025-07-09T07:30:05Z</time></trkpt><trkpt lat="69.11281" lon="26.538857"><ele>289.0</ele><time>2025-07-09T07:30:07Z</time></trkpt><trkpt lat="69.112827" lon="26.538822"><ele>289.0</ele><time>2025-07-09T07:30:09Z</time></trkpt><trkpt lat="69.11284" lon="26.538782"><ele>289.0</ele><time>2025-07-09T07:30:11Z</time></trkpt><trkpt lat="69.112852" lon="26.538723"><ele>289.0</ele><time>2025-07-09T07:30:14Z</time></trkpt><trkpt lat="69.11287" lon="26.538662"><ele>289.0</ele><time>2025-07-09T07:30:17Z</time></trkpt><trkpt lat="69.112887" lon="26.538605"><ele>289.0</ele><time>2025-07-09T07:30:20Z</time></trkpt><trkpt lat="69.112902" lon="26.538558"><ele>291.0</ele><time>2025-07-09T07:30:23Z</time></trkpt><trkpt lat="69.112925" lon="26.538532"><ele>291.0</ele><time>2025-07-09T07:30:27Z</time></trkpt><trkpt lat="69.112947" lon="26.538517"><ele>291.0</ele><time>2025-07-09T07:30:30Z</time></trkpt><trkpt lat="69.112965" lon="26.538497"><ele>292.0</ele><time>2025-07-09T07:30:33Z</time></trkpt><trkpt lat="69.1131" lon="26.537538"><ele>292.0</ele><time>2025-07-09T07:31:37Z</time></trkpt><trkpt lat="69.11358" lon="26.536117"><ele>291.0</ele><time>2025-07-09T07:33:35Z</time></trkpt><trkpt lat="69.114138" lon="26.535765"><ele>292.0</ele><time>2025-07-09T07:34:37Z</time></trkpt><trkpt lat="69.114772" lon="26.53573"><ele>301.0</ele><time>2025-07-09T07:36:36Z</time></trkpt><trkpt lat="69.115072" lon="26.536358"><ele>296.0</ele><time>2025-07-09T07:37:36Z</time></trkpt><trkpt lat="69.115543" lon="26.534932"><ele>301.0</ele><time>2025-07-09T07:39:36Z</time></trkpt><trkpt lat="69.115593" lon="26.53386"><ele>304.0</ele><time>2025-07-09T07:40:35Z</time></trkpt><trkpt lat="69.115695" lon="26.532447"><ele>306.0</ele><time>2025-07-09T07:41:37Z</time></trkpt><trkpt lat="69.11555" lon="26.53107"><ele>306.0</ele><time>2025-07-09T07:42:36Z</time></trkpt><trkpt lat="69.115883" lon="26.530357"><ele>310.0</ele><time>2025-07-09T07:43:36Z</time></trkpt><trkpt lat="69.116052" lon="26.529297"><ele>312.0</ele><time>2025-07-09T07:44:36Z</time></trkpt><trkpt lat="69.116172" lon="26.527543"><ele>307.0</ele><time>2025-07-09T07:46:36Z</time></trkpt><trkpt lat="69.116397" lon="26.526192"><ele>304.0</ele><time>2025-07-09T07:47:36Z</time></trkpt><trkpt lat="69.116663" lon="26.524523"><ele>298.0</ele><time>2025-07-09T07:49:36Z</time></trkpt><trkpt lat="69.116842" lon="26.523133"><ele>299.0</ele><time>2025-07-09T07:50:36Z</time></trkpt><trkpt lat="69.117072" lon="26.52245"><ele>298.0</ele><time>2025-07-09T07:51:35Z</time></trkpt><trkpt lat="69.117305" lon="26.521037"><ele>295.0</ele><time>2025-07-09T07:53:36Z</time></trkpt><trkpt lat="69.11743" lon="26.519672"><ele>297.0</ele><time>2025-07-09T07:54:36Z</time></trkpt><trkpt lat="69.11768" lon="26.518948"><ele>295.0</ele><time>2025-07-09T07:55:36Z</time></trkpt><trkpt lat="69.11802" lon="26.51785"><ele>295.0</ele><time>2025-07-09T07:56:36Z</time></trkpt><trkpt lat="69.118077" lon="26.516733"><ele>295.0</ele><time>2025-07-09T07:57:36Z</time></trkpt><trkpt lat="69.118297" lon="26.516118"><ele>295.0</ele><time>2025-07-09T07:58:36Z</time></trkpt><trkpt lat="69.11861" lon="26.514855"><ele>293.0</ele><time>2025-07-09T07:59:35Z</time></trkpt><trkpt lat="69.119023" lon="26.51382"><ele>292.0</ele><time>2025-07-09T08:00:37Z</time></trkpt><trkpt lat="69.119265" lon="26.512723"><ele>292.0</ele><time>2025-07-09T08:01:36Z</time></trkpt><trkpt lat="69.119265" lon="26.512723"><ele>289.0</ele><time>2025-07-09T08:02:25Z</time></trkpt><trkpt lat="69.119447" lon="26.512195"><ele>287.0</ele><time>2025-07-09T08:18:38Z</time></trkpt><trkpt lat="69.119447" lon="26.512195"><ele>288.0</ele><time>2025-07-09T08:18:44Z</time></trkpt><trkpt lat="69.119462" lon="26.512083"><ele>287.0</ele><time>2025-07-09T08:19:54Z</time></trkpt><trkpt lat="69.119892" lon="26.513047"><ele>287.0</ele><time>2025-07-09T08:21:36Z</time></trkpt><trkpt lat="69.120228" lon="26.513707"><ele>284.0</ele><time>2025-07-09T08:22:35Z</time></trkpt><trkpt lat="69.120465" lon="26.51472"><ele>285.0</ele><time>2025-07-09T08:23:36Z</time></trkpt><trkpt lat="69.120587" lon="26.515467"><ele>284.0</ele><time>2025-07-09T08:24:36Z</time></trkpt><trkpt lat="69.120633" lon="26.516368"><ele>288.0</ele><time>2025-07-09T08:25:36Z</time></trkpt><trkpt lat="69.12066" lon="26.517128"><ele>287.0</ele><time>2025-07-09T08:26:36Z</time></trkpt><trkpt lat="69.120645" lon="26.518035"><ele>287.0</ele><time>2025-07-09T08:27:35Z</time></trkpt><trkpt lat="69.120613" lon="26.519168"><ele>286.0</ele><time>2025-07-09T08:28:36Z</time></trkpt><trkpt lat="69.120833" lon="26.520382"><ele>292.0</ele><time>2025-07-09T08:30:36Z</time></trkpt><trkpt lat="69.121295" lon="26.52108"><ele>297.0</ele><time>2025-07-09T08:32:36Z</time></trkpt><trkpt lat="69.121688" lon="26.521758"><ele>301.0</ele><time>2025-07-09T08:33:36Z</time></trkpt><trkpt lat="69.121925" lon="26.522472"><ele>306.0</ele><time>2025-07-09T08:34:35Z</time></trkpt><trkpt lat="69.122262" lon="26.523005"><ele>310.0</ele><time>2025-07-09T08:35:36Z</time></trkpt><trkpt lat="69.12254" lon="26.52338"><ele>313.0</ele><time>2025-07-09T08:36:36Z</time></trkpt><trkpt lat="69.123088" lon="26.524097"><ele>317.0</ele><time>2025-07-09T08:38:36Z</time></trkpt><trkpt lat="69.123562" lon="26.524498"><ele>315.0</ele><time>2025-07-09T08:39:36Z</time></trkpt><trkpt lat="69.124037" lon="26.524463"><ele>316.0</ele><time>2025-07-09T08:40:36Z</time></trkpt><trkpt lat="69.12444" lon="26.524327"><ele>321.0</ele><time>2025-07-09T08:41:35Z</time></trkpt><trkpt lat="69.124845" lon="26.524748"><ele>324.0</ele><time>2025-07-09T08:42:36Z</time></trkpt><trkpt lat="69.125125" lon="26.525077"><ele>326.0</ele><time>2025-07-09T08:43:36Z</time></trkpt><trkpt lat="69.125577" lon="26.525302"><ele>327.0</ele><time>2025-07-09T08:44:36Z</time></trkpt><trkpt lat="69.126088" lon="26.52563"><ele>329.0</ele><time>2025-07-09T08:45:36Z</time></trkpt><trkpt lat="69.126357" lon="26.525805"><ele>332.0</ele><time>2025-07-09T08:46:36Z</time></trkpt><trkpt lat="69.12669" lon="26.525957"><ele>331.0</ele><time>2025-07-09T08:47:35Z</time></trkpt><trkpt lat="69.127153" lon="26.52628"><ele>334.0</ele><time>2025-07-09T08:48:36Z</time></trkpt><trkpt lat="69.127537" lon="26.52703"><ele>338.0</ele><time>2025-07-09T08:49:36Z</time></trkpt><trkpt lat="69.128033" lon="26.52716"><ele>339.0</ele><time>2025-07-09T08:50:36Z</time></trkpt><trkpt lat="69.128383" lon="26.527095"><ele>340.0</ele><time>2025-07-09T08:51:36Z</time></trkpt><trkpt lat="69.129077" lon="26.52687"><ele>355.0</ele><time>2025-07-09T08:53:36Z</time></trkpt><trkpt lat="69.129308" lon="26.526297"><ele>363.0</ele><time>2025-07-09T08:54:35Z</time></trkpt><trkpt lat="69.129472" lon="26.52626"><ele>372.0</ele><time>2025-07-09T08:56:07Z</time></trkpt><trkpt lat="69.129675" lon="26.525888"><ele>373.0</ele><time>2025-07-09T09:14:18Z</time></trkpt><trkpt lat="69.13024" lon="26.525877"><ele>374.0</ele><time>2025-07-09T09:15:36Z</time></trkpt><trkpt lat="69.130762" lon="26.526095"><ele>373.0</ele><time>2025-07-09T09:16:36Z</time></trkpt><trkpt lat="69.131338" lon="26.526017"><ele>374.0</ele><time>2025-07-09T09:17:36Z</time></trkpt><trkpt lat="69.131807" lon="26.525658"><ele>375.0</ele><time>2025-07-09T09:18:36Z</time></trkpt><trkpt lat="69.13222" lon="26.525822"><ele>375.0</ele><time>2025-07-09T09:19:35Z</time></trkpt><trkpt lat="69.13259" lon="26.525935"><ele>377.0</ele><time>2025-07-09T09:20:36Z</time></trkpt><trkpt lat="69.13305" lon="26.526192"><ele>377.0</ele><time>2025-07-09T09:21:36Z</time></trkpt><trkpt lat="69.13354" lon="26.52633"><ele>379.0</ele><time>2025-07-09T09:22:36Z</time></trkpt><trkpt lat="69.134102" lon="26.526565"><ele>381.0</ele><time>2025-07-09T09:23:36Z</time></trkpt><trkpt lat="69.134657" lon="26.527168"><ele>383.0</ele><time>2025-07-09T09:24:36Z</time></trkpt><trkpt lat="69.135167" lon="26.527432"><ele>384.0</ele><time>2025-07-09T09:25:36Z</time></trkpt><trkpt lat="69.135693" lon="26.527652"><ele>384.0</ele><time>2025-07-09T09:26:35Z</time></trkpt><trkpt lat="69.136262" lon="26.52842"><ele>382.0</ele><time>2025-07-09T09:27:36Z</time></trkpt><trkpt lat="69.136763" lon="26.528405"><ele>377.0</ele><time>2025-07-09T09:28:36Z</time></trkpt><trkpt lat="69.1374" lon="26.528435"><ele>371.0</ele><time>2025-07-09T09:29:36Z</time></trkpt><trkpt lat="69.137838" lon="26.528267"><ele>368.0</ele><time>2025-07-09T09:30:35Z</time></trkpt><trkpt lat="69.138283" lon="26.528907"><ele>362.0</ele><time>2025-07-09T09:31:36Z</time></trkpt><trkpt lat="69.138677" lon="26.529223"><ele>360.0</ele><time>2025-07-09T09:32:36Z</time></trkpt><trkpt lat="69.139075" lon="26.529715"><ele>360.0</ele><time>2025-07-09T09:33:35Z</time></trkpt><trkpt lat="69.139527" lon="26.529747"><ele>363.0</ele><time>2025-07-09T09:34:36Z</time></trkpt><trkpt lat="69.139927" lon="26.530377"><ele>366.0</ele><time>2025-07-09T09:35:36Z</time></trkpt><trkpt lat="69.14027" lon="26.5309"><ele>370.0</ele><time>2025-07-09T09:36:36Z</time></trkpt><trkpt lat="69.140553" lon="26.531572"><ele>372.0</ele><time>2025-07-09T09:37:35Z</time></trkpt><trkpt lat="69.141062" lon="26.532718"><ele>375.0</ele><time>2025-07-09T09:38:36Z</time></trkpt><trkpt lat="69.14138" lon="26.53341"><ele>377.0</ele><time>2025-07-09T09:40:36Z</time></trkpt><trkpt lat="69.142065" lon="26.534633"><ele>386.0</ele><time>2025-07-09T09:42:36Z</time></trkpt><trkpt lat="69.142343" lon="26.53512"><ele>389.0</ele><time>2025-07-09T09:43:36Z</time></trkpt><trkpt lat="69.142707" lon="26.53584"><ele>388.0</ele><time>2025-07-09T09:45:36Z</time></trkpt><trkpt lat="69.143258" lon="26.536527"><ele>388.0</ele><time>2025-07-09T09:46:36Z</time></trkpt><trkpt lat="69.14361" lon="26.53648"><ele>388.0</ele><time>2025-07-09T09:48:36Z</time></trkpt><trkpt lat="69.144165" lon="26.536533"><ele>389.0</ele><time>2025-07-09T09:49:36Z</time></trkpt><trkpt lat="69.144558" lon="26.536453"><ele>392.0</ele><time>2025-07-09T09:50:36Z</time></trkpt><trkpt lat="69.145015" lon="26.535828"><ele>395.0</ele><time>2025-07-09T09:51:35Z</time></trkpt><trkpt lat="69.145318" lon="26.535692"><ele>395.0</ele><time>2025-07-09T09:52:36Z</time></trkpt><trkpt lat="69.145732" lon="26.53543"><ele>394.0</ele><time>2025-07-09T09:53:36Z</time></trkpt><trkpt lat="69.146295" lon="26.535053"><ele>395.0</ele><time>2025-07-09T09:54:36Z</time></trkpt><trkpt lat="69.14686" lon="26.53483"><ele>395.0</ele><time>2025-07-09T09:55:36Z</time></trkpt><trkpt lat="69.147275" lon="26.534198"><ele>396.0</ele><time>2025-07-09T09:56:38Z</time></trkpt><trkpt lat="69.147635" lon="26.53422"><ele>395.0</ele><time>2025-07-09T09:57:35Z</time></trkpt><trkpt lat="69.14796" lon="26.534337"><ele>396.0</ele><time>2025-07-09T09:58:36Z</time></trkpt><trkpt lat="69.14796" lon="26.534337"><ele>396.0</ele><time>2025-07-09T09:59:14Z</time></trkpt><trkpt lat="69.148167" lon="26.534403"><ele>389.0</ele><time>2025-07-09T10:12:52Z</time></trkpt><trkpt lat="69.148307" lon="26.534498"><ele>389.0</ele><time>2025-07-09T10:13:36Z</time></trkpt><trkpt lat="69.148903" lon="26.534193"><ele>392.0</ele><time>2025-07-09T10:15:36Z</time></trkpt><trkpt lat="69.149428" lon="26.534348"><ele>393.0</ele><time>2025-07-09T10:16:37Z</time></trkpt><trkpt lat="69.149848" lon="26.534408"><ele>397.0</ele><time>2025-07-09T10:17:37Z</time></trkpt><trkpt lat="69.150285" lon="26.534652"><ele>403.0</ele><time>2025-07-09T10:18:36Z</time></trkpt><trkpt lat="69.150643" lon="26.534895"><ele>408.0</ele><time>2025-07-09T10:19:36Z</time></trkpt><trkpt lat="69.151068" lon="26.535048"><ele>413.0</ele><time>2025-07-09T10:20:36Z</time></trkpt><trkpt lat="69.151443" lon="26.535583"><ele>417.0</ele><time>2025-07-09T10:21:37Z</time></trkpt><trkpt lat="69.1518" lon="26.536097"><ele>425.0</ele><time>2025-07-09T10:22:36Z</time></trkpt><trkpt lat="69.152145" lon="26.536833"><ele>430.0</ele><time>2025-07-09T10:23:36Z</time></trkpt><trkpt lat="69.152448" lon="26.537392"><ele>433.0</ele><time>2025-07-09T10:24:37Z</time></trkpt><trkpt lat="69.152805" lon="26.53826"><ele>440.0</ele><time>2025-07-09T10:25:36Z</time></trkpt><trkpt lat="69.153192" lon="26.538872"><ele>446.0</ele><time>2025-07-09T10:26:36Z</time></trkpt><trkpt lat="69.153633" lon="26.539598"><ele>450.0</ele><time>2025-07-09T10:27:36Z</time></trkpt><trkpt lat="69.153767" lon="26.540375"><ele>456.0</ele><time>2025-07-09T10:28:36Z</time></trkpt><trkpt lat="69.154102" lon="26.541767"><ele>459.0</ele><time>2025-07-09T10:30:37Z</time></trkpt><trkpt lat="69.15452" lon="26.542885"><ele>463.0</ele><time>2025-07-09T10:31:36Z</time></trkpt><trkpt lat="69.154738" lon="26.543835"><ele>465.0</ele><time>2025-07-09T10:32:36Z</time></trkpt><trkpt lat="69.155202" lon="26.544632"><ele>469.0</ele><time>2025-07-09T10:33:36Z</time></trkpt><trkpt lat="69.155647" lon="26.54549"><ele>470.0</ele><time>2025-07-09T10:34:36Z</time></trkpt><trkpt lat="69.155963" lon="26.546838"><ele>467.0</ele><time>2025-07-09T10:35:36Z</time></trkpt><trkpt lat="69.156092" lon="26.547875"><ele>460.0</ele><time>2025-07-09T10:36:37Z</time></trkpt><trkpt lat="69.156347" lon="26.548958"><ele>458.0</ele><time>2025-07-09T10:37:36Z</time></trkpt><trkpt lat="69.156628" lon="26.550202"><ele>456.0</ele><time>2025-07-09T10:38:36Z</time></trkpt><trkpt lat="69.156833" lon="26.551648"><ele>455.0</ele><time>2025-07-09T10:39:36Z</time></trkpt><trkpt lat="69.157183" lon="26.553337"><ele>456.0</ele><time>2025-07-09T10:40:36Z</time></trkpt><trkpt lat="69.15742" lon="26.554792"><ele>458.0</ele><time>2025-07-09T10:41:36Z</time></trkpt><trkpt lat="69.157565" lon="26.556017"><ele>462.0</ele><time>2025-07-09T10:42:36Z</time></trkpt><trkpt lat="69.157588" lon="26.557665"><ele>464.0</ele><time>2025-07-09T10:44:36Z</time></trkpt><trkpt lat="69.157942" lon="26.558368"><ele>463.0</ele><time>2025-07-09T10:45:36Z</time></trkpt><trkpt lat="69.158483" lon="26.559473"><ele>459.0</ele><time>2025-07-09T10:46:36Z</time></trkpt><trkpt lat="69.158933" lon="26.560477"><ele>457.0</ele><time>2025-07-09T10:47:36Z</time></trkpt><trkpt lat="69.159243" lon="26.561735"><ele>455.0</ele><time>2025-07-09T10:48:36Z</time></trkpt><trkpt lat="69.159473" lon="26.562718"><ele>452.0</ele><time>2025-07-09T10:49:37Z</time></trkpt><trkpt lat="69.159802" lon="26.564345"><ele>451.0</ele><time>2025-07-09T10:50:36Z</time></trkpt><trkpt lat="69.159788" lon="26.56521"><ele>450.0</ele><time>2025-07-09T10:51:36Z</time></trkpt><trkpt lat="69.16016" lon="26.565893"><ele>452.0</ele><time>2025-07-09T10:52:37Z</time></trkpt><trkpt lat="69.160527" lon="26.566502"><ele>456.0</ele><time>2025-07-09T10:53:37Z</time></trkpt><trkpt lat="69.16091" lon="26.567468"><ele>458.0</ele><time>2025-07-09T10:54:37Z</time></trkpt><trkpt lat="69.161228" lon="26.568098"><ele>462.0</ele><time>2025-07-09T10:55:36Z</time></trkpt><trkpt lat="69.161583" lon="26.568697"><ele>468.0</ele><time>2025-07-09T10:56:37Z</time></trkpt><trkpt lat="69.16204" lon="26.569448"><ele>475.0</ele><time>2025-07-09T10:57:36Z</time></trkpt><trkpt lat="69.162402" lon="26.57017"><ele>483.0</ele><time>2025-07-09T10:58:36Z</time></trkpt><trkpt lat="69.162958" lon="26.570912"><ele>489.0</ele><time>2025-07-09T11:00:36Z</time></trkpt><trkpt lat="69.163268" lon="26.571308"><ele>492.0</ele><time>2025-07-09T11:01:36Z</time></trkpt><trkpt lat="69.163505" lon="26.571833"><ele>491.0</ele><time>2025-07-09T11:02:36Z</time></trkpt><trkpt lat="69.163505" lon="26.571833"><ele>490.0</ele><time>2025-07-09T11:03:01Z</time></trkpt><trkpt lat="69.163553" lon="26.57188"><ele>495.0</ele><time>2025-07-09T12:29:01Z</time></trkpt><trkpt lat="69.163573" lon="26.572305"><ele>494.0</ele><time>2025-07-09T12:29:36Z</time></trkpt><trkpt lat="69.163613" lon="26.574305"><ele>483.0</ele><time>2025-07-09T12:31:36Z</time></trkpt><trkpt lat="69.163867" lon="26.575555"><ele>483.0</ele><time>2025-07-09T12:32:36Z</time></trkpt><trkpt lat="69.164178" lon="26.576957"><ele>481.0</ele><time>2025-07-09T12:33:36Z</time></trkpt><trkpt lat="69.163978" lon="26.578693"><ele>481.0</ele><time>2025-07-09T12:34:36Z</time></trkpt><trkpt lat="69.163702" lon="26.579932"><ele>480.0</ele><time>2025-07-09T12:35:36Z</time></trkpt><trkpt lat="69.163333" lon="26.580812"><ele>482.0</ele><time>2025-07-09T12:36:36Z</time></trkpt><trkpt lat="69.163313" lon="26.581785"><ele>483.0</ele><time>2025-07-09T12:37:37Z</time></trkpt><trkpt lat="69.163365" lon="26.583055"><ele>488.0</ele><time>2025-07-09T12:38:36Z</time></trkpt><trkpt lat="69.163428" lon="26.584298"><ele>492.0</ele><time>2025-07-09T12:39:36Z</time></trkpt><trkpt lat="69.16348" lon="26.585417"><ele>497.0</ele><time>2025-07-09T12:40:35Z</time></trkpt><trkpt lat="69.16343" lon="26.586292"><ele>501.0</ele><time>2025-07-09T12:41:36Z</time></trkpt><trkpt lat="69.163372" lon="26.587845"><ele>506.0</ele><time>2025-07-09T12:42:37Z</time></trkpt><trkpt lat="69.163415" lon="26.588857"><ele>513.0</ele><time>2025-07-09T12:43:36Z</time></trkpt><trkpt lat="69.163562" lon="26.590253"><ele>517.0</ele><time>2025-07-09T12:44:37Z</time></trkpt><trkpt lat="69.163747" lon="26.591297"><ele>521.0</ele><time>2025-07-09T12:45:36Z</time></trkpt><trkpt lat="69.163998" lon="26.592563"><ele>523.0</ele><time>2025-07-09T12:47:37Z</time></trkpt><trkpt lat="69.164312" lon="26.593848"><ele>524.0</ele><time>2025-07-09T12:48:36Z</time></trkpt><trkpt lat="69.164453" lon="26.594505"><ele>523.0</ele><time>2025-07-09T12:49:37Z</time></trkpt><trkpt lat="69.164653" lon="26.595358"><ele>521.0</ele><time>2025-07-09T12:50:36Z</time></trkpt><trkpt lat="69.164625" lon="26.59642"><ele>516.0</ele><time>2025-07-09T12:51:36Z</time></trkpt><trkpt lat="69.164578" lon="26.59785"><ele>510.0</ele><time>2025-07-09T12:52:37Z</time></trkpt><trkpt lat="69.16463" lon="26.598938"><ele>505.0</ele><time>2025-07-09T12:53:36Z</time></trkpt><trkpt lat="69.164722" lon="26.59996"><ele>496.0</ele><time>2025-07-09T12:54:36Z</time></trkpt><trkpt lat="69.164802" lon="26.601462"><ele>490.0</ele><time>2025-07-09T12:55:36Z</time></trkpt><trkpt lat="69.164867" lon="26.603078"><ele>484.0</ele><time>2025-07-09T12:56:36Z</time></trkpt><trkpt lat="69.165027" lon="26.60424"><ele>479.0</ele><time>2025-07-09T12:57:36Z</time></trkpt><trkpt lat="69.165307" lon="26.60508"><ele>474.0</ele><time>2025-07-09T12:59:36Z</time></trkpt><trkpt lat="69.165298" lon="26.60602"><ele>465.0</ele><time>2025-07-09T13:00:36Z</time></trkpt><trkpt lat="69.165478" lon="26.607342"><ele>459.0</ele><time>2025-07-09T13:01:37Z</time></trkpt><trkpt lat="69.165623" lon="26.608045"><ele>454.0</ele><time>2025-07-09T13:02:36Z</time></trkpt><trkpt lat="69.165623" lon="26.60888"><ele>450.0</ele><time>2025-07-09T13:03:36Z</time></trkpt><trkpt lat="69.165623" lon="26.60888"><ele>451.0</ele><time>2025-07-09T13:04:08Z</time></trkpt><trkpt lat="69.165657" lon="26.60888"><ele>451.0</ele><time>2025-07-09T13:14:55Z</time></trkpt><trkpt lat="69.165593" lon="26.610172"><ele>450.0</ele><time>2025-07-09T13:16:37Z</time></trkpt><trkpt lat="69.165537" lon="26.610913"><ele>445.0</ele><time>2025-07-09T13:17:36Z</time></trkpt><trkpt lat="69.16573" lon="26.612053"><ele>443.0</ele><time>2025-07-09T13:18:37Z</time></trkpt><trkpt lat="69.16579" lon="26.61302"><ele>437.0</ele><time>2025-07-09T13:19:36Z</time></trkpt><trkpt lat="69.166193" lon="26.614092"><ele>434.0</ele><time>2025-07-09T13:20:36Z</time></trkpt><trkpt lat="69.166487" lon="26.615743"><ele>427.0</ele><time>2025-07-09T13:22:36Z</time></trkpt><trkpt lat="69.166812" lon="26.616798"><ele>422.0</ele><time>2025-07-09T13:23:36Z</time></trkpt><trkpt lat="69.16689" lon="26.617787"><ele>420.0</ele><time>2025-07-09T13:24:36Z</time></trkpt><trkpt lat="69.167197" lon="26.618615"><ele>412.0</ele><time>2025-07-09T13:25:37Z</time></trkpt><trkpt lat="69.167405" lon="26.620002"><ele>402.0</ele><time>2025-07-09T13:27:36Z</time></trkpt><trkpt lat="69.16746" lon="26.621477"><ele>393.0</ele><time>2025-07-09T13:29:36Z</time></trkpt><trkpt lat="69.167763" lon="26.622885"><ele>386.0</ele><time>2025-07-09T13:30:36Z</time></trkpt><trkpt lat="69.167828" lon="26.623998"><ele>383.0</ele><time>2025-07-09T13:31:36Z</time></trkpt><trkpt lat="69.167908" lon="26.625"><ele>383.0</ele><time>2025-07-09T13:32:36Z</time></trkpt><trkpt lat="69.167908" lon="26.625"><ele>385.0</ele><time>2025-07-09T13:33:28Z</time></trkpt><trkpt lat="69.167897" lon="26.625963"><ele>377.0</ele><time>2025-07-09T13:50:59Z</time></trkpt><trkpt lat="69.16837" lon="26.627445"><ele>371.0</ele><time>2025-07-09T13:52:36Z</time></trkpt><trkpt lat="69.16867" lon="26.628397"><ele>369.0</ele><time>2025-07-09T13:53:37Z</time></trkpt><trkpt lat="69.168943" lon="26.628963"><ele>364.0</ele><time>2025-07-09T13:54:36Z</time></trkpt><trkpt lat="69.168907" lon="26.629953"><ele>357.0</ele><time>2025-07-09T13:56:37Z</time></trkpt><trkpt lat="69.16904" lon="26.631562"><ele>363.0</ele><time>2025-07-09T13:58:37Z</time></trkpt><trkpt lat="69.168847" lon="26.63268"><ele>364.0</ele><time>2025-07-09T13:59:36Z</time></trkpt><trkpt lat="69.16875" lon="26.633745"><ele>366.0</ele><time>2025-07-09T14:00:37Z</time></trkpt><trkpt lat="69.168782" lon="26.634967"><ele>371.0</ele><time>2025-07-09T14:01:36Z</time></trkpt><trkpt lat="69.168938" lon="26.635765"><ele>375.0</ele><time>2025-07-09T14:02:37Z</time></trkpt><trkpt lat="69.169288" lon="26.63633"><ele>373.0</ele><time>2025-07-09T14:03:36Z</time></trkpt><trkpt lat="69.169605" lon="26.63668"><ele>375.0</ele><time>2025-07-09T14:04:38Z</time></trkpt><trkpt lat="69.170215" lon="26.63653"><ele>373.0</ele><time>2025-07-09T14:05:38Z</time></trkpt><trkpt lat="69.170653" lon="26.636933"><ele>372.0</ele><time>2025-07-09T14:06:36Z</time></trkpt><trkpt lat="69.170977" lon="26.637363"><ele>374.0</ele><time>2025-07-09T14:08:38Z</time></trkpt><trkpt lat="69.170977" lon="26.637363"><ele>373.0</ele><time>2025-07-09T14:08:40Z</time></trkpt><trkpt lat="69.171032" lon="26.636998"><ele>361.0</ele><time>2025-07-09T14:34:00Z</time></trkpt><trkpt lat="69.170368" lon="26.637218"><ele>362.0</ele><time>2025-07-09T14:35:48Z</time></trkpt><trkpt lat="69.17009" lon="26.636925"><ele>364.0</ele><time>2025-07-09T14:36:38Z</time></trkpt><trkpt lat="69.17009" lon="26.636925"><ele>364.0</ele><time>2025-07-09T14:37:11Z</time></trkpt></trkseg></trk></gpx>