<?xml version="1.0" encoding="UTF-8" standalone="no"?><gpx xmlns="http://www.topografix.com/GPX/1/1" xmlns:gpxtpx="http://www.garmin.com/xmlschemas/TrackPointExtension/v1" xmlns:xsi="http://www.w3.org/2001/XMLSchema-instance" creator="Suunto app" version="1.1" xsi:schemaLocation="http://www.topografix.com/GPX/1/1 http://www.topografix.com/GPX/1/1/gpx.xsd http://www.garmin.com/xmlschemas/TrackPointExtension/v1 http://www.garmin.com/xmlschemas/TrackPointExtensionv1.xsd"><metadata><name>suuntoapp-Trekking-2025-07-04T08-09-18Z</name><desc/><author><name>Jouni L</name></author></metadata><trk><name>suuntoapp-Trekking-2025-07-04T08-09-18Z</name><trkseg><trkpt lat="69.39296" lon="26.11376"><ele>281.0</ele><time>2025-07-04T08:09:18Z</time></trkpt><trkpt lat="69.392978" lon="26.113783"><ele>281.0</ele><time>2025-07-04T08:09:22Z</time></trkpt><trkpt lat="69.392993" lon="26.113822"><ele>281.0</ele><time>2025-07-04T08:09:25Z</time></trkpt><trkpt lat="69.393008" lon="26.11387"><ele>281.0</ele><time>2025-07-04T08:09:27Z</time></trkpt><trkpt lat="69.393023" lon="26.113922"><ele>281.0</ele><time>2025-07-04T08:09:28Z</time></trkpt><trkpt lat="69.393035" lon="26.113992"><ele>281.0</ele><time>2025-07-04T08:09:31Z</time></trkpt><trkpt lat="69.39304" lon="26.114057"><ele>281.0</ele><time>2025-07-04T08:09:33Z</time></trkpt><trkpt lat="69.39304" lon="26.11412"><ele>281.0</ele><time>2025-07-04T08:09:35Z</time></trkpt><trkpt lat="69.393035" lon="26.11419"><ele>280.0</ele><time>2025-07-04T08:09:37Z</time></trkpt><trkpt lat="69.393032" lon="26.11426"><ele>280.0</ele><time>2025-07-04T08:09:38Z</time></trkpt><trkpt lat="69.393028" lon="26.11433"><ele>280.0</ele><time>2025-07-04T08:09:40Z</time></trkpt><trkpt lat="69.393025" lon="26.114398"><ele>280.0</ele><time>2025-07-04T08:09:42Z</time></trkpt><trkpt lat="69.393023" lon="26.114463"><ele>280.0</ele><time>2025-07-04T08:09:44Z</time></trkpt><trkpt lat="69.393018" lon="26.114535"><ele>280.0</ele><time>2025-07-04T08:09:47Z</time></trkpt><trkpt lat="69.393013" lon="26.114605"><ele>280.0</ele><time>2025-07-04T08:09:49Z</time></trkpt><trkpt lat="69.39301" lon="26.114677"><ele>280.0</ele><time>2025-07-04T08:09:51Z</time></trkpt><trkpt lat="69.393007" lon="26.114747"><ele>280.0</ele><time>2025-07-04T08:09:53Z</time></trkpt><trkpt lat="69.393003" lon="26.114812"><ele>280.0</ele><time>2025-07-04T08:09:54Z</time></trkpt><trkpt lat="69.392998" lon="26.114878"><ele>280.0</ele><time>2025-07-04T08:09:56Z</time></trkpt><trkpt lat="69.392993" lon="26.114943"><ele>280.0</ele><time>2025-07-04T08:09:58Z</time></trkpt><trkpt lat="69.392988" lon="26.115003"><ele>280.0</ele><time>2025-07-04T08:10:00Z</time></trkpt><trkpt lat="69.392982" lon="26.115073"><ele>280.0</ele><time>2025-07-04T08:10:02Z</time></trkpt><trkpt lat="69.392975" lon="26.115145"><ele>280.0</ele><time>2025-07-04T08:10:04Z</time></trkpt><trkpt lat="69.392968" lon="26.115213"><ele>280.0</ele><time>2025-07-04T08:10:07Z</time></trkpt><trkpt lat="69.392963" lon="26.115275"><ele>280.0</ele><time>2025-07-04T08:10:09Z</time></trkpt><trkpt lat="69.392957" lon="26.115343"><ele>280.0</ele><time>2025-07-04T08:10:11Z</time></trkpt><trkpt lat="69.392955" lon="26.115413"><ele>280.0</ele><time>2025-07-04T08:10:12Z</time></trkpt><trkpt lat="69.39295" lon="26.115487"><ele>280.0</ele><time>2025-07-04T08:10:15Z</time></trkpt><trkpt lat="69.392945" lon="26.115555"><ele>281.0</ele><time>2025-07-04T08:10:16Z</time></trkpt><trkpt lat="69.392943" lon="26.115622"><ele>281.0</ele><time>2025-07-04T08:10:18Z</time></trkpt><trkpt lat="69.39294" lon="26.115687"><ele>281.0</ele><time>2025-07-04T08:10:20Z</time></trkpt><trkpt lat="69.392933" lon="26.115758"><ele>281.0</ele><time>2025-07-04T08:10:22Z</time></trkpt><trkpt lat="69.392928" lon="26.115827"><ele>281.0</ele><time>2025-07-04T08:10:25Z</time></trkpt><trkpt lat="69.392927" lon="26.115893"><ele>281.0</ele><time>2025-07-04T08:10:27Z</time></trkpt><trkpt lat="69.392923" lon="26.115955"><ele>281.0</ele><time>2025-07-04T08:10:28Z</time></trkpt><trkpt lat="69.392918" lon="26.11602"><ele>281.0</ele><time>2025-07-04T08:10:30Z</time></trkpt><trkpt lat="69.392913" lon="26.116088"><ele>281.0</ele><time>2025-07-04T08:10:32Z</time></trkpt><trkpt lat="69.39291" lon="26.116152"><ele>281.0</ele><time>2025-07-04T08:10:35Z</time></trkpt><trkpt lat="69.392907" lon="26.116213"><ele>281.0</ele><time>2025-07-04T08:10:36Z</time></trkpt><trkpt lat="69.392903" lon="26.116277"><ele>281.0</ele><time>2025-07-04T08:10:39Z</time></trkpt><trkpt lat="69.392898" lon="26.116343"><ele>281.0</ele><time>2025-07-04T08:10:40Z</time></trkpt><trkpt lat="69.392893" lon="26.116412"><ele>281.0</ele><time>2025-07-04T08:10:42Z</time></trkpt><trkpt lat="69.392888" lon="26.116478"><ele>281.0</ele><time>2025-07-04T08:10:44Z</time></trkpt><trkpt lat="69.392887" lon="26.116543"><ele>283.0</ele><time>2025-07-04T08:10:46Z</time></trkpt><trkpt lat="69.392883" lon="26.116607"><ele>283.0</ele><time>2025-07-04T08:10:48Z</time></trkpt><trkpt lat="69.392878" lon="26.116675"><ele>283.0</ele><time>2025-07-04T08:10:51Z</time></trkpt><trkpt lat="69.392877" lon="26.116742"><ele>283.0</ele><time>2025-07-04T08:10:53Z</time></trkpt><trkpt lat="69.392873" lon="26.116802"><ele>283.0</ele><time>2025-07-04T08:10:54Z</time></trkpt><trkpt lat="69.392872" lon="26.116868"><ele>282.0</ele><time>2025-07-04T08:10:56Z</time></trkpt><trkpt lat="69.392868" lon="26.116938"><ele>282.0</ele><time>2025-07-04T08:10:59Z</time></trkpt><trkpt lat="69.392865" lon="26.117002"><ele>282.0</ele><time>2025-07-04T08:11:01Z</time></trkpt><trkpt lat="69.392862" lon="26.117068"><ele>282.0</ele><time>2025-07-04T08:11:03Z</time></trkpt><trkpt lat="69.392855" lon="26.117132"><ele>282.0</ele><time>2025-07-04T08:11:05Z</time></trkpt><trkpt lat="69.392848" lon="26.117203"><ele>282.0</ele><time>2025-07-04T08:11:06Z</time></trkpt><trkpt lat="69.392843" lon="26.117267"><ele>282.0</ele><time>2025-07-04T08:11:08Z</time></trkpt><trkpt lat="69.392838" lon="26.117332"><ele>282.0</ele><time>2025-07-04T08:11:10Z</time></trkpt><trkpt lat="69.392835" lon="26.117397"><ele>282.0</ele><time>2025-07-04T08:11:13Z</time></trkpt><trkpt lat="69.392832" lon="26.117465"><ele>282.0</ele><time>2025-07-04T08:11:15Z</time></trkpt><trkpt lat="69.392828" lon="26.117532"><ele>282.0</ele><time>2025-07-04T08:11:16Z</time></trkpt><trkpt lat="69.392827" lon="26.117598"><ele>282.0</ele><time>2025-07-04T08:11:18Z</time></trkpt><trkpt lat="69.392822" lon="26.117658"><ele>282.0</ele><time>2025-07-04T08:11:20Z</time></trkpt><trkpt lat="69.392817" lon="26.117727"><ele>282.0</ele><time>2025-07-04T08:11:22Z</time></trkpt><trkpt lat="69.392812" lon="26.117792"><ele>282.0</ele><time>2025-07-04T08:11:24Z</time></trkpt><trkpt lat="69.392807" lon="26.117855"><ele>282.0</ele><time>2025-07-04T08:11:27Z</time></trkpt><trkpt lat="69.392802" lon="26.11792"><ele>282.0</ele><time>2025-07-04T08:11:28Z</time></trkpt><trkpt lat="69.392797" lon="26.117993"><ele>282.0</ele><time>2025-07-04T08:11:31Z</time></trkpt><trkpt lat="69.392793" lon="26.118057"><ele>282.0</ele><time>2025-07-04T08:11:32Z</time></trkpt><trkpt lat="69.392792" lon="26.118122"><ele>282.0</ele><time>2025-07-04T08:11:35Z</time></trkpt><trkpt lat="69.392787" lon="26.118192"><ele>283.0</ele><time>2025-07-04T08:11:36Z</time></trkpt><trkpt lat="69.392782" lon="26.118262"><ele>283.0</ele><time>2025-07-04T08:11:38Z</time></trkpt><trkpt lat="69.392777" lon="26.118328"><ele>283.0</ele><time>2025-07-04T08:11:40Z</time></trkpt><trkpt lat="69.392773" lon="26.118397"><ele>283.0</ele><time>2025-07-04T08:11:43Z</time></trkpt><trkpt lat="69.392772" lon="26.118458"><ele>283.0</ele><time>2025-07-04T08:11:45Z</time></trkpt><trkpt lat="69.392768" lon="26.118523"><ele>283.0</ele><time>2025-07-04T08:11:47Z</time></trkpt><trkpt lat="69.392765" lon="26.11859"><ele>283.0</ele><time>2025-07-04T08:11:48Z</time></trkpt><trkpt lat="69.392763" lon="26.118652"><ele>283.0</ele><time>2025-07-04T08:11:51Z</time></trkpt><trkpt lat="69.392758" lon="26.118717"><ele>283.0</ele><time>2025-07-04T08:11:52Z</time></trkpt><trkpt lat="69.392753" lon="26.118778"><ele>283.0</ele><time>2025-07-04T08:11:55Z</time></trkpt><trkpt lat="69.39275" lon="26.11885"><ele>284.0</ele><time>2025-07-04T08:11:56Z</time></trkpt><trkpt lat="69.392747" lon="26.118915"><ele>284.0</ele><time>2025-07-04T08:11:58Z</time></trkpt><trkpt lat="69.392743" lon="26.118977"><ele>284.0</ele><time>2025-07-04T08:12:00Z</time></trkpt><trkpt lat="69.392738" lon="26.11904"><ele>284.0</ele><time>2025-07-04T08:12:03Z</time></trkpt><trkpt lat="69.392732" lon="26.119112"><ele>284.0</ele><time>2025-07-04T08:12:05Z</time></trkpt><trkpt lat="69.392728" lon="26.119182"><ele>283.0</ele><time>2025-07-04T08:12:06Z</time></trkpt><trkpt lat="69.392725" lon="26.119247"><ele>283.0</ele><time>2025-07-04T08:12:09Z</time></trkpt><trkpt lat="69.39272" lon="26.119313"><ele>283.0</ele><time>2025-07-04T08:12:10Z</time></trkpt><trkpt lat="69.392717" lon="26.119385"><ele>283.0</ele><time>2025-07-04T08:12:13Z</time></trkpt><trkpt lat="69.392713" lon="26.119457"><ele>283.0</ele><time>2025-07-04T08:12:15Z</time></trkpt><trkpt lat="69.392708" lon="26.119518"><ele>284.0</ele><time>2025-07-04T08:12:16Z</time></trkpt><trkpt lat="69.392707" lon="26.119587"><ele>284.0</ele><time>2025-07-04T08:12:18Z</time></trkpt><trkpt lat="69.392702" lon="26.119658"><ele>284.0</ele><time>2025-07-04T08:12:21Z</time></trkpt><trkpt lat="69.392698" lon="26.119727"><ele>284.0</ele><time>2025-07-04T08:12:22Z</time></trkpt><trkpt lat="69.392697" lon="26.119792"><ele>284.0</ele><time>2025-07-04T08:12:24Z</time></trkpt><trkpt lat="69.392695" lon="26.119855"><ele>284.0</ele><time>2025-07-04T08:12:26Z</time></trkpt><trkpt lat="69.39269" lon="26.119923"><ele>284.0</ele><time>2025-07-04T08:12:29Z</time></trkpt><trkpt lat="69.392685" lon="26.119992"><ele>284.0</ele><time>2025-07-04T08:12:31Z</time></trkpt><trkpt lat="69.392682" lon="26.120058"><ele>284.0</ele><time>2025-07-04T08:12:33Z</time></trkpt><trkpt lat="69.392678" lon="26.120122"><ele>284.0</ele><time>2025-07-04T08:12:34Z</time></trkpt><trkpt lat="69.392675" lon="26.120195"><ele>284.0</ele><time>2025-07-04T08:12:36Z</time></trkpt><trkpt lat="69.392672" lon="26.120265"><ele>284.0</ele><time>2025-07-04T08:12:38Z</time></trkpt><trkpt lat="69.392665" lon="26.120332"><ele>284.0</ele><time>2025-07-04T08:12:40Z</time></trkpt><trkpt lat="69.392658" lon="26.1204"><ele>284.0</ele><time>2025-07-04T08:12:42Z</time></trkpt><trkpt lat="69.392652" lon="26.120472"><ele>284.0</ele><time>2025-07-04T08:12:45Z</time></trkpt><trkpt lat="69.392648" lon="26.12054"><ele>284.0</ele><time>2025-07-04T08:12:47Z</time></trkpt><trkpt lat="69.392645" lon="26.120598"><ele>284.0</ele><time>2025-07-04T08:12:48Z</time></trkpt><trkpt lat="69.392638" lon="26.120667"><ele>284.0</ele><time>2025-07-04T08:12:50Z</time></trkpt><trkpt lat="69.39263" lon="26.120737"><ele>284.0</ele><time>2025-07-04T08:12:52Z</time></trkpt><trkpt lat="69.392627" lon="26.120803"><ele>284.0</ele><time>2025-07-04T08:12:55Z</time></trkpt><trkpt lat="69.392623" lon="26.120867"><ele>283.0</ele><time>2025-07-04T08:12:57Z</time></trkpt><trkpt lat="69.392615" lon="26.120937"><ele>283.0</ele><time>2025-07-04T08:12:59Z</time></trkpt><trkpt lat="69.392612" lon="26.12101"><ele>283.0</ele><time>2025-07-04T08:13:01Z</time></trkpt><trkpt lat="69.392608" lon="26.121075"><ele>283.0</ele><time>2025-07-04T08:13:02Z</time></trkpt><trkpt lat="69.392605" lon="26.121137"><ele>283.0</ele><time>2025-07-04T08:13:04Z</time></trkpt><trkpt lat="69.3926" lon="26.121207"><ele>283.0</ele><time>2025-07-04T08:13:06Z</time></trkpt><trkpt lat="69.392595" lon="26.121282"><ele>283.0</ele><time>2025-07-04T08:13:08Z</time></trkpt><trkpt lat="69.392592" lon="26.12135"><ele>283.0</ele><time>2025-07-04T08:13:10Z</time></trkpt><trkpt lat="69.39259" lon="26.121412"><ele>283.0</ele><time>2025-07-04T08:13:12Z</time></trkpt><trkpt lat="69.392585" lon="26.121487"><ele>283.0</ele><time>2025-07-04T08:13:14Z</time></trkpt><trkpt lat="69.392582" lon="26.121558"><ele>283.0</ele><time>2025-07-04T08:13:16Z</time></trkpt><trkpt lat="69.392578" lon="26.121627"><ele>283.0</ele><time>2025-07-04T08:13:18Z</time></trkpt><trkpt lat="69.392577" lon="26.121687"><ele>283.0</ele><time>2025-07-04T08:13:20Z</time></trkpt><trkpt lat="69.392573" lon="26.121762"><ele>283.0</ele><time>2025-07-04T08:13:22Z</time></trkpt><trkpt lat="69.39257" lon="26.12183"><ele>283.0</ele><time>2025-07-04T08:13:25Z</time></trkpt><trkpt lat="69.392568" lon="26.121895"><ele>284.0</ele><time>2025-07-04T08:13:27Z</time></trkpt><trkpt lat="69.392563" lon="26.121962"><ele>284.0</ele><time>2025-07-04T08:13:28Z</time></trkpt><trkpt lat="69.39256" lon="26.122027"><ele>284.0</ele><time>2025-07-04T08:13:31Z</time></trkpt><trkpt lat="69.392558" lon="26.122098"><ele>284.0</ele><time>2025-07-04T08:13:32Z</time></trkpt><trkpt lat="69.392552" lon="26.122163"><ele>284.0</ele><time>2025-07-04T08:13:35Z</time></trkpt><trkpt lat="69.392548" lon="26.122227"><ele>284.0</ele><time>2025-07-04T08:13:37Z</time></trkpt><trkpt lat="69.392543" lon="26.122297"><ele>284.0</ele><time>2025-07-04T08:13:38Z</time></trkpt><trkpt lat="69.39254" lon="26.12237"><ele>284.0</ele><time>2025-07-04T08:13:41Z</time></trkpt><trkpt lat="69.392535" lon="26.122437"><ele>284.0</ele><time>2025-07-04T08:13:42Z</time></trkpt><trkpt lat="69.39253" lon="26.122505"><ele>284.0</ele><time>2025-07-04T08:13:45Z</time></trkpt><trkpt lat="69.392525" lon="26.122577"><ele>284.0</ele><time>2025-07-04T08:13:47Z</time></trkpt><trkpt lat="69.39252" lon="26.122647"><ele>284.0</ele><time>2025-07-04T08:13:49Z</time></trkpt><trkpt lat="69.392517" lon="26.122717"><ele>284.0</ele><time>2025-07-04T08:13:51Z</time></trkpt><trkpt lat="69.392512" lon="26.122783"><ele>284.0</ele><time>2025-07-04T08:13:52Z</time></trkpt><trkpt lat="69.392507" lon="26.122852"><ele>284.0</ele><time>2025-07-04T08:13:54Z</time></trkpt><trkpt lat="69.3925" lon="26.122923"><ele>284.0</ele><time>2025-07-04T08:13:57Z</time></trkpt><trkpt lat="69.392497" lon="26.122992"><ele>284.0</ele><time>2025-07-04T08:13:59Z</time></trkpt><trkpt lat="69.392492" lon="26.123057"><ele>284.0</ele><time>2025-07-04T08:14:01Z</time></trkpt><trkpt lat="69.39249" lon="26.12312"><ele>284.0</ele><time>2025-07-04T08:14:03Z</time></trkpt><trkpt lat="69.392485" lon="26.12319"><ele>284.0</ele><time>2025-07-04T08:14:04Z</time></trkpt><trkpt lat="69.39248" lon="26.123258"><ele>283.0</ele><time>2025-07-04T08:14:06Z</time></trkpt><trkpt lat="69.392477" lon="26.123323"><ele>283.0</ele><time>2025-07-04T08:14:08Z</time></trkpt><trkpt lat="69.392473" lon="26.12339"><ele>283.0</ele><time>2025-07-04T08:14:10Z</time></trkpt><trkpt lat="69.39247" lon="26.12346"><ele>283.0</ele><time>2025-07-04T08:14:12Z</time></trkpt><trkpt lat="69.392465" lon="26.12353"><ele>283.0</ele><time>2025-07-04T08:14:15Z</time></trkpt><trkpt lat="69.39246" lon="26.123598"><ele>285.0</ele><time>2025-07-04T08:14:16Z</time></trkpt><trkpt lat="69.392455" lon="26.123668"><ele>285.0</ele><time>2025-07-04T08:14:19Z</time></trkpt><trkpt lat="69.392448" lon="26.123742"><ele>285.0</ele><time>2025-07-04T08:14:20Z</time></trkpt><trkpt lat="69.392443" lon="26.123813"><ele>285.0</ele><time>2025-07-04T08:14:23Z</time></trkpt><trkpt lat="69.39244" lon="26.123882"><ele>285.0</ele><time>2025-07-04T08:14:24Z</time></trkpt><trkpt lat="69.392433" lon="26.12395"><ele>285.0</ele><time>2025-07-04T08:14:27Z</time></trkpt><trkpt lat="69.392428" lon="26.12402"><ele>285.0</ele><time>2025-07-04T08:14:29Z</time></trkpt><trkpt lat="69.392425" lon="26.124088"><ele>285.0</ele><time>2025-07-04T08:14:30Z</time></trkpt><trkpt lat="69.392422" lon="26.124157"><ele>285.0</ele><time>2025-07-04T08:14:33Z</time></trkpt><trkpt lat="69.392417" lon="26.124223"><ele>285.0</ele><time>2025-07-04T08:14:35Z</time></trkpt><trkpt lat="69.392412" lon="26.124295"><ele>284.0</ele><time>2025-07-04T08:14:36Z</time></trkpt><trkpt lat="69.392408" lon="26.12436"><ele>284.0</ele><time>2025-07-04T08:14:39Z</time></trkpt><trkpt lat="69.392405" lon="26.124423"><ele>284.0</ele><time>2025-07-04T08:14:41Z</time></trkpt><trkpt lat="69.3924" lon="26.124495"><ele>284.0</ele><time>2025-07-04T08:14:43Z</time></trkpt><trkpt lat="69.392397" lon="26.124558"><ele>284.0</ele><time>2025-07-04T08:14:44Z</time></trkpt><trkpt lat="69.392392" lon="26.12463"><ele>284.0</ele><time>2025-07-04T08:14:47Z</time></trkpt><trkpt lat="69.392387" lon="26.124692"><ele>284.0</ele><time>2025-07-04T08:14:48Z</time></trkpt><trkpt lat="69.392385" lon="26.124763"><ele>284.0</ele><time>2025-07-04T08:14:50Z</time></trkpt><trkpt lat="69.39238" lon="26.124825"><ele>284.0</ele><time>2025-07-04T08:14:52Z</time></trkpt><trkpt lat="69.392375" lon="26.124898"><ele>284.0</ele><time>2025-07-04T08:14:54Z</time></trkpt><trkpt lat="69.39237" lon="26.124958"><ele>285.0</ele><time>2025-07-04T08:14:56Z</time></trkpt><trkpt lat="69.392365" lon="26.125028"><ele>285.0</ele><time>2025-07-04T08:14:59Z</time></trkpt><trkpt lat="69.392358" lon="26.125098"><ele>285.0</ele><time>2025-07-04T08:15:00Z</time></trkpt><trkpt lat="69.392353" lon="26.125167"><ele>285.0</ele><time>2025-07-04T08:15:03Z</time></trkpt><trkpt lat="69.39235" lon="26.12523"><ele>285.0</ele><time>2025-07-04T08:15:05Z</time></trkpt><trkpt lat="69.392348" lon="26.125295"><ele>285.0</ele><time>2025-07-04T08:15:06Z</time></trkpt><trkpt lat="69.392343" lon="26.125365"><ele>285.0</ele><time>2025-07-04T08:15:09Z</time></trkpt><trkpt lat="69.392338" lon="26.125438"><ele>285.0</ele><time>2025-07-04T08:15:11Z</time></trkpt><trkpt lat="69.392335" lon="26.125507"><ele>285.0</ele><time>2025-07-04T08:15:12Z</time></trkpt><trkpt lat="69.39233" lon="26.125573"><ele>285.0</ele><time>2025-07-04T08:15:15Z</time></trkpt><trkpt lat="69.392323" lon="26.125642"><ele>285.0</ele><time>2025-07-04T08:15:16Z</time></trkpt><trkpt lat="69.392318" lon="26.125708"><ele>285.0</ele><time>2025-07-04T08:15:19Z</time></trkpt><trkpt lat="69.392315" lon="26.125775"><ele>285.0</ele><time>2025-07-04T08:15:21Z</time></trkpt><trkpt lat="69.39231" lon="26.125843"><ele>285.0</ele><time>2025-07-04T08:15:22Z</time></trkpt><trkpt lat="69.392305" lon="26.125915"><ele>285.0</ele><time>2025-07-04T08:15:24Z</time></trkpt><trkpt lat="69.392302" lon="26.125983"><ele>286.0</ele><time>2025-07-04T08:15:27Z</time></trkpt><trkpt lat="69.3923" lon="26.12605"><ele>286.0</ele><time>2025-07-04T08:15:29Z</time></trkpt><trkpt lat="69.392295" lon="26.126118"><ele>286.0</ele><time>2025-07-04T08:15:31Z</time></trkpt><trkpt lat="69.39229" lon="26.126185"><ele>286.0</ele><time>2025-07-04T08:15:33Z</time></trkpt><trkpt lat="69.392287" lon="26.126247"><ele>286.0</ele><time>2025-07-04T08:15:34Z</time></trkpt><trkpt lat="69.392283" lon="26.126305"><ele>286.0</ele><time>2025-07-04T08:15:36Z</time></trkpt><trkpt lat="69.392278" lon="26.126365"><ele>286.0</ele><time>2025-07-04T08:15:39Z</time></trkpt><trkpt lat="69.392273" lon="26.12643"><ele>286.0</ele><time>2025-07-04T08:15:40Z</time></trkpt><trkpt lat="69.39227" lon="26.126487"><ele>286.0</ele><time>2025-07-04T08:15:42Z</time></trkpt><trkpt lat="69.392265" lon="26.12655"><ele>286.0</ele><time>2025-07-04T08:15:44Z</time></trkpt><trkpt lat="69.392258" lon="26.126623"><ele>287.0</ele><time>2025-07-04T08:15:47Z</time></trkpt><trkpt lat="69.392253" lon="26.126693"><ele>287.0</ele><time>2025-07-04T08:15:49Z</time></trkpt><trkpt lat="69.39225" lon="26.12676"><ele>287.0</ele><time>2025-07-04T08:15:51Z</time></trkpt><trkpt lat="69.392245" lon="26.126827"><ele>287.0</ele><time>2025-07-04T08:15:53Z</time></trkpt><trkpt lat="69.392242" lon="26.126897"><ele>287.0</ele><time>2025-07-04T08:15:55Z</time></trkpt><trkpt lat="69.392238" lon="26.126965"><ele>287.0</ele><time>2025-07-04T08:15:57Z</time></trkpt><trkpt lat="69.392235" lon="26.127035"><ele>287.0</ele><time>2025-07-04T08:15:58Z</time></trkpt><trkpt lat="69.392225" lon="26.127102"><ele>287.0</ele><time>2025-07-04T08:16:00Z</time></trkpt><trkpt lat="69.39222" lon="26.127165"><ele>287.0</ele><time>2025-07-04T08:16:02Z</time></trkpt><trkpt lat="69.392215" lon="26.127228"><ele>287.0</ele><time>2025-07-04T08:16:04Z</time></trkpt><trkpt lat="69.392212" lon="26.127293"><ele>287.0</ele><time>2025-07-04T08:16:07Z</time></trkpt><trkpt lat="69.392208" lon="26.12736"><ele>287.0</ele><time>2025-07-04T08:16:09Z</time></trkpt><trkpt lat="69.392203" lon="26.127428"><ele>287.0</ele><time>2025-07-04T08:16:11Z</time></trkpt><trkpt lat="69.392198" lon="26.127495"><ele>287.0</ele><time>2025-07-04T08:16:13Z</time></trkpt><trkpt lat="69.392197" lon="26.127557"><ele>287.0</ele><time>2025-07-04T08:16:14Z</time></trkpt><trkpt lat="69.392193" lon="26.127622"><ele>287.0</ele><time>2025-07-04T08:16:16Z</time></trkpt><trkpt lat="69.39219" lon="26.127693"><ele>287.0</ele><time>2025-07-04T08:16:19Z</time></trkpt><trkpt lat="69.392185" lon="26.127762"><ele>287.0</ele><time>2025-07-04T08:16:20Z</time></trkpt><trkpt lat="69.392182" lon="26.127823"><ele>287.0</ele><time>2025-07-04T08:16:23Z</time></trkpt><trkpt lat="69.39218" lon="26.127887"><ele>287.0</ele><time>2025-07-04T08:16:24Z</time></trkpt><trkpt lat="69.392175" lon="26.127957"><ele>287.0</ele><time>2025-07-04T08:16:27Z</time></trkpt><trkpt lat="69.392173" lon="26.128027"><ele>287.0</ele><time>2025-07-04T08:16:29Z</time></trkpt><trkpt lat="69.39217" lon="26.128093"><ele>287.0</ele><time>2025-07-04T08:16:31Z</time></trkpt><trkpt lat="69.392165" lon="26.128162"><ele>287.0</ele><time>2025-07-04T08:16:32Z</time></trkpt><trkpt lat="69.39216" lon="26.128232"><ele>287.0</ele><time>2025-07-04T08:16:35Z</time></trkpt><trkpt lat="69.392155" lon="26.128298"><ele>288.0</ele><time>2025-07-04T08:16:37Z</time></trkpt><trkpt lat="69.392152" lon="26.128363"><ele>288.0</ele><time>2025-07-04T08:16:38Z</time></trkpt><trkpt lat="69.392148" lon="26.128432"><ele>288.0</ele><time>2025-07-04T08:16:40Z</time></trkpt><trkpt lat="69.392145" lon="26.128497"><ele>288.0</ele><time>2025-07-04T08:16:42Z</time></trkpt><trkpt lat="69.39214" lon="26.128568"><ele>288.0</ele><time>2025-07-04T08:16:45Z</time></trkpt><trkpt lat="69.392137" lon="26.12863"><ele>288.0</ele><time>2025-07-04T08:16:47Z</time></trkpt><trkpt lat="69.392133" lon="26.128702"><ele>288.0</ele><time>2025-07-04T08:16:49Z</time></trkpt><trkpt lat="69.392128" lon="26.128768"><ele>288.0</ele><time>2025-07-04T08:16:51Z</time></trkpt><trkpt lat="69.392125" lon="26.128833"><ele>288.0</ele><time>2025-07-04T08:16:52Z</time></trkpt><trkpt lat="69.392122" lon="26.128898"><ele>288.0</ele><time>2025-07-04T08:16:55Z</time></trkpt><trkpt lat="69.392118" lon="26.128967"><ele>289.0</ele><time>2025-07-04T08:16:56Z</time></trkpt><trkpt lat="69.392113" lon="26.129033"><ele>289.0</ele><time>2025-07-04T08:16:59Z</time></trkpt><trkpt lat="69.392108" lon="26.129097"><ele>289.0</ele><time>2025-07-04T08:17:01Z</time></trkpt><trkpt lat="69.392105" lon="26.12916"><ele>289.0</ele><time>2025-07-04T08:17:03Z</time></trkpt><trkpt lat="69.392102" lon="26.129232"><ele>289.0</ele><time>2025-07-04T08:17:05Z</time></trkpt><trkpt lat="69.392098" lon="26.129297"><ele>289.0</ele><time>2025-07-04T08:17:07Z</time></trkpt><trkpt lat="69.392097" lon="26.12936"><ele>289.0</ele><time>2025-07-04T08:17:09Z</time></trkpt><trkpt lat="69.392092" lon="26.129428"><ele>289.0</ele><time>2025-07-04T08:17:11Z</time></trkpt><trkpt lat="69.392087" lon="26.129497"><ele>289.0</ele><time>2025-07-04T08:17:13Z</time></trkpt><trkpt lat="69.392085" lon="26.129563"><ele>289.0</ele><time>2025-07-04T08:17:14Z</time></trkpt><trkpt lat="69.392082" lon="26.129632"><ele>289.0</ele><time>2025-07-04T08:17:16Z</time></trkpt><trkpt lat="69.392077" lon="26.1297"><ele>289.0</ele><time>2025-07-04T08:17:18Z</time></trkpt><trkpt lat="69.392073" lon="26.12977"><ele>289.0</ele><time>2025-07-04T08:17:21Z</time></trkpt><trkpt lat="69.392068" lon="26.129837"><ele>289.0</ele><time>2025-07-04T08:17:23Z</time></trkpt><trkpt lat="69.392065" lon="26.1299"><ele>289.0</ele><time>2025-07-04T08:17:25Z</time></trkpt><trkpt lat="69.39206" lon="26.129967"><ele>290.0</ele><time>2025-07-04T08:17:27Z</time></trkpt><trkpt lat="69.392055" lon="26.130035"><ele>290.0</ele><time>2025-07-04T08:17:29Z</time></trkpt><trkpt lat="69.39205" lon="26.1301"><ele>290.0</ele><time>2025-07-04T08:17:31Z</time></trkpt><trkpt lat="69.392045" lon="26.13016"><ele>290.0</ele><time>2025-07-04T08:17:33Z</time></trkpt><trkpt lat="69.39204" lon="26.13023"><ele>290.0</ele><time>2025-07-04T08:17:34Z</time></trkpt><trkpt lat="69.392037" lon="26.130298"><ele>290.0</ele><time>2025-07-04T08:17:37Z</time></trkpt><trkpt lat="69.392032" lon="26.130363"><ele>290.0</ele><time>2025-07-04T08:17:39Z</time></trkpt><trkpt lat="69.392027" lon="26.130432"><ele>290.0</ele><time>2025-07-04T08:17:40Z</time></trkpt><trkpt lat="69.39202" lon="26.1305"><ele>290.0</ele><time>2025-07-04T08:17:42Z</time></trkpt><trkpt lat="69.392017" lon="26.130565"><ele>290.0</ele><time>2025-07-04T08:17:45Z</time></trkpt><trkpt lat="69.392015" lon="26.130628"><ele>289.0</ele><time>2025-07-04T08:17:47Z</time></trkpt><trkpt lat="69.392007" lon="26.130698"><ele>289.0</ele><time>2025-07-04T08:17:48Z</time></trkpt><trkpt lat="69.392002" lon="26.130763"><ele>289.0</ele><time>2025-07-04T08:17:51Z</time></trkpt><trkpt lat="69.391995" lon="26.13083"><ele>289.0</ele><time>2025-07-04T08:17:52Z</time></trkpt><trkpt lat="69.391992" lon="26.130903"><ele>289.0</ele><time>2025-07-04T08:17:54Z</time></trkpt><trkpt lat="69.391987" lon="26.130968"><ele>290.0</ele><time>2025-07-04T08:17:57Z</time></trkpt><trkpt lat="69.391982" lon="26.131037"><ele>290.0</ele><time>2025-07-04T08:17:59Z</time></trkpt><trkpt lat="69.391977" lon="26.131098"><ele>290.0</ele><time>2025-07-04T08:18:00Z</time></trkpt><trkpt lat="69.391977" lon="26.13116"><ele>290.0</ele><time>2025-07-04T08:18:03Z</time></trkpt><trkpt lat="69.391975" lon="26.131228"><ele>290.0</ele><time>2025-07-04T08:18:04Z</time></trkpt><trkpt lat="69.391972" lon="26.131297"><ele>290.0</ele><time>2025-07-04T08:18:07Z</time></trkpt><trkpt lat="69.391968" lon="26.131362"><ele>290.0</ele><time>2025-07-04T08:18:08Z</time></trkpt><trkpt lat="69.391963" lon="26.131428"><ele>290.0</ele><time>2025-07-04T08:18:11Z</time></trkpt><trkpt lat="69.391958" lon="26.131498"><ele>290.0</ele><time>2025-07-04T08:18:13Z</time></trkpt><trkpt lat="69.391955" lon="26.131563"><ele>290.0</ele><time>2025-07-04T08:18:15Z</time></trkpt><trkpt lat="69.39195" lon="26.131625"><ele>290.0</ele><time>2025-07-04T08:18:16Z</time></trkpt><trkpt lat="69.391947" lon="26.131688"><ele>290.0</ele><time>2025-07-04T08:18:18Z</time></trkpt><trkpt lat="69.391942" lon="26.131758"><ele>290.0</ele><time>2025-07-04T08:18:20Z</time></trkpt><trkpt lat="69.39194" lon="26.131822"><ele>290.0</ele><time>2025-07-04T08:18:22Z</time></trkpt><trkpt lat="69.391937" lon="26.131887"><ele>290.0</ele><time>2025-07-04T08:18:25Z</time></trkpt><trkpt lat="69.391932" lon="26.131955"><ele>290.0</ele><time>2025-07-04T08:18:27Z</time></trkpt><trkpt lat="69.391928" lon="26.132022"><ele>290.0</ele><time>2025-07-04T08:18:29Z</time></trkpt><trkpt lat="69.391923" lon="26.13209"><ele>290.0</ele><time>2025-07-04T08:18:30Z</time></trkpt><trkpt lat="69.391922" lon="26.132155"><ele>290.0</ele><time>2025-07-04T08:18:32Z</time></trkpt><trkpt lat="69.391917" lon="26.132227"><ele>290.0</ele><time>2025-07-04T08:18:34Z</time></trkpt><trkpt lat="69.391912" lon="26.13229"><ele>290.0</ele><time>2025-07-04T08:18:37Z</time></trkpt><trkpt lat="69.391907" lon="26.132355"><ele>290.0</ele><time>2025-07-04T08:18:39Z</time></trkpt><trkpt lat="69.391903" lon="26.132423"><ele>290.0</ele><time>2025-07-04T08:18:40Z</time></trkpt><trkpt lat="69.391898" lon="26.13249"><ele>290.0</ele><time>2025-07-04T08:18:42Z</time></trkpt><trkpt lat="69.391895" lon="26.13255"><ele>290.0</ele><time>2025-07-04T08:18:44Z</time></trkpt><trkpt lat="69.391892" lon="26.132613"><ele>290.0</ele><time>2025-07-04T08:18:46Z</time></trkpt><trkpt lat="69.391887" lon="26.132683"><ele>290.0</ele><time>2025-07-04T08:18:49Z</time></trkpt><trkpt lat="69.391882" lon="26.132753"><ele>290.0</ele><time>2025-07-04T08:18:50Z</time></trkpt><trkpt lat="69.391878" lon="26.132818"><ele>290.0</ele><time>2025-07-04T08:18:52Z</time></trkpt><trkpt lat="69.391873" lon="26.132883"><ele>290.0</ele><time>2025-07-04T08:18:54Z</time></trkpt><trkpt lat="69.39187" lon="26.132952"><ele>291.0</ele><time>2025-07-04T08:18:56Z</time></trkpt><trkpt lat="69.391865" lon="26.133017"><ele>291.0</ele><time>2025-07-04T08:18:59Z</time></trkpt><trkpt lat="69.391862" lon="26.133077"><ele>291.0</ele><time>2025-07-04T08:19:00Z</time></trkpt><trkpt lat="69.391857" lon="26.133143"><ele>291.0</ele><time>2025-07-04T08:19:03Z</time></trkpt><trkpt lat="69.391853" lon="26.133213"><ele>291.0</ele><time>2025-07-04T08:19:05Z</time></trkpt><trkpt lat="69.39185" lon="26.133277"><ele>290.0</ele><time>2025-07-04T08:19:07Z</time></trkpt><trkpt lat="69.391843" lon="26.133342"><ele>290.0</ele><time>2025-07-04T08:19:08Z</time></trkpt><trkpt lat="69.39184" lon="26.133407"><ele>290.0</ele><time>2025-07-04T08:19:10Z</time></trkpt><trkpt lat="69.391835" lon="26.133472"><ele>290.0</ele><time>2025-07-04T08:19:12Z</time></trkpt><trkpt lat="69.391833" lon="26.133537"><ele>290.0</ele><time>2025-07-04T08:19:14Z</time></trkpt><trkpt lat="69.391828" lon="26.133603"><ele>290.0</ele><time>2025-07-04T08:19:16Z</time></trkpt><trkpt lat="69.391825" lon="26.133667"><ele>290.0</ele><time>2025-07-04T08:19:18Z</time></trkpt><trkpt lat="69.391823" lon="26.133732"><ele>290.0</ele><time>2025-07-04T08:19:20Z</time></trkpt><trkpt lat="69.39182" lon="26.133793"><ele>290.0</ele><time>2025-07-04T08:19:23Z</time></trkpt><trkpt lat="69.391817" lon="26.13386"><ele>290.0</ele><time>2025-07-04T08:19:25Z</time></trkpt><trkpt lat="69.391812" lon="26.13393"><ele>291.0</ele><time>2025-07-04T08:19:26Z</time></trkpt><trkpt lat="69.391808" lon="26.133995"><ele>291.0</ele><time>2025-07-04T08:19:28Z</time></trkpt><trkpt lat="69.391805" lon="26.134058"><ele>291.0</ele><time>2025-07-04T08:19:30Z</time></trkpt><trkpt lat="69.3918" lon="26.134123"><ele>291.0</ele><time>2025-07-04T08:19:32Z</time></trkpt><trkpt lat="69.391795" lon="26.134193"><ele>291.0</ele><time>2025-07-04T08:19:34Z</time></trkpt><trkpt lat="69.391792" lon="26.134262"><ele>291.0</ele><time>2025-07-04T08:19:37Z</time></trkpt><trkpt lat="69.391788" lon="26.134323"><ele>291.0</ele><time>2025-07-04T08:19:38Z</time></trkpt><trkpt lat="69.391783" lon="26.134392"><ele>291.0</ele><time>2025-07-04T08:19:41Z</time></trkpt><trkpt lat="69.391777" lon="26.134465"><ele>291.0</ele><time>2025-07-04T08:19:42Z</time></trkpt><trkpt lat="69.391772" lon="26.134528"><ele>291.0</ele><time>2025-07-04T08:19:45Z</time></trkpt><trkpt lat="69.391768" lon="26.134592"><ele>291.0</ele><time>2025-07-04T08:19:47Z</time></trkpt><trkpt lat="69.391765" lon="26.134662"><ele>291.0</ele><time>2025-07-04T08:19:48Z</time></trkpt><trkpt lat="69.391763" lon="26.134737"><ele>291.0</ele><time>2025-07-04T08:19:51Z</time></trkpt><trkpt lat="69.391758" lon="26.134805"><ele>291.0</ele><time>2025-07-04T08:19:52Z</time></trkpt><trkpt lat="69.391755" lon="26.13487"><ele>291.0</ele><time>2025-07-04T08:19:54Z</time></trkpt><trkpt lat="69.39175" lon="26.134938"><ele>291.0</ele><time>2025-07-04T08:19:56Z</time></trkpt><trkpt lat="69.391745" lon="26.135007"><ele>291.0</ele><time>2025-07-04T08:19:59Z</time></trkpt><trkpt lat="69.39174" lon="26.135068"><ele>291.0</ele><time>2025-07-04T08:20:00Z</time></trkpt><trkpt lat="69.391738" lon="26.135133"><ele>291.0</ele><time>2025-07-04T08:20:02Z</time></trkpt><trkpt lat="69.391732" lon="26.1352"><ele>291.0</ele><time>2025-07-04T08:20:05Z</time></trkpt><trkpt lat="69.391728" lon="26.135267"><ele>291.0</ele><time>2025-07-04T08:20:06Z</time></trkpt><trkpt lat="69.391723" lon="26.13533"><ele>291.0</ele><time>2025-07-04T08:20:08Z</time></trkpt><trkpt lat="69.39172" lon="26.135395"><ele>291.0</ele><time>2025-07-04T08:20:10Z</time></trkpt><trkpt lat="69.391718" lon="26.135462"><ele>291.0</ele><time>2025-07-04T08:20:12Z</time></trkpt><trkpt lat="69.391723" lon="26.135513"><ele>291.0</ele><time>2025-07-04T08:20:14Z</time></trkpt><trkpt lat="69.391712" lon="26.135585"><ele>291.0</ele><time>2025-07-04T08:20:27Z</time></trkpt><trkpt lat="69.391708" lon="26.135645"><ele>291.0</ele><time>2025-07-04T08:20:29Z</time></trkpt><trkpt lat="69.391703" lon="26.135707"><ele>291.0</ele><time>2025-07-04T08:20:31Z</time></trkpt><trkpt lat="69.391698" lon="26.135775"><ele>291.0</ele><time>2025-07-04T08:20:33Z</time></trkpt><trkpt lat="69.391693" lon="26.135842"><ele>291.0</ele><time>2025-07-04T08:20:35Z</time></trkpt><trkpt lat="69.391688" lon="26.135913"><ele>291.0</ele><time>2025-07-04T08:20:37Z</time></trkpt><trkpt lat="69.391685" lon="26.135977"><ele>291.0</ele><time>2025-07-04T08:20:39Z</time></trkpt><trkpt lat="69.39168" lon="26.136047"><ele>291.0</ele><time>2025-07-04T08:20:42Z</time></trkpt><trkpt lat="69.391675" lon="26.136118"><ele>291.0</ele><time>2025-07-04T08:20:44Z</time></trkpt><trkpt lat="69.39167" lon="26.136187"><ele>291.0</ele><time>2025-07-04T08:20:46Z</time></trkpt><trkpt lat="69.391665" lon="26.136253"><ele>291.0</ele><time>2025-07-04T08:20:48Z</time></trkpt><trkpt lat="69.391658" lon="26.136323"><ele>291.0</ele><time>2025-07-04T08:20:50Z</time></trkpt><trkpt lat="69.391655" lon="26.136395"><ele>291.0</ele><time>2025-07-04T08:20:51Z</time></trkpt><trkpt lat="69.39165" lon="26.13646"><ele>291.0</ele><time>2025-07-04T08:20:53Z</time></trkpt><trkpt lat="69.391647" lon="26.136522"><ele>291.0</ele><time>2025-07-04T08:20:55Z</time></trkpt><trkpt lat="69.391643" lon="26.136587"><ele>291.0</ele><time>2025-07-04T08:20:57Z</time></trkpt><trkpt lat="69.39164" lon="26.136652"><ele>291.0</ele><time>2025-07-04T08:21:00Z</time></trkpt><trkpt lat="69.391638" lon="26.136712"><ele>291.0</ele><time>2025-07-04T08:21:01Z</time></trkpt><trkpt lat="69.391635" lon="26.136773"><ele>291.0</ele><time>2025-07-04T08:21:04Z</time></trkpt><trkpt lat="69.391632" lon="26.136837"><ele>291.0</ele><time>2025-07-04T08:21:05Z</time></trkpt><trkpt lat="69.39163" lon="26.136902"><ele>291.0</ele><time>2025-07-04T08:21:08Z</time></trkpt><trkpt lat="69.391628" lon="26.136967"><ele>291.0</ele><time>2025-07-04T08:21:09Z</time></trkpt><trkpt lat="69.391625" lon="26.137032"><ele>291.0</ele><time>2025-07-04T08:21:12Z</time></trkpt><trkpt lat="69.391622" lon="26.137097"><ele>291.0</ele><time>2025-07-04T08:21:13Z</time></trkpt><trkpt lat="69.39162" lon="26.137163"><ele>291.0</ele><time>2025-07-04T08:21:16Z</time></trkpt><trkpt lat="69.391617" lon="26.137223"><ele>291.0</ele><time>2025-07-04T08:21:17Z</time></trkpt><trkpt lat="69.391612" lon="26.137292"><ele>291.0</ele><time>2025-07-04T08:21:20Z</time></trkpt><trkpt lat="69.391602" lon="26.137345"><ele>291.0</ele><time>2025-07-04T08:21:22Z</time></trkpt><trkpt lat="69.391582" lon="26.137372"><ele>291.0</ele><time>2025-07-04T08:21:24Z</time></trkpt><trkpt lat="69.39156" lon="26.137408"><ele>291.0</ele><time>2025-07-04T08:21:26Z</time></trkpt><trkpt lat="69.391538" lon="26.137447"><ele>291.0</ele><time>2025-07-04T08:21:27Z</time></trkpt><trkpt lat="69.39152" lon="26.137485"><ele>291.0</ele><time>2025-07-04T08:21:29Z</time></trkpt><trkpt lat="69.391498" lon="26.137527"><ele>291.0</ele><time>2025-07-04T08:21:31Z</time></trkpt><trkpt lat="69.39148" lon="26.137557"><ele>291.0</ele><time>2025-07-04T08:21:33Z</time></trkpt><trkpt lat="69.391457" lon="26.137557"><ele>291.0</ele><time>2025-07-04T08:21:36Z</time></trkpt><trkpt lat="69.390727" lon="26.138082"><ele>291.0</ele><time>2025-07-04T08:24:07Z</time></trkpt><trkpt lat="69.390437" lon="26.139018"><ele>290.0</ele><time>2025-07-04T08:25:07Z</time></trkpt><trkpt lat="69.389832" lon="26.140652"><ele>290.0</ele><time>2025-07-04T08:26:07Z</time></trkpt><trkpt lat="69.389215" lon="26.141977"><ele>290.0</ele><time>2025-07-04T08:27:06Z</time></trkpt><trkpt lat="69.388658" lon="26.141148"><ele>291.0</ele><time>2025-07-04T08:28:07Z</time></trkpt><trkpt lat="69.387688" lon="26.141138"><ele>288.0</ele><time>2025-07-04T08:29:07Z</time></trkpt><trkpt lat="69.387023" lon="26.14046"><ele>289.0</ele><time>2025-07-04T08:30:07Z</time></trkpt><trkpt lat="69.38646" lon="26.140668"><ele>289.0</ele><time>2025-07-04T08:31:07Z</time></trkpt><trkpt lat="69.385875" lon="26.139833"><ele>287.0</ele><time>2025-07-04T08:32:07Z</time></trkpt><trkpt lat="69.385473" lon="26.139067"><ele>287.0</ele><time>2025-07-04T08:33:07Z</time></trkpt><trkpt lat="69.384872" lon="26.137958"><ele>285.0</ele><time>2025-07-04T08:34:06Z</time></trkpt><trkpt lat="69.384432" lon="26.137367"><ele>285.0</ele><time>2025-07-04T08:35:07Z</time></trkpt><trkpt lat="69.383828" lon="26.13733"><ele>284.0</ele><time>2025-07-04T08:36:07Z</time></trkpt><trkpt lat="69.383132" lon="26.136965"><ele>283.0</ele><time>2025-07-04T08:37:07Z</time></trkpt><trkpt lat="69.382587" lon="26.135452"><ele>282.0</ele><time>2025-07-04T08:38:07Z</time></trkpt><trkpt lat="69.382132" lon="26.134275"><ele>282.0</ele><time>2025-07-04T08:39:06Z</time></trkpt><trkpt lat="69.381377" lon="26.13395"><ele>282.0</ele><time>2025-07-04T08:40:07Z</time></trkpt><trkpt lat="69.380655" lon="26.133173"><ele>283.0</ele><time>2025-07-04T08:41:07Z</time></trkpt><trkpt lat="69.379975" lon="26.132787"><ele>282.0</ele><time>2025-07-04T08:42:07Z</time></trkpt><trkpt lat="69.379305" lon="26.132693"><ele>280.0</ele><time>2025-07-04T08:43:07Z</time></trkpt><trkpt lat="69.378652" lon="26.132232"><ele>280.0</ele><time>2025-07-04T08:44:07Z</time></trkpt><trkpt lat="69.377907" lon="26.131908"><ele>279.0</ele><time>2025-07-04T08:45:07Z</time></trkpt><trkpt lat="69.377245" lon="26.132593"><ele>278.0</ele><time>2025-07-04T08:46:07Z</time></trkpt><trkpt lat="69.376632" lon="26.132448"><ele>278.0</ele><time>2025-07-04T08:47:06Z</time></trkpt><trkpt lat="69.37609" lon="26.131707"><ele>279.0</ele><time>2025-07-04T08:48:07Z</time></trkpt><trkpt lat="69.375648" lon="26.131872"><ele>277.0</ele><time>2025-07-04T08:49:06Z</time></trkpt><trkpt lat="69.375108" lon="26.13142"><ele>275.0</ele><time>2025-07-04T08:50:07Z</time></trkpt><trkpt lat="69.374663" lon="26.130372"><ele>273.0</ele><time>2025-07-04T08:51:07Z</time></trkpt><trkpt lat="69.374415" lon="26.130712"><ele>277.0</ele><time>2025-07-04T08:52:07Z</time></trkpt><trkpt lat="69.373935" lon="26.13082"><ele>279.0</ele><time>2025-07-04T08:53:07Z</time></trkpt><trkpt lat="69.373272" lon="26.130515"><ele>282.0</ele><time>2025-07-04T08:54:07Z</time></trkpt><trkpt lat="69.373067" lon="26.129442"><ele>282.0</ele><time>2025-07-04T08:55:07Z</time></trkpt><trkpt lat="69.372702" lon="26.12816"><ele>280.0</ele><time>2025-07-04T08:56:07Z</time></trkpt><trkpt lat="69.372442" lon="26.126903"><ele>281.0</ele><time>2025-07-04T08:57:07Z</time></trkpt><trkpt lat="69.371975" lon="26.125817"><ele>282.0</ele><time>2025-07-04T08:58:07Z</time></trkpt><trkpt lat="69.371455" lon="26.125187"><ele>279.0</ele><time>2025-07-04T08:59:06Z</time></trkpt><trkpt lat="69.370838" lon="26.124288"><ele>278.0</ele><time>2025-07-04T09:00:07Z</time></trkpt><trkpt lat="69.37019" lon="26.123603"><ele>278.0</ele><time>2025-07-04T09:01:06Z</time></trkpt><trkpt lat="69.369587" lon="26.123485"><ele>278.0</ele><time>2025-07-04T09:02:07Z</time></trkpt><trkpt lat="69.368923" lon="26.12362"><ele>278.0</ele><time>2025-07-04T09:03:08Z</time></trkpt><trkpt lat="69.368357" lon="26.123825"><ele>277.0</ele><time>2025-07-04T09:04:06Z</time></trkpt><trkpt lat="69.367853" lon="26.123788"><ele>275.0</ele><time>2025-07-04T09:05:07Z</time></trkpt><trkpt lat="69.367338" lon="26.12337"><ele>273.0</ele><time>2025-07-04T09:06:06Z</time></trkpt><trkpt lat="69.367338" lon="26.12337"><ele>274.0</ele><time>2025-07-04T09:06:48Z</time></trkpt><trkpt lat="69.367127" lon="26.123568"><ele>277.0</ele><time>2025-07-04T09:22:57Z</time></trkpt><trkpt lat="69.367127" lon="26.123568"><ele>277.0</ele><time>2025-07-04T09:23:02Z</time></trkpt><trkpt lat="69.367127" lon="26.123568"><ele>277.0</ele><time>2025-07-04T09:23:04Z</time></trkpt><trkpt lat="69.366827" lon="26.124013"><ele>275.0</ele><time>2025-07-04T09:24:06Z</time></trkpt><trkpt lat="69.366277" lon="26.123782"><ele>274.0</ele><time>2025-07-04T09:25:07Z</time></trkpt><trkpt lat="69.36602" lon="26.123413"><ele>272.0</ele><time>2025-07-04T09:27:07Z</time></trkpt><trkpt lat="69.365472" lon="26.122392"><ele>270.0</ele><time>2025-07-04T09:28:07Z</time></trkpt><trkpt lat="69.364788" lon="26.121933"><ele>267.0</ele><time>2025-07-04T09:29:07Z</time></trkpt><trkpt lat="69.364167" lon="26.121693"><ele>264.0</ele><time>2025-07-04T09:30:07Z</time></trkpt><trkpt lat="69.363655" lon="26.121547"><ele>261.0</ele><time>2025-07-04T09:31:07Z</time></trkpt><trkpt lat="69.363022" lon="26.120457"><ele>257.0</ele><time>2025-07-04T09:32:06Z</time></trkpt><trkpt lat="69.3624" lon="26.119473"><ele>255.0</ele><time>2025-07-04T09:33:07Z</time></trkpt><trkpt lat="69.36175" lon="26.118905"><ele>251.0</ele><time>2025-07-04T09:34:07Z</time></trkpt><trkpt lat="69.36113" lon="26.118503"><ele>251.0</ele><time>2025-07-04T09:35:06Z</time></trkpt><trkpt lat="69.360492" lon="26.11841"><ele>248.0</ele><time>2025-07-04T09:36:06Z</time></trkpt><trkpt lat="69.35987" lon="26.118642"><ele>247.0</ele><time>2025-07-04T09:37:07Z</time></trkpt><trkpt lat="69.359245" lon="26.119492"><ele>244.0</ele><time>2025-07-04T09:38:07Z</time></trkpt><trkpt lat="69.358983" lon="26.120233"><ele>240.0</ele><time>2025-07-04T09:39:07Z</time></trkpt><trkpt lat="69.358638" lon="26.121837"><ele>238.0</ele><time>2025-07-04T09:40:07Z</time></trkpt><trkpt lat="69.358282" lon="26.123283"><ele>236.0</ele><time>2025-07-04T09:41:07Z</time></trkpt><trkpt lat="69.357912" lon="26.124935"><ele>235.0</ele><time>2025-07-04T09:42:07Z</time></trkpt><trkpt lat="69.357315" lon="26.125338"><ele>231.0</ele><time>2025-07-04T09:43:07Z</time></trkpt><trkpt lat="69.35699" lon="26.125865"><ele>233.0</ele><time>2025-07-04T09:44:06Z</time></trkpt><trkpt lat="69.356757" lon="26.127445"><ele>231.0</ele><time>2025-07-04T09:45:07Z</time></trkpt><trkpt lat="69.356645" lon="26.12904"><ele>233.0</ele><time>2025-07-04T09:46:07Z</time></trkpt><trkpt lat="69.356382" lon="26.13083"><ele>231.0</ele><time>2025-07-04T09:47:07Z</time></trkpt><trkpt lat="69.356188" lon="26.132282"><ele>230.0</ele><time>2025-07-04T09:48:07Z</time></trkpt><trkpt lat="69.356052" lon="26.134305"><ele>228.0</ele><time>2025-07-04T09:49:06Z</time></trkpt><trkpt lat="69.35588" lon="26.134077"><ele>226.0</ele><time>2025-07-04T09:50:30Z</time></trkpt><trkpt lat="69.355672" lon="26.134232"><ele>227.0</ele><time>2025-07-04T10:13:32Z</time></trkpt><trkpt lat="69.355193" lon="26.134172"><ele>231.0</ele><time>2025-07-04T10:15:06Z</time></trkpt><trkpt lat="69.35487" lon="26.133235"><ele>234.0</ele><time>2025-07-04T10:17:06Z</time></trkpt><trkpt lat="69.354428" lon="26.13268"><ele>239.0</ele><time>2025-07-04T10:18:07Z</time></trkpt><trkpt lat="69.35413" lon="26.132285"><ele>244.0</ele><time>2025-07-04T10:19:07Z</time></trkpt><trkpt lat="69.35386" lon="26.131752"><ele>253.0</ele><time>2025-07-04T10:20:07Z</time></trkpt><trkpt lat="69.353545" lon="26.131653"><ele>259.0</ele><time>2025-07-04T10:21:07Z</time></trkpt><trkpt lat="69.353105" lon="26.13117"><ele>263.0</ele><time>2025-07-04T10:24:08Z</time></trkpt><trkpt lat="69.352617" lon="26.131338"><ele>267.0</ele><time>2025-07-04T10:25:07Z</time></trkpt><trkpt lat="69.352008" lon="26.130808"><ele>270.0</ele><time>2025-07-04T10:26:06Z</time></trkpt><trkpt lat="69.351412" lon="26.12984"><ele>272.0</ele><time>2025-07-04T10:27:08Z</time></trkpt><trkpt lat="69.350998" lon="26.129"><ele>272.0</ele><time>2025-07-04T10:28:08Z</time></trkpt><trkpt lat="69.350508" lon="26.128213"><ele>274.0</ele><time>2025-07-04T10:29:08Z</time></trkpt><trkpt lat="69.350102" lon="26.127575"><ele>275.0</ele><time>2025-07-04T10:30:07Z</time></trkpt><trkpt lat="69.349693" lon="26.127162"><ele>278.0</ele><time>2025-07-04T10:31:08Z</time></trkpt><trkpt lat="69.349287" lon="26.126677"><ele>279.0</ele><time>2025-07-04T10:32:08Z</time></trkpt><trkpt lat="69.348793" lon="26.125685"><ele>281.0</ele><time>2025-07-04T10:33:08Z</time></trkpt><trkpt lat="69.34817" lon="26.125082"><ele>281.0</ele><time>2025-07-04T10:34:08Z</time></trkpt><trkpt lat="69.347808" lon="26.125382"><ele>284.0</ele><time>2025-07-04T10:35:07Z</time></trkpt><trkpt lat="69.347103" lon="26.125675"><ele>287.0</ele><time>2025-07-04T10:36:07Z</time></trkpt><trkpt lat="69.346443" lon="26.125475"><ele>289.0</ele><time>2025-07-04T10:37:08Z</time></trkpt><trkpt lat="69.345742" lon="26.125615"><ele>288.0</ele><time>2025-07-04T10:38:06Z</time></trkpt><trkpt lat="69.345123" lon="26.125988"><ele>291.0</ele><time>2025-07-04T10:39:08Z</time></trkpt><trkpt lat="69.344765" lon="26.125898"><ele>291.0</ele><time>2025-07-04T10:41:08Z</time></trkpt><trkpt lat="69.344753" lon="26.125918"><ele>291.0</ele><time>2025-07-04T10:43:16Z</time></trkpt><trkpt lat="69.344657" lon="26.125935"><ele>291.0</ele><time>2025-07-04T11:01:56Z</time></trkpt><trkpt lat="69.344492" lon="26.125787"><ele>291.0</ele><time>2025-07-04T11:03:07Z</time></trkpt><trkpt lat="69.343957" lon="26.12543"><ele>291.0</ele><time>2025-07-04T11:04:07Z</time></trkpt><trkpt lat="69.343515" lon="26.124065"><ele>292.0</ele><time>2025-07-04T11:05:07Z</time></trkpt><trkpt lat="69.343267" lon="26.122962"><ele>295.0</ele><time>2025-07-04T11:06:07Z</time></trkpt><trkpt lat="69.342808" lon="26.12196"><ele>295.0</ele><time>2025-07-04T11:07:07Z</time></trkpt><trkpt lat="69.342257" lon="26.120748"><ele>295.0</ele><time>2025-07-04T11:08:08Z</time></trkpt><trkpt lat="69.341732" lon="26.119483"><ele>292.0</ele><time>2025-07-04T11:09:07Z</time></trkpt><trkpt lat="69.341433" lon="26.11791"><ele>294.0</ele><time>2025-07-04T11:10:07Z</time></trkpt><trkpt lat="69.340948" lon="26.11639"><ele>296.0</ele><time>2025-07-04T11:11:09Z</time></trkpt><trkpt lat="69.337437" lon="26.109228"><ele>331.0</ele><time>2025-07-04T11:20:20Z</time></trkpt><trkpt lat="69.337063" lon="26.108678"><ele>328.0</ele><time>2025-07-04T11:21:08Z</time></trkpt><trkpt lat="69.336652" lon="26.107905"><ele>322.0</ele><time>2025-07-04T11:22:08Z</time></trkpt><trkpt lat="69.336045" lon="26.106945"><ele>319.0</ele><time>2025-07-04T11:23:08Z</time></trkpt><trkpt lat="69.33556" lon="26.10614"><ele>321.0</ele><time>2025-07-04T11:24:08Z</time></trkpt><trkpt lat="69.335102" lon="26.105718"><ele>324.0</ele><time>2025-07-04T11:25:08Z</time></trkpt><trkpt lat="69.334598" lon="26.105488"><ele>328.0</ele><time>2025-07-04T11:26:08Z</time></trkpt><trkpt lat="69.334025" lon="26.105243"><ele>332.0</ele><time>2025-07-04T11:27:08Z</time></trkpt><trkpt lat="69.333452" lon="26.105123"><ele>332.0</ele><time>2025-07-04T11:28:07Z</time></trkpt><trkpt lat="69.33289" lon="26.105437"><ele>337.0</ele><time>2025-07-04T11:29:08Z</time></trkpt><trkpt lat="69.332125" lon="26.105258"><ele>337.0</ele><time>2025-07-04T11:31:07Z</time></trkpt><trkpt lat="69.331577" lon="26.104208"><ele>337.0</ele><time>2025-07-04T11:32:06Z</time></trkpt><trkpt lat="69.331033" lon="26.103537"><ele>339.0</ele><time>2025-07-04T11:33:08Z</time></trkpt><trkpt lat="69.330432" lon="26.103367"><ele>338.0</ele><time>2025-07-04T11:34:07Z</time></trkpt><trkpt lat="69.330007" lon="26.102917"><ele>339.0</ele><time>2025-07-04T11:35:08Z</time></trkpt><trkpt lat="69.329685" lon="26.10317"><ele>340.0</ele><time>2025-07-04T11:36:07Z</time></trkpt><trkpt lat="69.329375" lon="26.103005"><ele>343.0</ele><time>2025-07-04T11:37:07Z</time></trkpt><trkpt lat="69.3289" lon="26.102368"><ele>346.0</ele><time>2025-07-04T11:38:08Z</time></trkpt><trkpt lat="69.328357" lon="26.102075"><ele>350.0</ele><time>2025-07-04T11:39:07Z</time></trkpt><trkpt lat="69.327822" lon="26.101848"><ele>351.0</ele><time>2025-07-04T11:40:06Z</time></trkpt><trkpt lat="69.327185" lon="26.10126"><ele>352.0</ele><time>2025-07-04T11:41:08Z</time></trkpt><trkpt lat="69.326735" lon="26.100655"><ele>351.0</ele><time>2025-07-04T11:42:08Z</time></trkpt><trkpt lat="69.326128" lon="26.10001"><ele>353.0</ele><time>2025-07-04T11:43:07Z</time></trkpt><trkpt lat="69.325397" lon="26.100097"><ele>353.0</ele><time>2025-07-04T11:44:07Z</time></trkpt><trkpt lat="69.324855" lon="26.099752"><ele>354.0</ele><time>2025-07-04T11:46:07Z</time></trkpt><trkpt lat="69.324443" lon="26.099633"><ele>352.0</ele><time>2025-07-04T11:47:08Z</time></trkpt><trkpt lat="69.323977" lon="26.099613"><ele>354.0</ele><time>2025-07-04T11:48:07Z</time></trkpt><trkpt lat="69.32348" lon="26.099052"><ele>355.0</ele><time>2025-07-04T11:49:08Z</time></trkpt><trkpt lat="69.322857" lon="26.098278"><ele>356.0</ele><time>2025-07-04T11:50:07Z</time></trkpt><trkpt lat="69.322493" lon="26.098063"><ele>356.0</ele><time>2025-07-04T11:51:07Z</time></trkpt><trkpt lat="69.321983" lon="26.097275"><ele>358.0</ele><time>2025-07-04T11:52:06Z</time></trkpt><trkpt lat="69.321445" lon="26.09663"><ele>358.0</ele><time>2025-07-04T11:53:07Z</time></trkpt><trkpt lat="69.320807" lon="26.095902"><ele>360.0</ele><time>2025-07-04T11:54:07Z</time></trkpt><trkpt lat="69.320568" lon="26.094977"><ele>362.0</ele><time>2025-07-04T11:55:07Z</time></trkpt><trkpt lat="69.320473" lon="26.094002"><ele>359.0</ele><time>2025-07-04T11:56:07Z</time></trkpt><trkpt lat="69.320153" lon="26.093033"><ele>358.0</ele><time>2025-07-04T11:58:07Z</time></trkpt><trkpt lat="69.320052" lon="26.091435"><ele>355.0</ele><time>2025-07-04T11:59:06Z</time></trkpt><trkpt lat="69.320183" lon="26.089835"><ele>352.0</ele><time>2025-07-04T12:00:08Z</time></trkpt><trkpt lat="69.3201" lon="26.087803"><ele>350.0</ele><time>2025-07-04T12:01:07Z</time></trkpt><trkpt lat="69.320048" lon="26.086035"><ele>349.0</ele><time>2025-07-04T12:03:07Z</time></trkpt><trkpt lat="69.31977" lon="26.084528"><ele>350.0</ele><time>2025-07-04T12:04:06Z</time></trkpt><trkpt lat="69.319337" lon="26.083975"><ele>352.0</ele><time>2025-07-04T12:05:07Z</time></trkpt><trkpt lat="69.318882" lon="26.083485"><ele>357.0</ele><time>2025-07-04T12:06:07Z</time></trkpt><trkpt lat="69.318525" lon="26.08331"><ele>360.0</ele><time>2025-07-04T12:07:07Z</time></trkpt><trkpt lat="69.317997" lon="26.082425"><ele>365.0</ele><time>2025-07-04T12:08:07Z</time></trkpt><trkpt lat="69.317613" lon="26.082217"><ele>368.0</ele><time>2025-07-04T12:09:07Z</time></trkpt><trkpt lat="69.317162" lon="26.082047"><ele>373.0</ele><time>2025-07-04T13:17:30Z</time></trkpt><trkpt lat="69.316965" lon="26.080538"><ele>372.0</ele><time>2025-07-04T13:19:08Z</time></trkpt><trkpt lat="69.316685" lon="26.080258"><ele>376.0</ele><time>2025-07-04T13:20:08Z</time></trkpt><trkpt lat="69.316267" lon="26.080032"><ele>380.0</ele><time>2025-07-04T13:21:07Z</time></trkpt><trkpt lat="69.315788" lon="26.079513"><ele>384.0</ele><time>2025-07-04T13:22:07Z</time></trkpt><trkpt lat="69.315357" lon="26.07932"><ele>388.0</ele><time>2025-07-04T13:23:07Z</time></trkpt><trkpt lat="69.314968" lon="26.079162"><ele>391.0</ele><time>2025-07-04T13:24:09Z</time></trkpt><trkpt lat="69.314612" lon="26.079122"><ele>393.0</ele><time>2025-07-04T13:25:07Z</time></trkpt><trkpt lat="69.313922" lon="26.078482"><ele>395.0</ele><time>2025-07-04T13:26:07Z</time></trkpt><trkpt lat="69.313482" lon="26.07847"><ele>395.0</ele><time>2025-07-04T13:27:08Z</time></trkpt><trkpt lat="69.313197" lon="26.078312"><ele>397.0</ele><time>2025-07-04T13:28:07Z</time></trkpt><trkpt lat="69.312857" lon="26.078473"><ele>398.0</ele><time>2025-07-04T13:29:07Z</time></trkpt><trkpt lat="69.31226" lon="26.07847"><ele>398.0</ele><time>2025-07-04T13:30:07Z</time></trkpt><trkpt lat="69.311865" lon="26.079495"><ele>399.0</ele><time>2025-07-04T13:32:08Z</time></trkpt><trkpt lat="69.31147" lon="26.080653"><ele>397.0</ele><time>2025-07-04T13:34:08Z</time></trkpt><trkpt lat="69.311282" lon="26.081987"><ele>397.0</ele><time>2025-07-04T13:35:07Z</time></trkpt><trkpt lat="69.311077" lon="26.082987"><ele>398.0</ele><time>2025-07-04T13:36:07Z</time></trkpt><trkpt lat="69.310723" lon="26.083702"><ele>400.0</ele><time>2025-07-04T13:37:07Z</time></trkpt><trkpt lat="69.310563" lon="26.084828"><ele>401.0</ele><time>2025-07-04T13:38:08Z</time></trkpt><trkpt lat="69.310193" lon="26.085867"><ele>402.0</ele><time>2025-07-04T13:39:08Z</time></trkpt><trkpt lat="69.309748" lon="26.087123"><ele>403.0</ele><time>2025-07-04T13:40:07Z</time></trkpt><trkpt lat="69.309507" lon="26.087878"><ele>403.0</ele><time>2025-07-04T13:41:07Z</time></trkpt><trkpt lat="69.309235" lon="26.089298"><ele>403.0</ele><time>2025-07-04T13:42:07Z</time></trkpt><trkpt lat="69.308945" lon="26.090555"><ele>405.0</ele><time>2025-07-04T13:43:08Z</time></trkpt><trkpt lat="69.308765" lon="26.09185"><ele>403.0</ele><time>2025-07-04T13:44:07Z</time></trkpt><trkpt lat="69.30848" lon="26.092588"><ele>404.0</ele><time>2025-07-04T13:45:07Z</time></trkpt><trkpt lat="69.307877" lon="26.093627"><ele>405.0</ele><time>2025-07-04T13:46:08Z</time></trkpt><trkpt lat="69.307662" lon="26.094668"><ele>406.0</ele><time>2025-07-04T13:48:07Z</time></trkpt><trkpt lat="69.307102" lon="26.095812"><ele>406.0</ele><time>2025-07-04T13:49:10Z</time></trkpt><trkpt lat="69.306818" lon="26.096675"><ele>404.0</ele><time>2025-07-04T13:50:08Z</time></trkpt><trkpt lat="69.306813" lon="26.09796"><ele>406.0</ele><time>2025-07-04T13:51:07Z</time></trkpt><trkpt lat="69.306397" lon="26.099055"><ele>406.0</ele><time>2025-07-04T13:52:08Z</time></trkpt><trkpt lat="69.306408" lon="26.099925"><ele>406.0</ele><time>2025-07-04T13:53:07Z</time></trkpt><trkpt lat="69.306087" lon="26.100455"><ele>406.0</ele><time>2025-07-04T13:54:07Z</time></trkpt><trkpt lat="69.305812" lon="26.101113"><ele>406.0</ele><time>2025-07-04T13:55:07Z</time></trkpt><trkpt lat="69.305032" lon="26.1015"><ele>406.0</ele><time>2025-07-04T13:56:09Z</time></trkpt><trkpt lat="69.304727" lon="26.102058"><ele>405.0</ele><time>2025-07-04T13:57:07Z</time></trkpt><trkpt lat="69.304235" lon="26.101682"><ele>407.0</ele><time>2025-07-04T13:58:07Z</time></trkpt><trkpt lat="69.303852" lon="26.102035"><ele>409.0</ele><time>2025-07-04T13:59:07Z</time></trkpt><trkpt lat="69.303398" lon="26.101465"><ele>410.0</ele><time>2025-07-04T14:00:08Z</time></trkpt><trkpt lat="69.302788" lon="26.10142"><ele>409.0</ele><time>2025-07-04T14:01:07Z</time></trkpt><trkpt lat="69.3023" lon="26.101283"><ele>411.0</ele><time>2025-07-04T14:02:07Z</time></trkpt><trkpt lat="69.301933" lon="26.101565"><ele>411.0</ele><time>2025-07-04T14:03:08Z</time></trkpt><trkpt lat="69.30159" lon="26.102228"><ele>411.0</ele><time>2025-07-04T14:04:07Z</time></trkpt><trkpt lat="69.301052" lon="26.103172"><ele>410.0</ele><time>2025-07-04T14:05:15Z</time></trkpt><trkpt lat="69.301107" lon="26.10239"><ele>410.0</ele><time>2025-07-04T14:06:09Z</time></trkpt><trkpt lat="69.300613" lon="26.101822"><ele>410.0</ele><time>2025-07-04T14:07:07Z</time></trkpt><trkpt lat="69.300097" lon="26.10173"><ele>410.0</ele><time>2025-07-04T14:08:06Z</time></trkpt><trkpt lat="69.299782" lon="26.101543"><ele>410.0</ele><time>2025-07-04T14:09:08Z</time></trkpt><trkpt lat="69.299552" lon="26.101085"><ele>411.0</ele><time>2025-07-04T14:10:08Z</time></trkpt><trkpt lat="69.299308" lon="26.101627"><ele>409.0</ele><time>2025-07-04T14:11:08Z</time></trkpt><trkpt lat="69.29898" lon="26.102212"><ele>415.0</ele><time>2025-07-04T14:12:07Z</time></trkpt><trkpt lat="69.29898" lon="26.102212"><ele>417.0</ele><time>2025-07-04T14:12:47Z</time></trkpt></trkseg></trk></gpx>