<?xml version="1.0" encoding="UTF-8" standalone="no"?><gpx xmlns="http://www.topografix.com/GPX/1/1" xmlns:gpxtpx="http://www.garmin.com/xmlschemas/TrackPointExtension/v1" xmlns:xsi="http://www.w3.org/2001/XMLSchema-instance" creator="Suunto app" version="1.1" xsi:schemaLocation="http://www.topografix.com/GPX/1/1 http://www.topografix.com/GPX/1/1/gpx.xsd http://www.garmin.com/xmlschemas/TrackPointExtension/v1 http://www.garmin.com/xmlschemas/TrackPointExtensionv1.xsd"><metadata><name>suuntoapp-Trekking-2025-07-06T06-33-39Z</name><desc/><author><name>Jouni L</name></author></metadata><trk><name>suuntoapp-Trekking-2025-07-06T06-33-39Z</name><trkseg><trkpt lat="69.230208" lon="26.18196"><ele>376.0</ele><time>2025-07-06T06:33:39Z</time></trkpt><trkpt lat="69.230193" lon="26.182013"><ele>376.0</ele><time>2025-07-06T06:33:55Z</time></trkpt><trkpt lat="69.230173" lon="26.18203"><ele>375.0</ele><time>2025-07-06T06:33:58Z</time></trkpt><trkpt lat="69.230153" lon="26.182047"><ele>375.0</ele><time>2025-07-06T06:34:01Z</time></trkpt><trkpt lat="69.230128" lon="26.182047"><ele>375.0</ele><time>2025-07-06T06:34:05Z</time></trkpt><trkpt lat="69.230105" lon="26.18206"><ele>374.0</ele><time>2025-07-06T06:34:08Z</time></trkpt><trkpt lat="69.23009" lon="26.182102"><ele>374.0</ele><time>2025-07-06T06:34:11Z</time></trkpt><trkpt lat="69.230068" lon="26.182107"><ele>374.0</ele><time>2025-07-06T06:34:14Z</time></trkpt><trkpt lat="69.230043" lon="26.182115"><ele>374.0</ele><time>2025-07-06T06:34:17Z</time></trkpt><trkpt lat="69.230023" lon="26.182143"><ele>373.0</ele><time>2025-07-06T06:34:20Z</time></trkpt><trkpt lat="69.23" lon="26.18218"><ele>373.0</ele><time>2025-07-06T06:34:23Z</time></trkpt><trkpt lat="69.229973" lon="26.182202"><ele>373.0</ele><time>2025-07-06T06:34:26Z</time></trkpt><trkpt lat="69.229952" lon="26.182195"><ele>370.0</ele><time>2025-07-06T06:34:28Z</time></trkpt><trkpt lat="69.229933" lon="26.18218"><ele>370.0</ele><time>2025-07-06T06:34:30Z</time></trkpt><trkpt lat="69.229915" lon="26.18217"><ele>370.0</ele><time>2025-07-06T06:34:32Z</time></trkpt><trkpt lat="69.22989" lon="26.182187"><ele>370.0</ele><time>2025-07-06T06:34:35Z</time></trkpt><trkpt lat="69.22987" lon="26.182215"><ele>370.0</ele><time>2025-07-06T06:34:37Z</time></trkpt><trkpt lat="69.229852" lon="26.182225"><ele>370.0</ele><time>2025-07-06T06:34:39Z</time></trkpt><trkpt lat="69.229823" lon="26.18223"><ele>370.0</ele><time>2025-07-06T06:34:42Z</time></trkpt><trkpt lat="69.229797" lon="26.182255"><ele>370.0</ele><time>2025-07-06T06:34:45Z</time></trkpt><trkpt lat="69.229778" lon="26.18228"><ele>370.0</ele><time>2025-07-06T06:34:47Z</time></trkpt><trkpt lat="69.229758" lon="26.182295"><ele>370.0</ele><time>2025-07-06T06:34:49Z</time></trkpt><trkpt lat="69.229738" lon="26.18231"><ele>370.0</ele><time>2025-07-06T06:34:51Z</time></trkpt><trkpt lat="69.22972" lon="26.18233"><ele>370.0</ele><time>2025-07-06T06:34:53Z</time></trkpt><trkpt lat="69.229698" lon="26.182343"><ele>370.0</ele><time>2025-07-06T06:34:55Z</time></trkpt><trkpt lat="69.229677" lon="26.182337"><ele>370.0</ele><time>2025-07-06T06:34:57Z</time></trkpt><trkpt lat="69.229657" lon="26.182315"><ele>369.0</ele><time>2025-07-06T06:34:59Z</time></trkpt><trkpt lat="69.229637" lon="26.182283"><ele>369.0</ele><time>2025-07-06T06:35:01Z</time></trkpt><trkpt lat="69.22962" lon="26.182258"><ele>369.0</ele><time>2025-07-06T06:35:03Z</time></trkpt><trkpt lat="69.229602" lon="26.182237"><ele>369.0</ele><time>2025-07-06T06:35:05Z</time></trkpt><trkpt lat="69.229583" lon="26.182207"><ele>369.0</ele><time>2025-07-06T06:35:07Z</time></trkpt><trkpt lat="69.229565" lon="26.182183"><ele>367.0</ele><time>2025-07-06T06:35:09Z</time></trkpt><trkpt lat="69.229545" lon="26.18216"><ele>367.0</ele><time>2025-07-06T06:35:11Z</time></trkpt><trkpt lat="69.229525" lon="26.182135"><ele>367.0</ele><time>2025-07-06T06:35:13Z</time></trkpt><trkpt lat="69.229508" lon="26.182108"><ele>367.0</ele><time>2025-07-06T06:35:15Z</time></trkpt><trkpt lat="69.229492" lon="26.182077"><ele>367.0</ele><time>2025-07-06T06:35:17Z</time></trkpt><trkpt lat="69.229473" lon="26.182042"><ele>368.0</ele><time>2025-07-06T06:35:19Z</time></trkpt><trkpt lat="69.229455" lon="26.182017"><ele>368.0</ele><time>2025-07-06T06:35:21Z</time></trkpt><trkpt lat="69.22944" lon="26.181987"><ele>368.0</ele><time>2025-07-06T06:35:23Z</time></trkpt><trkpt lat="69.22942" lon="26.181963"><ele>368.0</ele><time>2025-07-06T06:35:25Z</time></trkpt><trkpt lat="69.229403" lon="26.18196"><ele>368.0</ele><time>2025-07-06T06:35:27Z</time></trkpt><trkpt lat="69.22938" lon="26.18196"><ele>368.0</ele><time>2025-07-06T06:35:29Z</time></trkpt><trkpt lat="69.22936" lon="26.181947"><ele>368.0</ele><time>2025-07-06T06:35:31Z</time></trkpt><trkpt lat="69.229342" lon="26.181928"><ele>368.0</ele><time>2025-07-06T06:35:33Z</time></trkpt><trkpt lat="69.229323" lon="26.181907"><ele>368.0</ele><time>2025-07-06T06:35:35Z</time></trkpt><trkpt lat="69.229305" lon="26.181888"><ele>368.0</ele><time>2025-07-06T06:35:37Z</time></trkpt><trkpt lat="69.229285" lon="26.181865"><ele>368.0</ele><time>2025-07-06T06:35:39Z</time></trkpt><trkpt lat="69.229267" lon="26.181842"><ele>368.0</ele><time>2025-07-06T06:35:41Z</time></trkpt><trkpt lat="69.22925" lon="26.181817"><ele>368.0</ele><time>2025-07-06T06:35:43Z</time></trkpt><trkpt lat="69.229235" lon="26.181792"><ele>368.0</ele><time>2025-07-06T06:35:45Z</time></trkpt><trkpt lat="69.229218" lon="26.181767"><ele>368.0</ele><time>2025-07-06T06:35:47Z</time></trkpt><trkpt lat="69.229193" lon="26.181732"><ele>368.0</ele><time>2025-07-06T06:35:50Z</time></trkpt><trkpt lat="69.229177" lon="26.1817"><ele>368.0</ele><time>2025-07-06T06:35:52Z</time></trkpt><trkpt lat="69.229152" lon="26.181668"><ele>368.0</ele><time>2025-07-06T06:35:55Z</time></trkpt><trkpt lat="69.229133" lon="26.181647"><ele>368.0</ele><time>2025-07-06T06:35:57Z</time></trkpt><trkpt lat="69.229113" lon="26.181635"><ele>370.0</ele><time>2025-07-06T06:36:03Z</time></trkpt><trkpt lat="69.22909" lon="26.181605"><ele>370.0</ele><time>2025-07-06T06:36:06Z</time></trkpt><trkpt lat="69.229072" lon="26.18159"><ele>369.0</ele><time>2025-07-06T06:36:08Z</time></trkpt><trkpt lat="69.229052" lon="26.181578"><ele>369.0</ele><time>2025-07-06T06:36:10Z</time></trkpt><trkpt lat="69.229035" lon="26.181557"><ele>369.0</ele><time>2025-07-06T06:36:12Z</time></trkpt><trkpt lat="69.229017" lon="26.181537"><ele>369.0</ele><time>2025-07-06T06:36:14Z</time></trkpt><trkpt lat="69.228998" lon="26.181515"><ele>369.0</ele><time>2025-07-06T06:36:16Z</time></trkpt><trkpt lat="69.22898" lon="26.181492"><ele>369.0</ele><time>2025-07-06T06:36:18Z</time></trkpt><trkpt lat="69.228955" lon="26.181477"><ele>369.0</ele><time>2025-07-06T06:36:21Z</time></trkpt><trkpt lat="69.228933" lon="26.18147"><ele>369.0</ele><time>2025-07-06T06:36:23Z</time></trkpt><trkpt lat="69.228915" lon="26.18146"><ele>369.0</ele><time>2025-07-06T06:36:25Z</time></trkpt><trkpt lat="69.228897" lon="26.181447"><ele>369.0</ele><time>2025-07-06T06:36:27Z</time></trkpt><trkpt lat="69.228878" lon="26.181423"><ele>370.0</ele><time>2025-07-06T06:36:29Z</time></trkpt><trkpt lat="69.228537" lon="26.181283"><ele>370.0</ele><time>2025-07-06T06:37:06Z</time></trkpt><trkpt lat="69.228058" lon="26.180808"><ele>372.0</ele><time>2025-07-06T06:38:07Z</time></trkpt><trkpt lat="69.227605" lon="26.180365"><ele>374.0</ele><time>2025-07-06T06:39:06Z</time></trkpt><trkpt lat="69.226972" lon="26.180143"><ele>376.0</ele><time>2025-07-06T06:40:07Z</time></trkpt><trkpt lat="69.226635" lon="26.180247"><ele>376.0</ele><time>2025-07-06T06:41:06Z</time></trkpt><trkpt lat="69.225787" lon="26.17973"><ele>377.0</ele><time>2025-07-06T06:42:06Z</time></trkpt><trkpt lat="69.225142" lon="26.179615"><ele>379.0</ele><time>2025-07-06T06:43:06Z</time></trkpt><trkpt lat="69.224645" lon="26.179292"><ele>381.0</ele><time>2025-07-06T06:46:07Z</time></trkpt><trkpt lat="69.224207" lon="26.179333"><ele>381.0</ele><time>2025-07-06T06:47:06Z</time></trkpt><trkpt lat="69.22354" lon="26.178317"><ele>382.0</ele><time>2025-07-06T06:48:06Z</time></trkpt><trkpt lat="69.222968" lon="26.178637"><ele>382.0</ele><time>2025-07-06T06:49:06Z</time></trkpt><trkpt lat="69.222315" lon="26.178832"><ele>382.0</ele><time>2025-07-06T06:50:07Z</time></trkpt><trkpt lat="69.221703" lon="26.178293"><ele>382.0</ele><time>2025-07-06T06:51:07Z</time></trkpt><trkpt lat="69.221142" lon="26.17813"><ele>380.0</ele><time>2025-07-06T06:52:07Z</time></trkpt><trkpt lat="69.220577" lon="26.17796"><ele>378.0</ele><time>2025-07-06T06:53:06Z</time></trkpt><trkpt lat="69.220032" lon="26.177962"><ele>377.0</ele><time>2025-07-06T06:54:06Z</time></trkpt><trkpt lat="69.219453" lon="26.178225"><ele>376.0</ele><time>2025-07-06T06:55:06Z</time></trkpt><trkpt lat="69.219045" lon="26.178105"><ele>374.0</ele><time>2025-07-06T06:56:06Z</time></trkpt><trkpt lat="69.218542" lon="26.177867"><ele>370.0</ele><time>2025-07-06T06:57:07Z</time></trkpt><trkpt lat="69.218065" lon="26.177595"><ele>368.0</ele><time>2025-07-06T06:58:06Z</time></trkpt><trkpt lat="69.217445" lon="26.178107"><ele>363.0</ele><time>2025-07-06T06:59:06Z</time></trkpt><trkpt lat="69.216847" lon="26.178057"><ele>359.0</ele><time>2025-07-06T07:00:06Z</time></trkpt><trkpt lat="69.216282" lon="26.178293"><ele>357.0</ele><time>2025-07-06T07:01:06Z</time></trkpt><trkpt lat="69.215637" lon="26.1784"><ele>352.0</ele><time>2025-07-06T07:02:07Z</time></trkpt><trkpt lat="69.215195" lon="26.178927"><ele>351.0</ele><time>2025-07-06T07:03:06Z</time></trkpt><trkpt lat="69.214615" lon="26.179373"><ele>347.0</ele><time>2025-07-06T07:04:07Z</time></trkpt><trkpt lat="69.214192" lon="26.179687"><ele>345.0</ele><time>2025-07-06T07:05:06Z</time></trkpt><trkpt lat="69.213745" lon="26.179748"><ele>341.0</ele><time>2025-07-06T07:06:06Z</time></trkpt><trkpt lat="69.21333" lon="26.180172"><ele>339.0</ele><time>2025-07-06T07:07:07Z</time></trkpt><trkpt lat="69.21276" lon="26.180158"><ele>336.0</ele><time>2025-07-06T07:08:06Z</time></trkpt><trkpt lat="69.212425" lon="26.18024"><ele>331.0</ele><time>2025-07-06T07:09:07Z</time></trkpt><trkpt lat="69.211768" lon="26.180617"><ele>335.0</ele><time>2025-07-06T07:11:07Z</time></trkpt><trkpt lat="69.211378" lon="26.180723"><ele>336.0</ele><time>2025-07-06T07:12:06Z</time></trkpt><trkpt lat="69.210878" lon="26.181393"><ele>337.0</ele><time>2025-07-06T07:13:06Z</time></trkpt><trkpt lat="69.210467" lon="26.181815"><ele>335.0</ele><time>2025-07-06T07:14:07Z</time></trkpt><trkpt lat="69.210258" lon="26.182822"><ele>333.0</ele><time>2025-07-06T07:15:06Z</time></trkpt><trkpt lat="69.209992" lon="26.182982"><ele>332.0</ele><time>2025-07-06T07:16:07Z</time></trkpt><trkpt lat="69.209532" lon="26.183117"><ele>332.0</ele><time>2025-07-06T07:17:06Z</time></trkpt><trkpt lat="69.209053" lon="26.183178"><ele>329.0</ele><time>2025-07-06T07:19:07Z</time></trkpt><trkpt lat="69.208532" lon="26.183057"><ele>326.0</ele><time>2025-07-06T07:20:06Z</time></trkpt><trkpt lat="69.207875" lon="26.182955"><ele>319.0</ele><time>2025-07-06T07:26:06Z</time></trkpt><trkpt lat="69.207285" lon="26.182828"><ele>315.0</ele><time>2025-07-06T07:27:06Z</time></trkpt><trkpt lat="69.206858" lon="26.182567"><ele>309.0</ele><time>2025-07-06T07:28:07Z</time></trkpt><trkpt lat="69.206218" lon="26.182713"><ele>303.0</ele><time>2025-07-06T07:29:07Z</time></trkpt><trkpt lat="69.205768" lon="26.182932"><ele>297.0</ele><time>2025-07-06T07:30:06Z</time></trkpt><trkpt lat="69.20559" lon="26.183283"><ele>296.0</ele><time>2025-07-06T07:31:08Z</time></trkpt><trkpt lat="69.20527" lon="26.184158"><ele>295.0</ele><time>2025-07-06T08:03:06Z</time></trkpt><trkpt lat="69.205058" lon="26.184637"><ele>295.0</ele><time>2025-07-06T08:04:06Z</time></trkpt><trkpt lat="69.205288" lon="26.18542"><ele>298.0</ele><time>2025-07-06T08:06:07Z</time></trkpt><trkpt lat="69.205288" lon="26.18542"><ele>298.0</ele><time>2025-07-06T08:06:18Z</time></trkpt><trkpt lat="69.20512" lon="26.185735"><ele>300.0</ele><time>2025-07-06T08:17:16Z</time></trkpt><trkpt lat="69.204972" lon="26.185297"><ele>301.0</ele><time>2025-07-06T08:18:07Z</time></trkpt><trkpt lat="69.204625" lon="26.18509"><ele>304.0</ele><time>2025-07-06T08:19:07Z</time></trkpt><trkpt lat="69.204238" lon="26.185412"><ele>308.0</ele><time>2025-07-06T08:20:06Z</time></trkpt><trkpt lat="69.203848" lon="26.185422"><ele>313.0</ele><time>2025-07-06T08:21:07Z</time></trkpt><trkpt lat="69.203305" lon="26.185342"><ele>324.0</ele><time>2025-07-06T08:23:07Z</time></trkpt><trkpt lat="69.202958" lon="26.185652"><ele>326.0</ele><time>2025-07-06T08:24:07Z</time></trkpt><trkpt lat="69.202295" lon="26.185823"><ele>331.0</ele><time>2025-07-06T08:27:06Z</time></trkpt><trkpt lat="69.20185" lon="26.186355"><ele>333.0</ele><time>2025-07-06T08:28:07Z</time></trkpt><trkpt lat="69.201362" lon="26.18603"><ele>338.0</ele><time>2025-07-06T08:29:07Z</time></trkpt><trkpt lat="69.200983" lon="26.186503"><ele>344.0</ele><time>2025-07-06T08:30:06Z</time></trkpt><trkpt lat="69.200312" lon="26.187227"><ele>347.0</ele><time>2025-07-06T08:32:06Z</time></trkpt><trkpt lat="69.199972" lon="26.18761"><ele>348.0</ele><time>2025-07-06T08:33:07Z</time></trkpt><trkpt lat="69.199472" lon="26.187097"><ele>352.0</ele><time>2025-07-06T08:35:06Z</time></trkpt><trkpt lat="69.198977" lon="26.187128"><ele>353.0</ele><time>2025-07-06T08:36:07Z</time></trkpt><trkpt lat="69.198468" lon="26.187392"><ele>358.0</ele><time>2025-07-06T08:37:06Z</time></trkpt><trkpt lat="69.198205" lon="26.187675"><ele>367.0</ele><time>2025-07-06T08:39:06Z</time></trkpt><trkpt lat="69.19772" lon="26.18795"><ele>369.0</ele><time>2025-07-06T08:40:06Z</time></trkpt><trkpt lat="69.197333" lon="26.188272"><ele>371.0</ele><time>2025-07-06T08:41:07Z</time></trkpt><trkpt lat="69.196757" lon="26.188308"><ele>377.0</ele><time>2025-07-06T08:43:07Z</time></trkpt><trkpt lat="69.196282" lon="26.188312"><ele>381.0</ele><time>2025-07-06T08:44:06Z</time></trkpt><trkpt lat="69.195978" lon="26.188463"><ele>385.0</ele><time>2025-07-06T08:45:06Z</time></trkpt><trkpt lat="69.195425" lon="26.188725"><ele>387.0</ele><time>2025-07-06T08:47:06Z</time></trkpt><trkpt lat="69.194967" lon="26.189042"><ele>393.0</ele><time>2025-07-06T08:48:07Z</time></trkpt><trkpt lat="69.194453" lon="26.189147"><ele>395.0</ele><time>2025-07-06T08:49:06Z</time></trkpt><trkpt lat="69.194018" lon="26.189328"><ele>399.0</ele><time>2025-07-06T08:50:07Z</time></trkpt><trkpt lat="69.19341" lon="26.189512"><ele>401.0</ele><time>2025-07-06T08:52:07Z</time></trkpt><trkpt lat="69.193" lon="26.18977"><ele>406.0</ele><time>2025-07-06T08:53:07Z</time></trkpt><trkpt lat="69.192453" lon="26.1903"><ele>409.0</ele><time>2025-07-06T08:54:06Z</time></trkpt><trkpt lat="69.191978" lon="26.190445"><ele>412.0</ele><time>2025-07-06T08:55:07Z</time></trkpt><trkpt lat="69.191588" lon="26.190747"><ele>415.0</ele><time>2025-07-06T08:56:06Z</time></trkpt><trkpt lat="69.191105" lon="26.19117"><ele>420.0</ele><time>2025-07-06T08:57:07Z</time></trkpt><trkpt lat="69.19067" lon="26.191717"><ele>425.0</ele><time>2025-07-06T08:58:07Z</time></trkpt><trkpt lat="69.190118" lon="26.191717"><ele>429.0</ele><time>2025-07-06T09:01:06Z</time></trkpt><trkpt lat="69.189653" lon="26.19172"><ele>432.0</ele><time>2025-07-06T09:02:07Z</time></trkpt><trkpt lat="69.189057" lon="26.192132"><ele>433.0</ele><time>2025-07-06T09:03:06Z</time></trkpt><trkpt lat="69.188482" lon="26.19243"><ele>434.0</ele><time>2025-07-06T09:04:06Z</time></trkpt><trkpt lat="69.187917" lon="26.192805"><ele>434.0</ele><time>2025-07-06T09:05:06Z</time></trkpt><trkpt lat="69.187425" lon="26.19299"><ele>432.0</ele><time>2025-07-06T09:06:06Z</time></trkpt><trkpt lat="69.187128" lon="26.193157"><ele>427.0</ele><time>2025-07-06T09:07:06Z</time></trkpt><trkpt lat="69.186655" lon="26.193372"><ele>424.0</ele><time>2025-07-06T09:08:06Z</time></trkpt><trkpt lat="69.186148" lon="26.193638"><ele>423.0</ele><time>2025-07-06T09:10:06Z</time></trkpt><trkpt lat="69.185735" lon="26.193913"><ele>418.0</ele><time>2025-07-06T09:11:07Z</time></trkpt><trkpt lat="69.185503" lon="26.194598"><ele>414.0</ele><time>2025-07-06T09:12:06Z</time></trkpt><trkpt lat="69.185068" lon="26.195115"><ele>410.0</ele><time>2025-07-06T09:13:07Z</time></trkpt><trkpt lat="69.185068" lon="26.195115"><ele>409.0</ele><time>2025-07-06T09:13:25Z</time></trkpt><trkpt lat="69.184955" lon="26.195005"><ele>409.0</ele><time>2025-07-06T09:31:55Z</time></trkpt><trkpt lat="69.184543" lon="26.195173"><ele>404.0</ele><time>2025-07-06T09:33:06Z</time></trkpt><trkpt lat="69.184135" lon="26.195548"><ele>397.0</ele><time>2025-07-06T09:34:07Z</time></trkpt><trkpt lat="69.18369" lon="26.19631"><ele>394.0</ele><time>2025-07-06T09:35:06Z</time></trkpt><trkpt lat="69.183243" lon="26.196828"><ele>391.0</ele><time>2025-07-06T09:36:06Z</time></trkpt><trkpt lat="69.182915" lon="26.197482"><ele>387.0</ele><time>2025-07-06T09:37:07Z</time></trkpt><trkpt lat="69.182492" lon="26.197167"><ele>381.0</ele><time>2025-07-06T09:38:07Z</time></trkpt><trkpt lat="69.181848" lon="26.197972"><ele>379.0</ele><time>2025-07-06T09:39:06Z</time></trkpt><trkpt lat="69.181508" lon="26.198798"><ele>378.0</ele><time>2025-07-06T09:40:06Z</time></trkpt><trkpt lat="69.181035" lon="26.199492"><ele>375.0</ele><time>2025-07-06T09:41:07Z</time></trkpt><trkpt lat="69.180622" lon="26.200157"><ele>370.0</ele><time>2025-07-06T09:42:06Z</time></trkpt><trkpt lat="69.180165" lon="26.200617"><ele>368.0</ele><time>2025-07-06T09:43:07Z</time></trkpt><trkpt lat="69.179443" lon="26.200793"><ele>364.0</ele><time>2025-07-06T09:44:06Z</time></trkpt><trkpt lat="69.178972" lon="26.201553"><ele>363.0</ele><time>2025-07-06T09:45:06Z</time></trkpt><trkpt lat="69.178593" lon="26.202242"><ele>360.0</ele><time>2025-07-06T09:46:07Z</time></trkpt><trkpt lat="69.178157" lon="26.201655"><ele>357.0</ele><time>2025-07-06T09:47:06Z</time></trkpt><trkpt lat="69.177765" lon="26.202317"><ele>355.0</ele><time>2025-07-06T09:48:06Z</time></trkpt><trkpt lat="69.177363" lon="26.203408"><ele>357.0</ele><time>2025-07-06T09:50:06Z</time></trkpt><trkpt lat="69.176972" lon="26.20408"><ele>355.0</ele><time>2025-07-06T09:51:07Z</time></trkpt><trkpt lat="69.176468" lon="26.204725"><ele>352.0</ele><time>2025-07-06T09:52:06Z</time></trkpt><trkpt lat="69.175907" lon="26.204915"><ele>351.0</ele><time>2025-07-06T09:53:06Z</time></trkpt><trkpt lat="69.17549" lon="26.20467"><ele>348.0</ele><time>2025-07-06T09:54:07Z</time></trkpt><trkpt lat="69.175298" lon="26.204028"><ele>349.0</ele><time>2025-07-06T09:56:07Z</time></trkpt><trkpt lat="69.175162" lon="26.203635"><ele>355.0</ele><time>2025-07-06T09:57:50Z</time></trkpt><trkpt lat="69.17509" lon="26.203935"><ele>351.0</ele><time>2025-07-06T10:06:33Z</time></trkpt><trkpt lat="69.174863" lon="26.204438"><ele>349.0</ele><time>2025-07-06T10:08:07Z</time></trkpt><trkpt lat="69.174643" lon="26.205758"><ele>355.0</ele><time>2025-07-06T10:10:07Z</time></trkpt><trkpt lat="69.174315" lon="26.206953"><ele>356.0</ele><time>2025-07-06T10:12:07Z</time></trkpt><trkpt lat="69.17395" lon="26.207752"><ele>362.0</ele><time>2025-07-06T10:13:06Z</time></trkpt><trkpt lat="69.17367" lon="26.208315"><ele>363.0</ele><time>2025-07-06T10:14:08Z</time></trkpt><trkpt lat="69.173318" lon="26.209065"><ele>369.0</ele><time>2025-07-06T10:15:07Z</time></trkpt><trkpt lat="69.172943" lon="26.20992"><ele>373.0</ele><time>2025-07-06T10:16:08Z</time></trkpt><trkpt lat="69.17259" lon="26.210867"><ele>375.0</ele><time>2025-07-06T10:17:07Z</time></trkpt><trkpt lat="69.172332" lon="26.21167"><ele>375.0</ele><time>2025-07-06T10:18:07Z</time></trkpt><trkpt lat="69.17196" lon="26.212355"><ele>377.0</ele><time>2025-07-06T10:19:07Z</time></trkpt><trkpt lat="69.171768" lon="26.213145"><ele>375.0</ele><time>2025-07-06T10:20:07Z</time></trkpt><trkpt lat="69.171477" lon="26.21426"><ele>375.0</ele><time>2025-07-06T10:21:07Z</time></trkpt><trkpt lat="69.171117" lon="26.215163"><ele>376.0</ele><time>2025-07-06T10:22:07Z</time></trkpt><trkpt lat="69.170712" lon="26.216133"><ele>375.0</ele><time>2025-07-06T10:23:06Z</time></trkpt><trkpt lat="69.170383" lon="26.21715"><ele>372.0</ele><time>2025-07-06T10:24:08Z</time></trkpt><trkpt lat="69.170198" lon="26.218017"><ele>372.0</ele><time>2025-07-06T10:25:06Z</time></trkpt><trkpt lat="69.169953" lon="26.21897"><ele>368.0</ele><time>2025-07-06T10:26:08Z</time></trkpt><trkpt lat="69.169717" lon="26.21985"><ele>363.0</ele><time>2025-07-06T10:27:08Z</time></trkpt><trkpt lat="69.169442" lon="26.220808"><ele>359.0</ele><time>2025-07-06T10:28:07Z</time></trkpt><trkpt lat="69.169102" lon="26.221907"><ele>362.0</ele><time>2025-07-06T10:29:07Z</time></trkpt><trkpt lat="69.168733" lon="26.2226"><ele>366.0</ele><time>2025-07-06T10:30:07Z</time></trkpt><trkpt lat="69.168407" lon="26.223538"><ele>370.0</ele><time>2025-07-06T10:31:08Z</time></trkpt><trkpt lat="69.16808" lon="26.224378"><ele>372.0</ele><time>2025-07-06T10:32:07Z</time></trkpt><trkpt lat="69.167637" lon="26.225165"><ele>375.0</ele><time>2025-07-06T10:33:08Z</time></trkpt><trkpt lat="69.167355" lon="26.225955"><ele>375.0</ele><time>2025-07-06T10:34:07Z</time></trkpt><trkpt lat="69.167113" lon="26.226788"><ele>378.0</ele><time>2025-07-06T10:35:08Z</time></trkpt><trkpt lat="69.1668" lon="26.22758"><ele>382.0</ele><time>2025-07-06T10:36:08Z</time></trkpt><trkpt lat="69.16651" lon="26.228357"><ele>387.0</ele><time>2025-07-06T10:37:07Z</time></trkpt><trkpt lat="69.165947" lon="26.229223"><ele>397.0</ele><time>2025-07-06T10:39:08Z</time></trkpt><trkpt lat="69.165947" lon="26.229223"><ele>399.0</ele><time>2025-07-06T10:40:02Z</time></trkpt><trkpt lat="69.16643" lon="26.232332"><ele>404.0</ele><time>2025-07-06T11:49:46Z</time></trkpt><trkpt lat="69.166162" lon="26.233085"><ele>405.0</ele><time>2025-07-06T11:51:07Z</time></trkpt><trkpt lat="69.16573" lon="26.234022"><ele>408.0</ele><time>2025-07-06T11:52:08Z</time></trkpt><trkpt lat="69.165495" lon="26.235022"><ele>408.0</ele><time>2025-07-06T11:53:07Z</time></trkpt><trkpt lat="69.165495" lon="26.235022"><ele>410.0</ele><time>2025-07-06T11:53:28Z</time></trkpt><trkpt lat="69.165418" lon="26.23569"><ele>412.0</ele><time>2025-07-06T11:55:47Z</time></trkpt><trkpt lat="69.165228" lon="26.235965"><ele>411.0</ele><time>2025-07-06T11:56:07Z</time></trkpt><trkpt lat="69.164855" lon="26.236903"><ele>411.0</ele><time>2025-07-06T11:57:07Z</time></trkpt><trkpt lat="69.164575" lon="26.238133"><ele>409.0</ele><time>2025-07-06T11:58:07Z</time></trkpt><trkpt lat="69.164297" lon="26.239165"><ele>407.0</ele><time>2025-07-06T11:59:07Z</time></trkpt><trkpt lat="69.163835" lon="26.239663"><ele>408.0</ele><time>2025-07-06T12:00:07Z</time></trkpt><trkpt lat="69.163397" lon="26.241572"><ele>409.0</ele><time>2025-07-06T12:01:08Z</time></trkpt><trkpt lat="69.163038" lon="26.243017"><ele>411.0</ele><time>2025-07-06T12:02:07Z</time></trkpt><trkpt lat="69.162538" lon="26.244315"><ele>414.0</ele><time>2025-07-06T12:04:07Z</time></trkpt><trkpt lat="69.162278" lon="26.245727"><ele>417.0</ele><time>2025-07-06T12:05:07Z</time></trkpt><trkpt lat="69.161898" lon="26.246778"><ele>419.0</ele><time>2025-07-06T12:06:07Z</time></trkpt><trkpt lat="69.161643" lon="26.248373"><ele>420.0</ele><time>2025-07-06T12:07:06Z</time></trkpt><trkpt lat="69.161403" lon="26.249257"><ele>423.0</ele><time>2025-07-06T12:08:07Z</time></trkpt><trkpt lat="69.160985" lon="26.250348"><ele>426.0</ele><time>2025-07-06T12:09:07Z</time></trkpt><trkpt lat="69.160665" lon="26.251843"><ele>430.0</ele><time>2025-07-06T12:10:07Z</time></trkpt><trkpt lat="69.160368" lon="26.252848"><ele>433.0</ele><time>2025-07-06T12:11:07Z</time></trkpt><trkpt lat="69.159902" lon="26.253822"><ele>436.0</ele><time>2025-07-06T12:12:07Z</time></trkpt><trkpt lat="69.159603" lon="26.254672"><ele>439.0</ele><time>2025-07-06T12:13:06Z</time></trkpt><trkpt lat="69.159398" lon="26.256232"><ele>442.0</ele><time>2025-07-06T12:14:07Z</time></trkpt><trkpt lat="69.159172" lon="26.256945"><ele>445.0</ele><time>2025-07-06T12:15:08Z</time></trkpt><trkpt lat="69.158912" lon="26.257742"><ele>447.0</ele><time>2025-07-06T12:16:07Z</time></trkpt><trkpt lat="69.158718" lon="26.258527"><ele>449.0</ele><time>2025-07-06T12:17:08Z</time></trkpt><trkpt lat="69.158513" lon="26.259552"><ele>452.0</ele><time>2025-07-06T12:18:07Z</time></trkpt><trkpt lat="69.15825" lon="26.260468"><ele>452.0</ele><time>2025-07-06T12:19:08Z</time></trkpt><trkpt lat="69.157853" lon="26.261597"><ele>452.0</ele><time>2025-07-06T12:20:06Z</time></trkpt><trkpt lat="69.157383" lon="26.262915"><ele>451.0</ele><time>2025-07-06T12:21:08Z</time></trkpt><trkpt lat="69.157013" lon="26.26373"><ele>446.0</ele><time>2025-07-06T12:22:07Z</time></trkpt><trkpt lat="69.156628" lon="26.264433"><ele>442.0</ele><time>2025-07-06T12:23:07Z</time></trkpt><trkpt lat="69.156298" lon="26.265323"><ele>439.0</ele><time>2025-07-06T12:24:07Z</time></trkpt><trkpt lat="69.155892" lon="26.266118"><ele>432.0</ele><time>2025-07-06T12:25:08Z</time></trkpt><trkpt lat="69.155553" lon="26.266947"><ele>427.0</ele><time>2025-07-06T12:26:07Z</time></trkpt><trkpt lat="69.155188" lon="26.267832"><ele>422.0</ele><time>2025-07-06T12:27:07Z</time></trkpt><trkpt lat="69.15483" lon="26.268883"><ele>417.0</ele><time>2025-07-06T12:28:07Z</time></trkpt><trkpt lat="69.154348" lon="26.270122"><ele>409.0</ele><time>2025-07-06T12:30:07Z</time></trkpt><trkpt lat="69.15408" lon="26.270695"><ele>403.0</ele><time>2025-07-06T12:31:07Z</time></trkpt><trkpt lat="69.153802" lon="26.271422"><ele>396.0</ele><time>2025-07-06T12:32:08Z</time></trkpt><trkpt lat="69.153575" lon="26.271837"><ele>390.0</ele><time>2025-07-06T12:33:08Z</time></trkpt><trkpt lat="69.153575" lon="26.271837"><ele>387.0</ele><time>2025-07-06T12:33:36Z</time></trkpt><trkpt lat="69.153313" lon="26.272162"><ele>386.0</ele><time>2025-07-06T12:46:11Z</time></trkpt><trkpt lat="69.15297" lon="26.273148"><ele>375.0</ele><time>2025-07-06T12:48:07Z</time></trkpt><trkpt lat="69.152728" lon="26.273953"><ele>369.0</ele><time>2025-07-06T12:49:08Z</time></trkpt><trkpt lat="69.152455" lon="26.274627"><ele>364.0</ele><time>2025-07-06T12:50:07Z</time></trkpt><trkpt lat="69.152248" lon="26.275162"><ele>357.0</ele><time>2025-07-06T12:51:06Z</time></trkpt><trkpt lat="69.15206" lon="26.276105"><ele>352.0</ele><time>2025-07-06T12:52:07Z</time></trkpt><trkpt lat="69.151913" lon="26.277367"><ele>344.0</ele><time>2025-07-06T12:53:07Z</time></trkpt><trkpt lat="69.151777" lon="26.278443"><ele>339.0</ele><time>2025-07-06T12:54:07Z</time></trkpt><trkpt lat="69.15143" lon="26.279538"><ele>335.0</ele><time>2025-07-06T12:55:06Z</time></trkpt><trkpt lat="69.151322" lon="26.280563"><ele>333.0</ele><time>2025-07-06T12:56:06Z</time></trkpt><trkpt lat="69.150992" lon="26.281413"><ele>330.0</ele><time>2025-07-06T12:57:08Z</time></trkpt><trkpt lat="69.150728" lon="26.282862"><ele>325.0</ele><time>2025-07-06T12:58:08Z</time></trkpt><trkpt lat="69.150417" lon="26.283748"><ele>322.0</ele><time>2025-07-06T12:59:07Z</time></trkpt><trkpt lat="69.150025" lon="26.284773"><ele>321.0</ele><time>2025-07-06T13:00:07Z</time></trkpt><trkpt lat="69.149895" lon="26.285842"><ele>319.0</ele><time>2025-07-06T13:01:08Z</time></trkpt><trkpt lat="69.14981" lon="26.286793"><ele>321.0</ele><time>2025-07-06T13:02:07Z</time></trkpt><trkpt lat="69.14985" lon="26.288198"><ele>322.0</ele><time>2025-07-06T13:03:07Z</time></trkpt><trkpt lat="69.14978" lon="26.289792"><ele>324.0</ele><time>2025-07-06T13:04:07Z</time></trkpt><trkpt lat="69.149702" lon="26.29086"><ele>322.0</ele><time>2025-07-06T13:05:07Z</time></trkpt><trkpt lat="69.149573" lon="26.291563"><ele>322.0</ele><time>2025-07-06T13:06:08Z</time></trkpt><trkpt lat="69.149078" lon="26.293115"><ele>321.0</ele><time>2025-07-06T13:08:08Z</time></trkpt><trkpt lat="69.148695" lon="26.29395"><ele>315.0</ele><time>2025-07-06T13:09:08Z</time></trkpt><trkpt lat="69.148363" lon="26.29507"><ele>312.0</ele><time>2025-07-06T13:10:07Z</time></trkpt><trkpt lat="69.14819" lon="26.296067"><ele>312.0</ele><time>2025-07-06T13:11:07Z</time></trkpt><trkpt lat="69.14819" lon="26.296067"><ele>314.0</ele><time>2025-07-06T13:11:58Z</time></trkpt><trkpt lat="69.147437" lon="26.296952"><ele>318.0</ele><time>2025-07-06T13:41:12Z</time></trkpt><trkpt lat="69.147685" lon="26.297655"><ele>317.0</ele><time>2025-07-06T13:42:06Z</time></trkpt><trkpt lat="69.147773" lon="26.29866"><ele>315.0</ele><time>2025-07-06T13:43:07Z</time></trkpt><trkpt lat="69.147718" lon="26.299662"><ele>315.0</ele><time>2025-07-06T13:44:07Z</time></trkpt><trkpt lat="69.147665" lon="26.300338"><ele>313.0</ele><time>2025-07-06T13:45:55Z</time></trkpt><trkpt lat="69.147343" lon="26.301002"><ele>316.0</ele><time>2025-07-06T14:06:48Z</time></trkpt><trkpt lat="69.147627" lon="26.301742"><ele>319.0</ele><time>2025-07-06T14:08:07Z</time></trkpt><trkpt lat="69.147892" lon="26.302298"><ele>319.0</ele><time>2025-07-06T14:09:08Z</time></trkpt><trkpt lat="69.147665" lon="26.30256"><ele>326.0</ele><time>2025-07-06T14:12:01Z</time></trkpt></trkseg></trk></gpx>