<?xml version="1.0" encoding="UTF-8" standalone="no"?><gpx xmlns="http://www.topografix.com/GPX/1/1" xmlns:gpxtpx="http://www.garmin.com/xmlschemas/TrackPointExtension/v1" xmlns:xsi="http://www.w3.org/2001/XMLSchema-instance" creator="Suunto app" version="1.1" xsi:schemaLocation="http://www.topografix.com/GPX/1/1 http://www.topografix.com/GPX/1/1/gpx.xsd http://www.garmin.com/xmlschemas/TrackPointExtension/v1 http://www.garmin.com/xmlschemas/TrackPointExtensionv1.xsd"><metadata><name>suuntoapp-Trekking-2025-07-05T06-55-33Z</name><desc/><author><name>Jouni L</name></author></metadata><trk><name>suuntoapp-Trekking-2025-07-05T06-55-33Z</name><trkseg><trkpt lat="69.29847" lon="26.10287"><ele>408.0</ele><time>2025-07-05T06:55:33Z</time></trkpt><trkpt lat="69.298457" lon="26.102835"><ele>408.0</ele><time>2025-07-05T06:55:39Z</time></trkpt><trkpt lat="69.298445" lon="26.10279"><ele>408.0</ele><time>2025-07-05T06:55:42Z</time></trkpt><trkpt lat="69.298432" lon="26.102738"><ele>408.0</ele><time>2025-07-05T06:55:53Z</time></trkpt><trkpt lat="69.298415" lon="26.102687"><ele>408.0</ele><time>2025-07-05T06:55:55Z</time></trkpt><trkpt lat="69.298392" lon="26.102653"><ele>408.0</ele><time>2025-07-05T06:55:58Z</time></trkpt><trkpt lat="69.29837" lon="26.102628"><ele>408.0</ele><time>2025-07-05T06:56:02Z</time></trkpt><trkpt lat="69.298347" lon="26.1026"><ele>408.0</ele><time>2025-07-05T06:56:05Z</time></trkpt><trkpt lat="69.298323" lon="26.102582"><ele>408.0</ele><time>2025-07-05T06:56:08Z</time></trkpt><trkpt lat="69.2983" lon="26.10258"><ele>408.0</ele><time>2025-07-05T06:56:11Z</time></trkpt><trkpt lat="69.29828" lon="26.102577"><ele>407.0</ele><time>2025-07-05T06:56:13Z</time></trkpt><trkpt lat="69.29826" lon="26.102582"><ele>407.0</ele><time>2025-07-05T06:56:15Z</time></trkpt><trkpt lat="69.29824" lon="26.102598"><ele>407.0</ele><time>2025-07-05T06:56:17Z</time></trkpt><trkpt lat="69.29822" lon="26.102597"><ele>407.0</ele><time>2025-07-05T06:56:19Z</time></trkpt><trkpt lat="69.298202" lon="26.102603"><ele>407.0</ele><time>2025-07-05T06:56:21Z</time></trkpt><trkpt lat="69.298177" lon="26.102607"><ele>407.0</ele><time>2025-07-05T06:56:24Z</time></trkpt><trkpt lat="69.298158" lon="26.10262"><ele>407.0</ele><time>2025-07-05T06:56:27Z</time></trkpt><trkpt lat="69.298133" lon="26.102642"><ele>407.0</ele><time>2025-07-05T06:56:30Z</time></trkpt><trkpt lat="69.298115" lon="26.102653"><ele>408.0</ele><time>2025-07-05T06:56:32Z</time></trkpt><trkpt lat="69.29809" lon="26.102648"><ele>408.0</ele><time>2025-07-05T06:56:35Z</time></trkpt><trkpt lat="69.298067" lon="26.102663"><ele>408.0</ele><time>2025-07-05T06:56:38Z</time></trkpt><trkpt lat="69.298042" lon="26.102663"><ele>408.0</ele><time>2025-07-05T06:56:41Z</time></trkpt><trkpt lat="69.298015" lon="26.102672"><ele>409.0</ele><time>2025-07-05T06:56:44Z</time></trkpt><trkpt lat="69.297997" lon="26.102668"><ele>409.0</ele><time>2025-07-05T06:56:46Z</time></trkpt><trkpt lat="69.297972" lon="26.102668"><ele>409.0</ele><time>2025-07-05T06:56:49Z</time></trkpt><trkpt lat="69.297953" lon="26.102652"><ele>409.0</ele><time>2025-07-05T06:56:51Z</time></trkpt><trkpt lat="69.297928" lon="26.102637"><ele>409.0</ele><time>2025-07-05T06:56:54Z</time></trkpt><trkpt lat="69.297903" lon="26.102618"><ele>409.0</ele><time>2025-07-05T06:56:57Z</time></trkpt><trkpt lat="69.29788" lon="26.102605"><ele>409.0</ele><time>2025-07-05T06:57:00Z</time></trkpt><trkpt lat="69.297857" lon="26.102567"><ele>409.0</ele><time>2025-07-05T06:57:03Z</time></trkpt><trkpt lat="69.297835" lon="26.102535"><ele>409.0</ele><time>2025-07-05T06:57:06Z</time></trkpt><trkpt lat="69.297812" lon="26.102508"><ele>409.0</ele><time>2025-07-05T06:57:09Z</time></trkpt><trkpt lat="69.297787" lon="26.1025"><ele>410.0</ele><time>2025-07-05T06:57:12Z</time></trkpt><trkpt lat="69.297763" lon="26.102482"><ele>410.0</ele><time>2025-07-05T06:57:15Z</time></trkpt><trkpt lat="69.297737" lon="26.102485"><ele>410.0</ele><time>2025-07-05T06:57:18Z</time></trkpt><trkpt lat="69.297713" lon="26.102448"><ele>410.0</ele><time>2025-07-05T06:57:21Z</time></trkpt><trkpt lat="69.297697" lon="26.102428"><ele>410.0</ele><time>2025-07-05T06:57:23Z</time></trkpt><trkpt lat="69.297678" lon="26.102417"><ele>410.0</ele><time>2025-07-05T06:57:25Z</time></trkpt><trkpt lat="69.297655" lon="26.102415"><ele>410.0</ele><time>2025-07-05T06:57:28Z</time></trkpt><trkpt lat="69.297632" lon="26.102398"><ele>410.0</ele><time>2025-07-05T06:57:31Z</time></trkpt><trkpt lat="69.297613" lon="26.102378"><ele>411.0</ele><time>2025-07-05T06:57:33Z</time></trkpt><trkpt lat="69.297597" lon="26.102357"><ele>411.0</ele><time>2025-07-05T06:57:35Z</time></trkpt><trkpt lat="69.297577" lon="26.102338"><ele>411.0</ele><time>2025-07-05T06:57:38Z</time></trkpt><trkpt lat="69.297557" lon="26.102312"><ele>411.0</ele><time>2025-07-05T06:57:41Z</time></trkpt><trkpt lat="69.297538" lon="26.102303"><ele>411.0</ele><time>2025-07-05T06:57:43Z</time></trkpt><trkpt lat="69.297518" lon="26.102272"><ele>411.0</ele><time>2025-07-05T06:57:46Z</time></trkpt><trkpt lat="69.297503" lon="26.10221"><ele>411.0</ele><time>2025-07-05T06:57:50Z</time></trkpt><trkpt lat="69.297488" lon="26.102158"><ele>412.0</ele><time>2025-07-05T06:57:53Z</time></trkpt><trkpt lat="69.297477" lon="26.102113"><ele>412.0</ele><time>2025-07-05T06:57:55Z</time></trkpt><trkpt lat="69.297453" lon="26.10208"><ele>412.0</ele><time>2025-07-05T06:57:58Z</time></trkpt><trkpt lat="69.297437" lon="26.102052"><ele>412.0</ele><time>2025-07-05T06:58:00Z</time></trkpt><trkpt lat="69.297417" lon="26.102007"><ele>412.0</ele><time>2025-07-05T06:58:03Z</time></trkpt><trkpt lat="69.297393" lon="26.101965"><ele>412.0</ele><time>2025-07-05T06:58:06Z</time></trkpt><trkpt lat="69.297373" lon="26.101923"><ele>412.0</ele><time>2025-07-05T06:58:09Z</time></trkpt><trkpt lat="69.297352" lon="26.1019"><ele>413.0</ele><time>2025-07-05T06:58:12Z</time></trkpt><trkpt lat="69.297093" lon="26.10156"><ele>416.0</ele><time>2025-07-05T06:59:06Z</time></trkpt><trkpt lat="69.296563" lon="26.100557"><ele>417.0</ele><time>2025-07-05T07:00:07Z</time></trkpt><trkpt lat="69.296202" lon="26.099618"><ele>416.0</ele><time>2025-07-05T07:01:06Z</time></trkpt><trkpt lat="69.295908" lon="26.098505"><ele>417.0</ele><time>2025-07-05T07:02:06Z</time></trkpt><trkpt lat="69.295588" lon="26.097268"><ele>420.0</ele><time>2025-07-05T07:03:06Z</time></trkpt><trkpt lat="69.295117" lon="26.096778"><ele>421.0</ele><time>2025-07-05T07:04:06Z</time></trkpt><trkpt lat="69.294852" lon="26.096145"><ele>424.0</ele><time>2025-07-05T07:05:06Z</time></trkpt><trkpt lat="69.294502" lon="26.095852"><ele>423.0</ele><time>2025-07-05T07:06:06Z</time></trkpt><trkpt lat="69.29422" lon="26.095967"><ele>425.0</ele><time>2025-07-05T07:07:06Z</time></trkpt><trkpt lat="69.293817" lon="26.095247"><ele>426.0</ele><time>2025-07-05T07:08:06Z</time></trkpt><trkpt lat="69.29351" lon="26.095785"><ele>426.0</ele><time>2025-07-05T07:09:07Z</time></trkpt><trkpt lat="69.293087" lon="26.095778"><ele>428.0</ele><time>2025-07-05T07:10:06Z</time></trkpt><trkpt lat="69.292718" lon="26.096507"><ele>433.0</ele><time>2025-07-05T07:11:06Z</time></trkpt><trkpt lat="69.292463" lon="26.097143"><ele>434.0</ele><time>2025-07-05T07:12:07Z</time></trkpt><trkpt lat="69.292022" lon="26.096747"><ele>434.0</ele><time>2025-07-05T07:13:06Z</time></trkpt><trkpt lat="69.291615" lon="26.097168"><ele>437.0</ele><time>2025-07-05T07:14:06Z</time></trkpt><trkpt lat="69.291297" lon="26.09751"><ele>440.0</ele><time>2025-07-05T07:16:07Z</time></trkpt><trkpt lat="69.290808" lon="26.098092"><ele>444.0</ele><time>2025-07-05T07:17:07Z</time></trkpt><trkpt lat="69.290483" lon="26.098815"><ele>444.0</ele><time>2025-07-05T07:18:06Z</time></trkpt><trkpt lat="69.289893" lon="26.099288"><ele>444.0</ele><time>2025-07-05T07:19:06Z</time></trkpt><trkpt lat="69.289558" lon="26.099973"><ele>443.0</ele><time>2025-07-05T07:20:06Z</time></trkpt><trkpt lat="69.289023" lon="26.099968"><ele>443.0</ele><time>2025-07-05T07:21:06Z</time></trkpt><trkpt lat="69.288593" lon="26.099893"><ele>443.0</ele><time>2025-07-05T07:22:06Z</time></trkpt><trkpt lat="69.288085" lon="26.100058"><ele>442.0</ele><time>2025-07-05T07:23:07Z</time></trkpt><trkpt lat="69.28751" lon="26.099783"><ele>441.0</ele><time>2025-07-05T07:25:06Z</time></trkpt><trkpt lat="69.287113" lon="26.09879"><ele>443.0</ele><time>2025-07-05T07:26:06Z</time></trkpt><trkpt lat="69.28657" lon="26.09822"><ele>444.0</ele><time>2025-07-05T07:27:06Z</time></trkpt><trkpt lat="69.286203" lon="26.097815"><ele>444.0</ele><time>2025-07-05T07:28:07Z</time></trkpt><trkpt lat="69.285742" lon="26.096662"><ele>443.0</ele><time>2025-07-05T07:29:07Z</time></trkpt><trkpt lat="69.285222" lon="26.095755"><ele>445.0</ele><time>2025-07-05T07:30:06Z</time></trkpt><trkpt lat="69.284688" lon="26.095352"><ele>446.0</ele><time>2025-07-05T07:32:06Z</time></trkpt><trkpt lat="69.284252" lon="26.094428"><ele>446.0</ele><time>2025-07-05T07:33:06Z</time></trkpt><trkpt lat="69.283902" lon="26.093667"><ele>449.0</ele><time>2025-07-05T07:34:07Z</time></trkpt><trkpt lat="69.28357" lon="26.093102"><ele>452.0</ele><time>2025-07-05T07:35:06Z</time></trkpt><trkpt lat="69.283168" lon="26.092092"><ele>453.0</ele><time>2025-07-05T07:36:07Z</time></trkpt><trkpt lat="69.283053" lon="26.090925"><ele>455.0</ele><time>2025-07-05T07:37:06Z</time></trkpt><trkpt lat="69.282867" lon="26.08954"><ele>458.0</ele><time>2025-07-05T07:38:06Z</time></trkpt><trkpt lat="69.282752" lon="26.088272"><ele>460.0</ele><time>2025-07-05T07:39:06Z</time></trkpt><trkpt lat="69.282828" lon="26.087287"><ele>461.0</ele><time>2025-07-05T07:40:06Z</time></trkpt><trkpt lat="69.2829" lon="26.086522"><ele>461.0</ele><time>2025-07-05T07:41:07Z</time></trkpt><trkpt lat="69.283117" lon="26.08541"><ele>461.0</ele><time>2025-07-05T07:42:06Z</time></trkpt><trkpt lat="69.283288" lon="26.08409"><ele>460.0</ele><time>2025-07-05T07:43:07Z</time></trkpt><trkpt lat="69.283718" lon="26.082987"><ele>459.0</ele><time>2025-07-05T07:45:06Z</time></trkpt><trkpt lat="69.283768" lon="26.081748"><ele>458.0</ele><time>2025-07-05T07:46:07Z</time></trkpt><trkpt lat="69.283705" lon="26.08026"><ele>458.0</ele><time>2025-07-05T07:48:07Z</time></trkpt><trkpt lat="69.283798" lon="26.07874"><ele>457.0</ele><time>2025-07-05T07:49:06Z</time></trkpt><trkpt lat="69.283745" lon="26.077442"><ele>455.0</ele><time>2025-07-05T07:50:06Z</time></trkpt><trkpt lat="69.283522" lon="26.076478"><ele>454.0</ele><time>2025-07-05T07:51:07Z</time></trkpt><trkpt lat="69.283565" lon="26.074988"><ele>452.0</ele><time>2025-07-05T07:52:06Z</time></trkpt><trkpt lat="69.283428" lon="26.073822"><ele>450.0</ele><time>2025-07-05T07:53:07Z</time></trkpt><trkpt lat="69.283245" lon="26.072873"><ele>446.0</ele><time>2025-07-05T07:54:06Z</time></trkpt><trkpt lat="69.282967" lon="26.072033"><ele>446.0</ele><time>2025-07-05T07:56:06Z</time></trkpt><trkpt lat="69.282752" lon="26.071408"><ele>443.0</ele><time>2025-07-05T07:57:06Z</time></trkpt><trkpt lat="69.282362" lon="26.072067"><ele>443.0</ele><time>2025-07-05T07:58:07Z</time></trkpt><trkpt lat="69.281923" lon="26.072835"><ele>446.0</ele><time>2025-07-05T07:59:06Z</time></trkpt><trkpt lat="69.281923" lon="26.072835"><ele>448.0</ele><time>2025-07-05T07:59:36Z</time></trkpt><trkpt lat="69.281708" lon="26.072732"><ele>446.0</ele><time>2025-07-05T08:13:24Z</time></trkpt><trkpt lat="69.281045" lon="26.073872"><ele>442.0</ele><time>2025-07-05T08:15:07Z</time></trkpt><trkpt lat="69.280695" lon="26.0745"><ele>439.0</ele><time>2025-07-05T08:16:06Z</time></trkpt><trkpt lat="69.279972" lon="26.075025"><ele>438.0</ele><time>2025-07-05T08:17:07Z</time></trkpt><trkpt lat="69.27951" lon="26.075538"><ele>435.0</ele><time>2025-07-05T08:18:06Z</time></trkpt><trkpt lat="69.278855" lon="26.076255"><ele>433.0</ele><time>2025-07-05T08:19:07Z</time></trkpt><trkpt lat="69.278432" lon="26.077008"><ele>428.0</ele><time>2025-07-05T08:20:06Z</time></trkpt><trkpt lat="69.277862" lon="26.077567"><ele>424.0</ele><time>2025-07-05T08:21:06Z</time></trkpt><trkpt lat="69.277413" lon="26.078158"><ele>420.0</ele><time>2025-07-05T08:22:06Z</time></trkpt><trkpt lat="69.277037" lon="26.078882"><ele>416.0</ele><time>2025-07-05T08:23:06Z</time></trkpt><trkpt lat="69.276565" lon="26.079238"><ele>415.0</ele><time>2025-07-05T08:24:07Z</time></trkpt><trkpt lat="69.276822" lon="26.079735"><ele>415.0</ele><time>2025-07-05T08:27:06Z</time></trkpt><trkpt lat="69.276672" lon="26.08107"><ele>415.0</ele><time>2025-07-05T08:28:06Z</time></trkpt><trkpt lat="69.276382" lon="26.081827"><ele>413.0</ele><time>2025-07-05T08:29:06Z</time></trkpt><trkpt lat="69.27568" lon="26.082265"><ele>409.0</ele><time>2025-07-05T08:31:07Z</time></trkpt><trkpt lat="69.275118" lon="26.082283"><ele>405.0</ele><time>2025-07-05T08:32:07Z</time></trkpt><trkpt lat="69.274702" lon="26.082433"><ele>403.0</ele><time>2025-07-05T08:33:06Z</time></trkpt><trkpt lat="69.27417" lon="26.082293"><ele>399.0</ele><time>2025-07-05T08:34:06Z</time></trkpt><trkpt lat="69.27371" lon="26.082563"><ele>397.0</ele><time>2025-07-05T08:35:06Z</time></trkpt><trkpt lat="69.273317" lon="26.08282"><ele>394.0</ele><time>2025-07-05T08:36:07Z</time></trkpt><trkpt lat="69.27289" lon="26.082952"><ele>391.0</ele><time>2025-07-05T08:37:07Z</time></trkpt><trkpt lat="69.27254" lon="26.083332"><ele>392.0</ele><time>2025-07-05T08:39:07Z</time></trkpt><trkpt lat="69.272002" lon="26.08403"><ele>390.0</ele><time>2025-07-05T08:40:06Z</time></trkpt><trkpt lat="69.271538" lon="26.084242"><ele>386.0</ele><time>2025-07-05T08:41:06Z</time></trkpt><trkpt lat="69.27109" lon="26.084518"><ele>383.0</ele><time>2025-07-05T08:42:06Z</time></trkpt><trkpt lat="69.270677" lon="26.085037"><ele>380.0</ele><time>2025-07-05T08:44:07Z</time></trkpt><trkpt lat="69.270277" lon="26.085227"><ele>380.0</ele><time>2025-07-05T08:45:06Z</time></trkpt><trkpt lat="69.270032" lon="26.08565"><ele>379.0</ele><time>2025-07-05T08:46:06Z</time></trkpt><trkpt lat="69.269737" lon="26.086755"><ele>383.0</ele><time>2025-07-05T08:48:06Z</time></trkpt><trkpt lat="69.26943" lon="26.086913"><ele>390.0</ele><time>2025-07-05T08:49:07Z</time></trkpt><trkpt lat="69.268925" lon="26.08813"><ele>402.0</ele><time>2025-07-05T08:51:07Z</time></trkpt><trkpt lat="69.268492" lon="26.088928"><ele>409.0</ele><time>2025-07-05T08:53:06Z</time></trkpt><trkpt lat="69.26808" lon="26.08928"><ele>414.0</ele><time>2025-07-05T08:54:07Z</time></trkpt><trkpt lat="69.267673" lon="26.090177"><ele>418.0</ele><time>2025-07-05T08:55:06Z</time></trkpt><trkpt lat="69.267267" lon="26.090573"><ele>422.0</ele><time>2025-07-05T08:56:07Z</time></trkpt><trkpt lat="69.266937" lon="26.091045"><ele>423.0</ele><time>2025-07-05T08:57:06Z</time></trkpt><trkpt lat="69.266603" lon="26.091502"><ele>427.0</ele><time>2025-07-05T08:58:06Z</time></trkpt><trkpt lat="69.266285" lon="26.09192"><ele>433.0</ele><time>2025-07-05T08:59:07Z</time></trkpt><trkpt lat="69.265808" lon="26.092467"><ele>437.0</ele><time>2025-07-05T09:01:07Z</time></trkpt><trkpt lat="69.265445" lon="26.092615"><ele>443.0</ele><time>2025-07-05T09:02:06Z</time></trkpt><trkpt lat="69.264933" lon="26.092952"><ele>446.0</ele><time>2025-07-05T09:03:06Z</time></trkpt><trkpt lat="69.264493" lon="26.093372"><ele>450.0</ele><time>2025-07-05T09:04:06Z</time></trkpt><trkpt lat="69.264117" lon="26.093655"><ele>452.0</ele><time>2025-07-05T09:05:06Z</time></trkpt><trkpt lat="69.263648" lon="26.094168"><ele>457.0</ele><time>2025-07-05T09:06:06Z</time></trkpt><trkpt lat="69.263295" lon="26.094677"><ele>460.0</ele><time>2025-07-05T09:07:06Z</time></trkpt><trkpt lat="69.262992" lon="26.095553"><ele>463.0</ele><time>2025-07-05T09:08:07Z</time></trkpt><trkpt lat="69.262992" lon="26.095553"><ele>465.0</ele><time>2025-07-05T09:08:47Z</time></trkpt><trkpt lat="69.262862" lon="26.096377"><ele>468.0</ele><time>2025-07-05T09:29:00Z</time></trkpt><trkpt lat="69.262848" lon="26.09616"><ele>468.0</ele><time>2025-07-05T09:29:07Z</time></trkpt><trkpt lat="69.262535" lon="26.097393"><ele>468.0</ele><time>2025-07-05T09:30:07Z</time></trkpt><trkpt lat="69.262285" lon="26.098798"><ele>469.0</ele><time>2025-07-05T09:31:06Z</time></trkpt><trkpt lat="69.262012" lon="26.099892"><ele>466.0</ele><time>2025-07-05T09:32:06Z</time></trkpt><trkpt lat="69.261695" lon="26.101093"><ele>465.0</ele><time>2025-07-05T09:33:07Z</time></trkpt><trkpt lat="69.26162" lon="26.102255"><ele>459.0</ele><time>2025-07-05T09:34:07Z</time></trkpt><trkpt lat="69.261513" lon="26.103362"><ele>459.0</ele><time>2025-07-05T09:35:07Z</time></trkpt><trkpt lat="69.261365" lon="26.104948"><ele>455.0</ele><time>2025-07-05T09:36:08Z</time></trkpt><trkpt lat="69.261155" lon="26.106343"><ele>451.0</ele><time>2025-07-05T09:37:06Z</time></trkpt><trkpt lat="69.261067" lon="26.10761"><ele>446.0</ele><time>2025-07-05T09:38:06Z</time></trkpt><trkpt lat="69.260863" lon="26.108517"><ele>441.0</ele><time>2025-07-05T09:39:06Z</time></trkpt><trkpt lat="69.260555" lon="26.109203"><ele>434.0</ele><time>2025-07-05T09:40:07Z</time></trkpt><trkpt lat="69.26046" lon="26.110112"><ele>425.0</ele><time>2025-07-05T09:41:07Z</time></trkpt><trkpt lat="69.260332" lon="26.11121"><ele>417.0</ele><time>2025-07-05T09:42:06Z</time></trkpt><trkpt lat="69.259835" lon="26.112268"><ele>413.0</ele><time>2025-07-05T09:44:06Z</time></trkpt><trkpt lat="69.259463" lon="26.112768"><ele>410.0</ele><time>2025-07-05T09:45:06Z</time></trkpt><trkpt lat="69.25905" lon="26.113653"><ele>410.0</ele><time>2025-07-05T09:46:07Z</time></trkpt><trkpt lat="69.258725" lon="26.114792"><ele>408.0</ele><time>2025-07-05T09:48:07Z</time></trkpt><trkpt lat="69.258538" lon="26.115957"><ele>404.0</ele><time>2025-07-05T09:49:06Z</time></trkpt><trkpt lat="69.25827" lon="26.116903"><ele>404.0</ele><time>2025-07-05T09:50:06Z</time></trkpt><trkpt lat="69.258037" lon="26.118095"><ele>405.0</ele><time>2025-07-05T09:51:06Z</time></trkpt><trkpt lat="69.257777" lon="26.119482"><ele>404.0</ele><time>2025-07-05T09:52:06Z</time></trkpt><trkpt lat="69.25766" lon="26.120353"><ele>404.0</ele><time>2025-07-05T09:53:06Z</time></trkpt><trkpt lat="69.257313" lon="26.121665"><ele>402.0</ele><time>2025-07-05T09:54:06Z</time></trkpt><trkpt lat="69.257053" lon="26.122545"><ele>402.0</ele><time>2025-07-05T09:55:06Z</time></trkpt><trkpt lat="69.256938" lon="26.123853"><ele>400.0</ele><time>2025-07-05T09:56:07Z</time></trkpt><trkpt lat="69.256938" lon="26.123853"><ele>400.0</ele><time>2025-07-05T09:56:45Z</time></trkpt><trkpt lat="69.256772" lon="26.124327"><ele>399.0</ele><time>2025-07-05T10:04:24Z</time></trkpt><trkpt lat="69.256663" lon="26.124717"><ele>399.0</ele><time>2025-07-05T10:05:07Z</time></trkpt><trkpt lat="69.256602" lon="26.126102"><ele>400.0</ele><time>2025-07-05T10:06:07Z</time></trkpt><trkpt lat="69.256365" lon="26.127515"><ele>400.0</ele><time>2025-07-05T10:07:06Z</time></trkpt><trkpt lat="69.25624" lon="26.129028"><ele>401.0</ele><time>2025-07-05T10:08:07Z</time></trkpt><trkpt lat="69.256043" lon="26.130365"><ele>401.0</ele><time>2025-07-05T10:09:07Z</time></trkpt><trkpt lat="69.255785" lon="26.131988"><ele>401.0</ele><time>2025-07-05T10:11:07Z</time></trkpt><trkpt lat="69.255475" lon="26.133437"><ele>399.0</ele><time>2025-07-05T10:12:07Z</time></trkpt><trkpt lat="69.25519" lon="26.134742"><ele>398.0</ele><time>2025-07-05T10:13:06Z</time></trkpt><trkpt lat="69.254445" lon="26.136847"><ele>396.0</ele><time>2025-07-05T10:14:54Z</time></trkpt><trkpt lat="69.254275" lon="26.137878"><ele>396.0</ele><time>2025-07-05T10:15:37Z</time></trkpt><trkpt lat="69.25397" lon="26.138792"><ele>396.0</ele><time>2025-07-05T10:16:38Z</time></trkpt><trkpt lat="69.253755" lon="26.139718"><ele>395.0</ele><time>2025-07-05T10:17:36Z</time></trkpt><trkpt lat="69.253487" lon="26.140525"><ele>394.0</ele><time>2025-07-05T10:18:38Z</time></trkpt><trkpt lat="69.253243" lon="26.141542"><ele>390.0</ele><time>2025-07-05T10:19:37Z</time></trkpt><trkpt lat="69.252953" lon="26.142568"><ele>394.0</ele><time>2025-07-05T10:21:37Z</time></trkpt><trkpt lat="69.252563" lon="26.143108"><ele>397.0</ele><time>2025-07-05T10:22:37Z</time></trkpt><trkpt lat="69.252238" lon="26.143832"><ele>399.0</ele><time>2025-07-05T10:23:38Z</time></trkpt><trkpt lat="69.251927" lon="26.14446"><ele>402.0</ele><time>2025-07-05T10:24:36Z</time></trkpt><trkpt lat="69.251672" lon="26.144957"><ele>404.0</ele><time>2025-07-05T10:25:38Z</time></trkpt><trkpt lat="69.251317" lon="26.14565"><ele>405.0</ele><time>2025-07-05T10:26:38Z</time></trkpt><trkpt lat="69.251008" lon="26.145762"><ele>408.0</ele><time>2025-07-05T10:27:37Z</time></trkpt><trkpt lat="69.250758" lon="26.146162"><ele>408.0</ele><time>2025-07-05T10:28:37Z</time></trkpt><trkpt lat="69.250375" lon="26.146573"><ele>413.0</ele><time>2025-07-05T10:29:37Z</time></trkpt><trkpt lat="69.249975" lon="26.146827"><ele>417.0</ele><time>2025-07-05T10:31:38Z</time></trkpt><trkpt lat="69.249405" lon="26.14729"><ele>420.0</ele><time>2025-07-05T10:32:39Z</time></trkpt><trkpt lat="69.248822" lon="26.14709"><ele>421.0</ele><time>2025-07-05T10:33:38Z</time></trkpt><trkpt lat="69.248822" lon="26.14709"><ele>422.0</ele><time>2025-07-05T10:33:59Z</time></trkpt><trkpt lat="69.247392" lon="26.14673"><ele>426.0</ele><time>2025-07-05T11:44:48Z</time></trkpt><trkpt lat="69.246567" lon="26.146738"><ele>424.0</ele><time>2025-07-05T11:46:36Z</time></trkpt><trkpt lat="69.246047" lon="26.147052"><ele>424.0</ele><time>2025-07-05T11:47:37Z</time></trkpt><trkpt lat="69.245435" lon="26.14713"><ele>422.0</ele><time>2025-07-05T11:48:37Z</time></trkpt><trkpt lat="69.245042" lon="26.147708"><ele>421.0</ele><time>2025-07-05T11:49:37Z</time></trkpt><trkpt lat="69.244657" lon="26.148663"><ele>421.0</ele><time>2025-07-05T11:50:37Z</time></trkpt><trkpt lat="69.244217" lon="26.149727"><ele>421.0</ele><time>2025-07-05T11:51:37Z</time></trkpt><trkpt lat="69.243888" lon="26.150845"><ele>420.0</ele><time>2025-07-05T11:52:37Z</time></trkpt><trkpt lat="69.243577" lon="26.152023"><ele>420.0</ele><time>2025-07-05T11:53:37Z</time></trkpt><trkpt lat="69.243305" lon="26.153397"><ele>421.0</ele><time>2025-07-05T11:54:37Z</time></trkpt><trkpt lat="69.243043" lon="26.154683"><ele>420.0</ele><time>2025-07-05T11:55:37Z</time></trkpt><trkpt lat="69.24301" lon="26.155805"><ele>421.0</ele><time>2025-07-05T11:56:37Z</time></trkpt><trkpt lat="69.242787" lon="26.156853"><ele>421.0</ele><time>2025-07-05T11:57:36Z</time></trkpt><trkpt lat="69.242833" lon="26.15842"><ele>422.0</ele><time>2025-07-05T11:58:37Z</time></trkpt><trkpt lat="69.24268" lon="26.159898"><ele>419.0</ele><time>2025-07-05T11:59:36Z</time></trkpt><trkpt lat="69.242705" lon="26.161347"><ele>416.0</ele><time>2025-07-05T12:00:38Z</time></trkpt><trkpt lat="69.242685" lon="26.162797"><ele>416.0</ele><time>2025-07-05T12:01:36Z</time></trkpt><trkpt lat="69.242555" lon="26.164272"><ele>415.0</ele><time>2025-07-05T12:02:37Z</time></trkpt><trkpt lat="69.242557" lon="26.165592"><ele>414.0</ele><time>2025-07-05T12:03:37Z</time></trkpt><trkpt lat="69.24249" lon="26.16729"><ele>412.0</ele><time>2025-07-05T12:04:37Z</time></trkpt><trkpt lat="69.242382" lon="26.168787"><ele>411.0</ele><time>2025-07-05T12:05:36Z</time></trkpt><trkpt lat="69.242282" lon="26.170545"><ele>408.0</ele><time>2025-07-05T12:06:37Z</time></trkpt><trkpt lat="69.242287" lon="26.171818"><ele>408.0</ele><time>2025-07-05T12:07:37Z</time></trkpt><trkpt lat="69.242282" lon="26.173435"><ele>406.0</ele><time>2025-07-05T12:08:37Z</time></trkpt><trkpt lat="69.242257" lon="26.17532"><ele>403.0</ele><time>2025-07-05T12:09:37Z</time></trkpt><trkpt lat="69.242375" lon="26.176662"><ele>401.0</ele><time>2025-07-05T12:10:37Z</time></trkpt><trkpt lat="69.242355" lon="26.178357"><ele>398.0</ele><time>2025-07-05T12:11:37Z</time></trkpt><trkpt lat="69.242448" lon="26.179828"><ele>394.0</ele><time>2025-07-05T12:12:37Z</time></trkpt><trkpt lat="69.242527" lon="26.18166"><ele>393.0</ele><time>2025-07-05T12:13:36Z</time></trkpt><trkpt lat="69.242478" lon="26.183055"><ele>391.0</ele><time>2025-07-05T12:14:37Z</time></trkpt><trkpt lat="69.242492" lon="26.183942"><ele>388.0</ele><time>2025-07-05T12:15:37Z</time></trkpt><trkpt lat="69.242498" lon="26.185313"><ele>386.0</ele><time>2025-07-05T12:16:38Z</time></trkpt><trkpt lat="69.242745" lon="26.186677"><ele>382.0</ele><time>2025-07-05T12:17:37Z</time></trkpt><trkpt lat="69.242892" lon="26.187848"><ele>376.0</ele><time>2025-07-05T12:19:36Z</time></trkpt><trkpt lat="69.242507" lon="26.188307"><ele>379.0</ele><time>2025-07-05T12:22:37Z</time></trkpt><trkpt lat="69.242215" lon="26.18839"><ele>377.0</ele><time>2025-07-05T12:23:37Z</time></trkpt><trkpt lat="69.241833" lon="26.18808"><ele>374.0</ele><time>2025-07-05T12:24:36Z</time></trkpt><trkpt lat="69.241517" lon="26.187457"><ele>362.0</ele><time>2025-07-05T12:26:37Z</time></trkpt><trkpt lat="69.24114" lon="26.187257"><ele>357.0</ele><time>2025-07-05T12:28:36Z</time></trkpt><trkpt lat="69.240735" lon="26.186488"><ele>349.0</ele><time>2025-07-05T12:31:37Z</time></trkpt><trkpt lat="69.240502" lon="26.185675"><ele>348.0</ele><time>2025-07-05T12:33:37Z</time></trkpt><trkpt lat="69.240155" lon="26.185468"><ele>344.0</ele><time>2025-07-05T12:34:37Z</time></trkpt><trkpt lat="69.239547" lon="26.18481"><ele>337.0</ele><time>2025-07-05T12:36:37Z</time></trkpt><trkpt lat="69.239235" lon="26.184167"><ele>334.0</ele><time>2025-07-05T12:37:36Z</time></trkpt><trkpt lat="69.238933" lon="26.183878"><ele>330.0</ele><time>2025-07-05T12:39:38Z</time></trkpt><trkpt lat="69.238635" lon="26.183525"><ele>327.0</ele><time>2025-07-05T12:40:37Z</time></trkpt><trkpt lat="69.238508" lon="26.183693"><ele>325.0</ele><time>2025-07-05T12:45:53Z</time></trkpt><trkpt lat="69.23832" lon="26.183958"><ele>327.0</ele><time>2025-07-05T12:59:26Z</time></trkpt><trkpt lat="69.238048" lon="26.183312"><ele>330.0</ele><time>2025-07-05T13:00:37Z</time></trkpt><trkpt lat="69.237737" lon="26.183223"><ele>334.0</ele><time>2025-07-05T13:02:38Z</time></trkpt><trkpt lat="69.237455" lon="26.183535"><ele>331.0</ele><time>2025-07-05T13:06:37Z</time></trkpt><trkpt lat="69.237177" lon="26.183562"><ele>335.0</ele><time>2025-07-05T13:07:37Z</time></trkpt><trkpt lat="69.236733" lon="26.183342"><ele>338.0</ele><time>2025-07-05T13:09:37Z</time></trkpt><trkpt lat="69.236387" lon="26.183127"><ele>339.0</ele><time>2025-07-05T13:10:37Z</time></trkpt><trkpt lat="69.235728" lon="26.18286"><ele>341.0</ele><time>2025-07-05T13:11:37Z</time></trkpt><trkpt lat="69.235728" lon="26.18286"><ele>342.0</ele><time>2025-07-05T13:12:22Z</time></trkpt><trkpt lat="69.235437" lon="26.182662"><ele>346.0</ele><time>2025-07-05T13:40:16Z</time></trkpt><trkpt lat="69.234768" lon="26.182357"><ele>352.0</ele><time>2025-07-05T13:42:37Z</time></trkpt><trkpt lat="69.234393" lon="26.181907"><ele>355.0</ele><time>2025-07-05T13:43:38Z</time></trkpt><trkpt lat="69.234068" lon="26.181377"><ele>359.0</ele><time>2025-07-05T13:44:37Z</time></trkpt><trkpt lat="69.233537" lon="26.180825"><ele>366.0</ele><time>2025-07-05T13:46:38Z</time></trkpt><trkpt lat="69.232875" lon="26.180327"><ele>368.0</ele><time>2025-07-05T13:48:38Z</time></trkpt><trkpt lat="69.232588" lon="26.180143"><ele>368.0</ele><time>2025-07-05T13:49:37Z</time></trkpt><trkpt lat="69.232408" lon="26.181007"><ele>366.0</ele><time>2025-07-05T13:52:37Z</time></trkpt><trkpt lat="69.231863" lon="26.18118"><ele>369.0</ele><time>2025-07-05T13:54:36Z</time></trkpt><trkpt lat="69.231457" lon="26.181113"><ele>376.0</ele><time>2025-07-05T13:55:37Z</time></trkpt><trkpt lat="69.231212" lon="26.181443"><ele>381.0</ele><time>2025-07-05T13:56:37Z</time></trkpt><trkpt lat="69.231212" lon="26.181443"><ele>384.0</ele><time>2025-07-05T13:57:29Z</time></trkpt></trkseg></trk></gpx>