<?xml version="1.0"?>
<gpx xmlns="http://www.topografix.com/GPX/1/1" xmlns:gpxx="http://www.garmin.com/xmlschemas/GpxExtensions/v3" creator="CALTOPO" version="1.1"><metadata><name><![CDATA[Evac]]></name></metadata><trk><name>Evac</name><extensions><gpxx:TrackExtension><gpxx:DisplayColor>Red</gpxx:DisplayColor></gpxx:TrackExtension></extensions><trkseg><trkpt lat="69.15874017430588" lon="26.123685836791996"/><trkpt lat="69.15875684546371" lon="26.123657926139945"/><trkpt lat="69.15813" lon="26.1207"/><trkpt lat="69.15786" lon="26.11875"/><trkpt lat="69.1578" lon="26.11847"/><trkpt lat="69.1577" lon="26.11817"/><trkpt lat="69.15753" lon="26.11747"/><trkpt lat="69.15733" lon="26.11637"/><trkpt lat="69.15726" lon="26.1157"/><trkpt lat="69.15715" lon="26.11454"/><trkpt lat="69.15707" lon="26.11406"/><trkpt lat="69.15641246821764" lon="26.111314360530454"/><trkpt lat="69.15641408970866" lon="26.11132112607219"/><trkpt lat="69.15633" lon="26.11097"/><trkpt lat="69.15633" lon="26.11097"/><trkpt lat="69.15631" lon="26.11057"/><trkpt lat="69.15637" lon="26.11009"/><trkpt lat="69.15641" lon="26.10919"/><trkpt lat="69.15645" lon="26.10893"/><trkpt lat="69.15657" lon="26.10864"/><trkpt lat="69.15662" lon="26.10845"/><trkpt lat="69.15669" lon="26.10789"/><trkpt lat="69.15673" lon="26.10749"/><trkpt lat="69.15677" lon="26.10696"/><trkpt lat="69.15682" lon="26.10665"/><trkpt lat="69.15696" lon="26.10509"/><trkpt lat="69.157" lon="26.1044"/><trkpt lat="69.15714" lon="26.10387"/><trkpt lat="69.15718" lon="26.10352"/><trkpt lat="69.15718" lon="26.10352"/><trkpt lat="69.15729" lon="26.10259"/><trkpt lat="69.15744" lon="26.1019"/><trkpt lat="69.15758" lon="26.10099"/><trkpt lat="69.15762" lon="26.10084"/><trkpt lat="69.15771" lon="26.1007"/><trkpt lat="69.15832" lon="26.10033"/><trkpt lat="69.15863" lon="26.09997"/><trkpt lat="69.1587" lon="26.09976"/><trkpt lat="69.15874" lon="26.09958"/><trkpt lat="69.15883" lon="26.09939"/><trkpt lat="69.15916" lon="26.09919"/><trkpt lat="69.15934" lon="26.09924"/><trkpt lat="69.15950330588751" lon="26.099081642775765"/><trkpt lat="69.1595067569954" lon="26.099078296851996"/><trkpt lat="69.15967" lon="26.09892"/><trkpt lat="69.15972" lon="26.09884"/><trkpt lat="69.15976" lon="26.09867"/><trkpt lat="69.15977" lon="26.09843"/><trkpt lat="69.15969" lon="26.09748"/><trkpt lat="69.15958" lon="26.09674"/><trkpt lat="69.15959" lon="26.09559"/><trkpt lat="69.15959" lon="26.09559"/><trkpt lat="69.15959" lon="26.09559"/><trkpt lat="69.15952" lon="26.09513"/><trkpt lat="69.15939" lon="26.09451"/><trkpt lat="69.1593" lon="26.0937"/><trkpt lat="69.15932" lon="26.09342"/><trkpt lat="69.15932" lon="26.09342"/><trkpt lat="69.15932" lon="26.09342"/><trkpt lat="69.1592938305383" lon="26.092879164458495"/><trkpt lat="69.1592938305383" lon="26.092879164458495"/><trkpt lat="69.15929" lon="26.0928"/><trkpt lat="69.15934" lon="26.09249"/><trkpt lat="69.1594" lon="26.09228"/><trkpt lat="69.15949" lon="26.09207"/><trkpt lat="69.15968" lon="26.09175"/><trkpt lat="69.15968" lon="26.09175"/><trkpt lat="69.15981" lon="26.09098"/><trkpt lat="69.15985" lon="26.09041"/><trkpt lat="69.15993" lon="26.08968"/><trkpt lat="69.16002" lon="26.08921"/><trkpt lat="69.16009" lon="26.08888"/><trkpt lat="69.1602" lon="26.08854"/><trkpt lat="69.1603" lon="26.08834"/><trkpt lat="69.16081902484643" lon="26.08758222372422"/><trkpt lat="69.16082162800616" lon="26.08757843146325"/><trkpt lat="69.1613" lon="26.08688"/><trkpt lat="69.1616" lon="26.08592"/><trkpt lat="69.1621" lon="26.08351"/><trkpt lat="69.16256" lon="26.08194"/><trkpt lat="69.16256" lon="26.08194"/><trkpt lat="69.16269" lon="26.08154"/><trkpt lat="69.16269" lon="26.08154"/><trkpt lat="69.16395" lon="26.07789"/><trkpt lat="69.16441" lon="26.07646"/><trkpt lat="69.16485" lon="26.07471"/><trkpt lat="69.16562" lon="26.07088"/><trkpt lat="69.16644" lon="26.06757"/><trkpt lat="69.16669" lon="26.06638"/><trkpt lat="69.16698" lon="26.06517"/><trkpt lat="69.16769" lon="26.06146"/><trkpt lat="69.16772602495904" lon="26.06124173113053"/><trkpt lat="69.16772625345712" lon="26.06124034737483"/><trkpt lat="69.16786" lon="26.06043"/><trkpt lat="69.16789" lon="26.06"/><trkpt lat="69.16787" lon="26.05957"/><trkpt lat="69.16787" lon="26.05957"/><trkpt lat="69.16786" lon="26.05908"/><trkpt lat="69.1678" lon="26.05795"/><trkpt lat="69.16741" lon="26.05526"/><trkpt lat="69.16708" lon="26.05185"/><trkpt lat="69.16697" lon="26.05051"/><trkpt lat="69.16688" lon="26.0487"/><trkpt lat="69.16628" lon="26.03904"/><trkpt lat="69.16623" lon="26.0376"/><trkpt lat="69.16623" lon="26.0376"/><trkpt lat="69.16611" lon="26.03418"/><trkpt lat="69.16585" lon="26.02988"/><trkpt lat="69.16572" lon="26.02912"/><trkpt lat="69.16422" lon="26.02473"/><trkpt lat="69.16399" lon="26.02393"/><trkpt lat="69.16386" lon="26.02329"/><trkpt lat="69.16356" lon="26.02083"/><trkpt lat="69.16351" lon="26.01926"/><trkpt lat="69.16329" lon="26.01729"/><trkpt lat="69.16302" lon="26.01562"/><trkpt lat="69.16302" lon="26.01562"/><trkpt lat="69.16301" lon="26.01555"/><trkpt lat="69.16291" lon="26.01403"/><trkpt lat="69.16311" lon="26.00808"/><trkpt lat="69.16322" lon="26.00702"/><trkpt lat="69.16348" lon="26.00556"/><trkpt lat="69.16394" lon="26.00377"/><trkpt lat="69.16421" lon="26.00311"/><trkpt lat="69.16503" lon="26.00136"/><trkpt lat="69.16521" lon="26.00082"/><trkpt lat="69.16533" lon="26.00032"/><trkpt lat="69.1654" lon="25.99962"/><trkpt lat="69.16548170799392" lon="25.99774385875528"/><trkpt lat="69.16548174611685" lon="25.99774299106655"/><trkpt lat="69.16566" lon="25.99365"/><trkpt lat="69.16566" lon="25.99365"/><trkpt lat="69.16586" lon="25.98889"/><trkpt lat="69.16587" lon="25.98658"/><trkpt lat="69.1659" lon="25.98486"/><trkpt lat="69.16588" lon="25.98372"/><trkpt lat="69.16582" lon="25.98269"/><trkpt lat="69.16539" lon="25.97793"/><trkpt lat="69.16529" lon="25.97712"/><trkpt lat="69.16448" lon="25.97259"/><trkpt lat="69.16436" lon="25.97168"/><trkpt lat="69.16436" lon="25.97168"/><trkpt lat="69.16401" lon="25.9688"/><trkpt lat="69.16355" lon="25.96388"/><trkpt lat="69.16344" lon="25.96248"/><trkpt lat="69.16351" lon="25.96047"/><trkpt lat="69.16349" lon="25.95972"/><trkpt lat="69.16341" lon="25.95893"/><trkpt lat="69.16291" lon="25.95667"/><trkpt lat="69.16256" lon="25.95529"/><trkpt lat="69.16256" lon="25.95529"/><trkpt lat="69.16235" lon="25.95445"/><trkpt lat="69.16205" lon="25.95284"/><trkpt lat="69.16129" lon="25.94971"/><trkpt lat="69.16129" lon="25.94971"/><trkpt lat="69.1612" lon="25.94932"/><trkpt lat="69.16093" lon="25.94794"/><trkpt lat="69.16053" lon="25.94576"/><trkpt lat="69.16042" lon="25.94506"/><trkpt lat="69.16006" lon="25.93923"/><trkpt lat="69.16004" lon="25.93797"/><trkpt lat="69.16005241062771" lon="25.937439445665028"/><trkpt lat="69.16005242715495" lon="25.93743873994752"/><trkpt lat="69.16012" lon="25.93455"/><trkpt lat="69.16022" lon="25.93114"/><trkpt lat="69.16022" lon="25.92935"/><trkpt lat="69.16029" lon="25.92872"/><trkpt lat="69.16037" lon="25.92828"/><trkpt lat="69.1605" lon="25.92777"/><trkpt lat="69.16053" lon="25.92773"/><trkpt lat="69.16053" lon="25.92773"/><trkpt lat="69.16107" lon="25.92689"/><trkpt lat="69.16203" lon="25.92564"/><trkpt lat="69.16256" lon="25.92509"/><trkpt lat="69.16256" lon="25.92509"/><trkpt lat="69.1629" lon="25.92473"/><trkpt lat="69.16305" lon="25.92447"/><trkpt lat="69.16392" lon="25.92234"/><trkpt lat="69.16535" lon="25.91941"/><trkpt lat="69.1659" lon="25.9178"/><trkpt lat="69.16626" lon="25.91688"/><trkpt lat="69.16648" lon="25.91603"/><trkpt lat="69.16698" lon="25.91349"/><trkpt lat="69.16738" lon="25.91084"/><trkpt lat="69.16746" lon="25.90982"/><trkpt lat="69.16747" lon="25.90914"/><trkpt lat="69.16732" lon="25.90722"/><trkpt lat="69.16727" lon="25.9062"/><trkpt lat="69.16728" lon="25.90576"/><trkpt lat="69.16728" lon="25.90576"/><trkpt lat="69.16728" lon="25.9053"/><trkpt lat="69.16774348836077" lon="25.89715584737519"/><trkpt lat="69.16774354198215" lon="25.89715492318926"/><trkpt lat="69.16784" lon="25.89546"/><trkpt lat="69.16791" lon="25.8935"/><trkpt lat="69.16801" lon="25.89207"/><trkpt lat="69.16792" lon="25.89034"/><trkpt lat="69.16762" lon="25.88686"/><trkpt lat="69.16726" lon="25.88379"/><trkpt lat="69.16726" lon="25.88379"/><trkpt lat="69.16697" lon="25.88152"/><trkpt lat="69.16648" lon="25.87877"/><trkpt lat="69.16604" lon="25.87518"/><trkpt lat="69.1659" lon="25.87427"/><trkpt lat="69.16472" lon="25.86843"/><trkpt lat="69.16316" lon="25.86236"/><trkpt lat="69.16298" lon="25.86182"/><trkpt lat="69.16298" lon="25.86182"/><trkpt lat="69.16256" lon="25.86048"/><trkpt lat="69.16256" lon="25.86048"/><trkpt lat="69.16189" lon="25.85838"/><trkpt lat="69.16037829715188" lon="25.853851112455036"/><trkpt lat="69.16038083214495" lon="25.85385861155556"/><trkpt lat="69.15946" lon="25.8511"/><trkpt lat="69.15768" lon="25.84561"/><trkpt lat="69.1573" lon="25.84487"/><trkpt lat="69.1571" lon="25.84442"/><trkpt lat="69.15677" lon="25.84394"/><trkpt lat="69.15624" lon="25.84348"/><trkpt lat="69.1558" lon="25.84299"/><trkpt lat="69.15535" lon="25.84225"/><trkpt lat="69.15492" lon="25.8412"/><trkpt lat="69.15474" lon="25.84065"/><trkpt lat="69.15474" lon="25.84065"/><trkpt lat="69.15448" lon="25.83984"/><trkpt lat="69.15448" lon="25.83984"/><trkpt lat="69.15385" lon="25.83753"/><trkpt lat="69.15365" lon="25.83648"/><trkpt lat="69.1533" lon="25.8343"/><trkpt lat="69.15262" lon="25.83098"/><trkpt lat="69.15227" lon="25.8286"/><trkpt lat="69.15178" lon="25.82452"/><trkpt lat="69.15166" lon="25.82266"/><trkpt lat="69.15159" lon="25.82051"/><trkpt lat="69.15137" lon="25.81787"/><trkpt lat="69.15137" lon="25.81787"/><trkpt lat="69.15107" lon="25.81442"/><trkpt lat="69.15112" lon="25.81373"/><trkpt lat="69.15189" lon="25.8088"/><trkpt lat="69.15192" lon="25.80821"/><trkpt lat="69.1519" lon="25.80754"/><trkpt lat="69.15182" lon="25.80689"/><trkpt lat="69.15169" lon="25.80631"/><trkpt lat="69.15152" lon="25.80588"/><trkpt lat="69.15045" lon="25.80432"/><trkpt lat="69.15011" lon="25.80351"/><trkpt lat="69.14941" lon="25.8016"/><trkpt lat="69.14899" lon="25.8005"/><trkpt lat="69.14835" lon="25.79928"/><trkpt lat="69.14812" lon="25.79861"/><trkpt lat="69.14811316746544" lon="25.798570247071595"/><trkpt lat="69.1481168120806" lon="25.79859145205981"/><trkpt lat="69.14801" lon="25.79797"/><trkpt lat="69.14777" lon="25.7959"/><trkpt lat="69.14777" lon="25.7959"/><trkpt lat="69.14767" lon="25.79506"/><trkpt lat="69.14731" lon="25.79052"/><trkpt lat="69.14725" lon="25.79011"/><trkpt lat="69.14702" lon="25.78961"/><trkpt lat="69.14692" lon="25.78945"/><trkpt lat="69.14692" lon="25.78945"/><trkpt lat="69.14662" lon="25.789"/><trkpt lat="69.14635" lon="25.78819"/><trkpt lat="69.14624" lon="25.78737"/><trkpt lat="69.14607" lon="25.78559"/><trkpt lat="69.146" lon="25.78437"/><trkpt lat="69.14601" lon="25.78339"/><trkpt lat="69.14614" lon="25.78249"/><trkpt lat="69.14684" lon="25.77907"/><trkpt lat="69.14692" lon="25.77848"/><trkpt lat="69.14692" lon="25.77848"/><trkpt lat="69.14701" lon="25.77787"/><trkpt lat="69.14728" lon="25.77625"/><trkpt lat="69.14737" lon="25.77531"/><trkpt lat="69.14745" lon="25.77474"/><trkpt lat="69.14767" lon="25.77393"/><trkpt lat="69.14767" lon="25.77393"/><trkpt lat="69.14864" lon="25.77082"/><trkpt lat="69.14926" lon="25.76834"/><trkpt lat="69.14947" lon="25.76712"/><trkpt lat="69.1496" lon="25.76624"/><trkpt lat="69.1496" lon="25.76575"/><trkpt lat="69.14946" lon="25.76322"/><trkpt lat="69.1495" lon="25.7564"/><trkpt lat="69.14956" lon="25.75569"/><trkpt lat="69.15009" lon="25.75195"/><trkpt lat="69.15009" lon="25.75195"/><trkpt lat="69.15014" lon="25.75157"/><trkpt lat="69.15018" lon="25.75067"/><trkpt lat="69.15002" lon="25.74892"/><trkpt lat="69.1499" lon="25.74769"/><trkpt lat="69.14973" lon="25.74684"/><trkpt lat="69.14898" lon="25.74463"/><trkpt lat="69.1487432564554" lon="25.7437558699892"/><trkpt lat="69.14874403563951" lon="25.743758746496926"/><trkpt lat="69.14873677417998" lon="25.74373193543381"/><trkpt lat="69.14873754508042" lon="25.743734836578373"/></trkseg></trk></gpx>