<?xml version="1.0"?>
<gpx xmlns="http://www.topografix.com/GPX/1/1" xmlns:gpxx="http://www.garmin.com/xmlschemas/GpxExtensions/v3" creator="CALTOPO" version="1.1"><metadata><name><![CDATA[Jeageloaivi]]></name></metadata><trk><name>Jeageloaivi</name><extensions><gpxx:TrackExtension><gpxx:DisplayColor>Red</gpxx:DisplayColor></gpxx:TrackExtension></extensions><trkseg><trkpt lat="69.39113279396703" lon="26.137418746948242"/><trkpt lat="69.39114108282769" lon="26.137341808791618"/><trkpt lat="69.39084" lon="26.13708"/><trkpt lat="69.39057" lon="26.13739"/><trkpt lat="69.39019" lon="26.13844"/><trkpt lat="69.39007" lon="26.13887"/><trkpt lat="69.38987" lon="26.13984"/><trkpt lat="69.38973" lon="26.14011"/><trkpt lat="69.38939" lon="26.14021"/><trkpt lat="69.3891" lon="26.14136"/><trkpt lat="69.3887" lon="26.14166"/><trkpt lat="69.38805" lon="26.14144"/><trkpt lat="69.38805" lon="26.14144"/><trkpt lat="69.3877" lon="26.14133"/><trkpt lat="69.38698" lon="26.14079"/><trkpt lat="69.38656" lon="26.14088"/><trkpt lat="69.38641" lon="26.14072"/><trkpt lat="69.38601" lon="26.13959"/><trkpt lat="69.38548" lon="26.13881"/><trkpt lat="69.3852" lon="26.13819"/><trkpt lat="69.38488" lon="26.13772"/><trkpt lat="69.38433" lon="26.13731"/><trkpt lat="69.38375" lon="26.13729"/><trkpt lat="69.38337" lon="26.13689"/><trkpt lat="69.38305" lon="26.13667"/><trkpt lat="69.38247" lon="26.13482"/><trkpt lat="69.38222" lon="26.13449"/><trkpt lat="69.38196" lon="26.13398"/><trkpt lat="69.381" lon="26.13341"/><trkpt lat="69.38057" lon="26.13292"/><trkpt lat="69.38031" lon="26.13289"/><trkpt lat="69.38031" lon="26.13289"/><trkpt lat="69.37999" lon="26.13286"/><trkpt lat="69.37958" lon="26.13246"/><trkpt lat="69.37911" lon="26.13231"/><trkpt lat="69.37844" lon="26.13179"/><trkpt lat="69.37808" lon="26.13127"/><trkpt lat="69.37781" lon="26.13153"/><trkpt lat="69.37781" lon="26.13153"/><trkpt lat="69.37756" lon="26.1325"/><trkpt lat="69.37694" lon="26.13288"/><trkpt lat="69.37654" lon="26.13228"/><trkpt lat="69.37609" lon="26.13112"/><trkpt lat="69.37578" lon="26.13166"/><trkpt lat="69.37578" lon="26.13166"/><trkpt lat="69.37555" lon="26.13198"/><trkpt lat="69.37522" lon="26.13181"/><trkpt lat="69.37479" lon="26.13104"/><trkpt lat="69.37469" lon="26.13035"/><trkpt lat="69.37454" lon="26.13035"/><trkpt lat="69.37427" lon="26.13078"/><trkpt lat="69.37382" lon="26.13084"/><trkpt lat="69.37346" lon="26.13084"/><trkpt lat="69.37304" lon="26.13018"/><trkpt lat="69.37308" lon="26.12964"/><trkpt lat="69.37301" lon="26.12876"/><trkpt lat="69.37271" lon="26.12823"/><trkpt lat="69.37257" lon="26.12749"/><trkpt lat="69.37257" lon="26.12749"/><trkpt lat="69.37256" lon="26.12743"/><trkpt lat="69.37237" lon="26.12696"/><trkpt lat="69.37231" lon="26.12657"/><trkpt lat="69.37207" lon="26.12612"/><trkpt lat="69.37202" lon="26.12549"/><trkpt lat="69.37202" lon="26.12549"/><trkpt lat="69.37199" lon="26.12516"/><trkpt lat="69.37129" lon="26.12486"/><trkpt lat="69.37088" lon="26.12408"/><trkpt lat="69.3694" lon="26.12314"/><trkpt lat="69.36853" lon="26.12406"/><trkpt lat="69.36832" lon="26.12378"/><trkpt lat="69.36786" lon="26.12353"/><trkpt lat="69.36746" lon="26.12381"/><trkpt lat="69.36703" lon="26.1237"/><trkpt lat="69.36646" lon="26.12398"/><trkpt lat="69.36598" lon="26.12293"/><trkpt lat="69.36524" lon="26.12179"/><trkpt lat="69.36483" lon="26.12171"/><trkpt lat="69.36483" lon="26.12171"/><trkpt lat="69.36426" lon="26.1216"/><trkpt lat="69.36169" lon="26.11846"/><trkpt lat="69.36087" lon="26.11801"/><trkpt lat="69.35971" lon="26.11861"/><trkpt lat="69.35895" lon="26.11921"/><trkpt lat="69.35891" lon="26.12026"/><trkpt lat="69.35863" lon="26.12207"/><trkpt lat="69.35809" lon="26.12408"/><trkpt lat="69.35799" lon="26.12479"/><trkpt lat="69.35772" lon="26.12549"/><trkpt lat="69.35772" lon="26.12549"/><trkpt lat="69.35763" lon="26.12571"/><trkpt lat="69.35739" lon="26.12549"/><trkpt lat="69.35739" lon="26.12549"/><trkpt lat="69.3572" lon="26.12531"/><trkpt lat="69.35713" lon="26.12549"/><trkpt lat="69.35713" lon="26.12549"/><trkpt lat="69.35709" lon="26.12561"/><trkpt lat="69.35709" lon="26.12561"/><trkpt lat="69.35682" lon="26.12636"/><trkpt lat="69.35682" lon="26.12711"/><trkpt lat="69.35668" lon="26.12773"/><trkpt lat="69.35656" lon="26.12863"/><trkpt lat="69.35661" lon="26.12973"/><trkpt lat="69.35654" lon="26.13046"/><trkpt lat="69.35638" lon="26.13127"/><trkpt lat="69.35612" lon="26.13449"/><trkpt lat="69.35579" lon="26.13417"/><trkpt lat="69.35555" lon="26.13426"/><trkpt lat="69.35506" lon="26.13428"/><trkpt lat="69.35497" lon="26.13402"/><trkpt lat="69.35497" lon="26.13335"/><trkpt lat="69.35467" lon="26.13262"/><trkpt lat="69.35425" lon="26.13245"/><trkpt lat="69.35341" lon="26.13114"/><trkpt lat="69.35239" lon="26.13121"/><trkpt lat="69.352" lon="26.13159"/><trkpt lat="69.35158" lon="26.13147"/><trkpt lat="69.35099" lon="26.13213"/><trkpt lat="69.35074" lon="26.13207"/><trkpt lat="69.35061" lon="26.13222"/><trkpt lat="69.35022" lon="26.13241"/><trkpt lat="69.35002" lon="26.13226"/><trkpt lat="69.3497" lon="26.13247"/><trkpt lat="69.34959" lon="26.13224"/><trkpt lat="69.34934" lon="26.13221"/><trkpt lat="69.34934" lon="26.13221"/><trkpt lat="69.34896" lon="26.13217"/><trkpt lat="69.34834" lon="26.13258"/><trkpt lat="69.34797" lon="26.13297"/><trkpt lat="69.34746" lon="26.13061"/><trkpt lat="69.34704" lon="26.12915"/><trkpt lat="69.34657" lon="26.12872"/><trkpt lat="69.34551" lon="26.12659"/><trkpt lat="69.34489" lon="26.12644"/><trkpt lat="69.34403" lon="26.12549"/><trkpt lat="69.34403" lon="26.12549"/><trkpt lat="69.3439" lon="26.12535"/><trkpt lat="69.34373" lon="26.12447"/><trkpt lat="69.34358" lon="26.12432"/><trkpt lat="69.34318" lon="26.12258"/><trkpt lat="69.34159" lon="26.11895"/><trkpt lat="69.34159" lon="26.11895"/><trkpt lat="69.34153" lon="26.11883"/><trkpt lat="69.34129" lon="26.11681"/><trkpt lat="69.34072" lon="26.11552"/><trkpt lat="69.34034" lon="26.11419"/><trkpt lat="69.34027" lon="26.11344"/><trkpt lat="69.34009" lon="26.11297"/><trkpt lat="69.33995" lon="26.11187"/><trkpt lat="69.33907" lon="26.10924"/><trkpt lat="69.33828" lon="26.1093"/><trkpt lat="69.33704" lon="26.10825"/><trkpt lat="69.33669" lon="26.10752"/><trkpt lat="69.33573" lon="26.10634"/><trkpt lat="69.33515" lon="26.10589"/><trkpt lat="69.33474" lon="26.10604"/><trkpt lat="69.33413" lon="26.106"/><trkpt lat="69.33383" lon="26.10588"/><trkpt lat="69.33383" lon="26.10588"/><trkpt lat="69.33303" lon="26.10554"/><trkpt lat="69.33259" lon="26.10565"/><trkpt lat="69.33212" lon="26.10529"/><trkpt lat="69.33123" lon="26.10415"/><trkpt lat="69.33075" lon="26.10352"/><trkpt lat="69.33075" lon="26.10352"/><trkpt lat="69.33033" lon="26.10295"/><trkpt lat="69.3298" lon="26.10276"/><trkpt lat="69.3296" lon="26.10312"/><trkpt lat="69.32931" lon="26.10318"/><trkpt lat="69.32892" lon="26.10273"/><trkpt lat="69.3288" lon="26.10237"/><trkpt lat="69.32836" lon="26.10226"/><trkpt lat="69.32797" lon="26.10168"/><trkpt lat="69.32748" lon="26.10164"/><trkpt lat="69.32708" lon="26.10102"/><trkpt lat="69.32658" lon="26.10082"/><trkpt lat="69.32638" lon="26.10033"/><trkpt lat="69.32608" lon="26.10016"/><trkpt lat="69.32608" lon="26.10016"/><trkpt lat="69.32582" lon="26.10001"/><trkpt lat="69.32552" lon="26.10014"/><trkpt lat="69.32524339558586" lon="26.09984646062174"/><trkpt lat="69.32286832961101" lon="26.098794937133793"/><trkpt lat="69.32080735942196" lon="26.09484672546387"/><trkpt lat="69.31917056669761" lon="26.091756820678714"/><trkpt lat="69.31771553583488" lon="26.089696884155273"/><trkpt lat="69.31571470856949" lon="26.088495254516605"/><trkpt lat="69.31377433568245" lon="26.087293624877933"/><trkpt lat="69.31189443347657" lon="26.0881519317627"/><trkpt lat="69.30892264198827" lon="26.09158515930176"/><trkpt lat="69.30686034272306" lon="26.09484672546387"/><trkpt lat="69.30522249447853" lon="26.100339889526367"/><trkpt lat="69.30449452214036" lon="26.103773117065433"/><trkpt lat="69.30255314287" lon="26.103258132934574"/><trkpt lat="69.300854293174" lon="26.100339889526367"/><trkpt lat="69.29964074748054" lon="26.099481582641605"/></trkseg></trk></gpx>