<?xml version="1.0"?>
<gpx xmlns="http://www.topografix.com/GPX/1/1" xmlns:gpxx="http://www.garmin.com/xmlschemas/GpxExtensions/v3" creator="CALTOPO" version="1.1"><metadata><name><![CDATA[Kuarvikozza]]></name></metadata><trk><name>Kuarvikozza</name><extensions><gpxx:TrackExtension><gpxx:DisplayColor>Red</gpxx:DisplayColor></gpxx:TrackExtension></extensions><trkseg><trkpt lat="69.1005134838187" lon="26.41272068023682"/><trkpt lat="69.1004981746386" lon="26.412591934204105"/><trkpt lat="69.10048286544779" lon="26.41246318817139"/><trkpt lat="69.10046755624626" lon="26.412334442138675"/><trkpt lat="69.10045224703403" lon="26.41220569610596"/><trkpt lat="69.10043693781107" lon="26.412076950073246"/><trkpt lat="69.10042162857741" lon="26.41194820404053"/><trkpt lat="69.10040631933303" lon="26.411819458007816"/><trkpt lat="69.10039101007796" lon="26.4116907119751"/><trkpt lat="69.10039101007796" lon="26.411561965942386"/><trkpt lat="69.10037570081215" lon="26.411433219909668"/><trkpt lat="69.10036039153565" lon="26.411304473876957"/><trkpt lat="69.10034508224842" lon="26.41117572784424"/><trkpt lat="69.10032977295049" lon="26.411046981811527"/><trkpt lat="69.10031446364185" lon="26.41091823577881"/><trkpt lat="69.10029915432249" lon="26.410789489746097"/><trkpt lat="69.10028384499242" lon="26.41066074371338"/><trkpt lat="69.10025322630014" lon="26.410531997680668"/><trkpt lat="69.10023791693793" lon="26.410403251647953"/><trkpt lat="69.10022260756502" lon="26.410274505615238"/><trkpt lat="69.10020729818139" lon="26.410145759582523"/><trkpt lat="69.10019198878702" lon="26.41001701354981"/><trkpt lat="69.10017667938196" lon="26.409888267517093"/><trkpt lat="69.10016136996619" lon="26.40975952148438"/><trkpt lat="69.10014606053971" lon="26.409630775451664"/><trkpt lat="69.10013075110253" lon="26.40950202941895"/><trkpt lat="69.1001154416546" lon="26.409330368041996"/><trkpt lat="69.10010013219598" lon="26.409158706665043"/><trkpt lat="69.10006951324658" lon="26.40898704528809"/><trkpt lat="69.10005420375583" lon="26.408815383911133"/><trkpt lat="69.10003889425437" lon="26.40868663787842"/><trkpt lat="69.10002358474219" lon="26.408557891845703"/><trkpt lat="69.10000827521928" lon="26.408429145812992"/><trkpt lat="69.09997765614138" lon="26.408214569091797"/><trkpt lat="69.09996234658632" lon="26.407957077026367"/><trkpt lat="69.09993172744412" lon="26.407785415649418"/><trkpt lat="69.09990110825905" lon="26.40744209289551"/><trkpt lat="69.09988579865046" lon="26.407313346862797"/><trkpt lat="69.09987048903115" lon="26.40718460083008"/><trkpt lat="69.09985517940113" lon="26.40701293945313"/><trkpt lat="69.09983986976039" lon="26.406884193420414"/><trkpt lat="69.09982456010896" lon="26.4067554473877"/><trkpt lat="69.09980925044678" lon="26.406583786010746"/><trkpt lat="69.0997939407739" lon="26.40645503997803"/><trkpt lat="69.09977863109033" lon="26.406326293945316"/><trkpt lat="69.09976332139603" lon="26.406154632568363"/><trkpt lat="69.099748011691" lon="26.406025886535645"/><trkpt lat="69.09971739224885" lon="26.405811309814457"/><trkpt lat="69.0997020825117" lon="26.40568256378174"/><trkpt lat="69.09967146300528" lon="26.405553817749027"/><trkpt lat="69.09965615323596" lon="26.40542507171631"/><trkpt lat="69.09964084345599" lon="26.405296325683597"/><trkpt lat="69.09961022386383" lon="26.40516757965088"/><trkpt lat="69.09959491405169" lon="26.405038833618168"/><trkpt lat="69.09957960422885" lon="26.404910087585453"/><trkpt lat="69.09956429439528" lon="26.404781341552738"/><trkpt lat="69.09953367469602" lon="26.404652595520023"/><trkpt lat="69.09951836483032" lon="26.40452384948731"/><trkpt lat="69.09948774506678" lon="26.404395103454593"/><trkpt lat="69.09945712526036" lon="26.40426635742188"/><trkpt lat="69.09942650541113" lon="26.404094696044925"/><trkpt lat="69.09941119547044" lon="26.40396595001221"/><trkpt lat="69.0993805755569" lon="26.403880119323734"/><trkpt lat="69.09936526558408" lon="26.40375137329102"/><trkpt lat="69.09933464560628" lon="26.403665542602543"/><trkpt lat="69.09931933560132" lon="26.403536796569828"/><trkpt lat="69.09928871555924" lon="26.40345096588135"/><trkpt lat="69.09927340552213" lon="26.403322219848633"/><trkpt lat="69.09924278541577" lon="26.40319347381592"/><trkpt lat="69.09921216526658" lon="26.40302181243897"/><trkpt lat="69.09918154507453" lon="26.402850151062015"/><trkpt lat="69.09916623496242" lon="26.402721405029297"/><trkpt lat="69.0991509248396" lon="26.402592658996586"/><trkpt lat="69.09912030456186" lon="26.40246391296387"/><trkpt lat="69.09908968424124" lon="26.402292251586918"/><trkpt lat="69.09907437406487" lon="26.402120590209964"/><trkpt lat="69.09905906387777" lon="26.40199184417725"/><trkpt lat="69.09904375367996" lon="26.401863098144535"/><trkpt lat="69.09902844347145" lon="26.40173435211182"/><trkpt lat="69.09899782302229" lon="26.401605606079105"/><trkpt lat="69.09898251278165" lon="26.40147686004639"/><trkpt lat="69.09895189226818" lon="26.401391029357914"/><trkpt lat="69.09893658199539" lon="26.4012622833252"/><trkpt lat="69.09890596141766" lon="26.401176452636722"/><trkpt lat="69.09887534079711" lon="26.401047706604007"/><trkpt lat="69.09884472013367" lon="26.400918960571293"/><trkpt lat="69.09882940978588" lon="26.400790214538574"/><trkpt lat="69.09879878905816" lon="26.400704383850098"/><trkpt lat="69.09876816828762" lon="26.400575637817386"/><trkpt lat="69.09872223705143" lon="26.400403976440433"/><trkpt lat="69.09869161617374" lon="26.400275230407715"/><trkpt lat="69.09866099525318" lon="26.400146484375004"/><trkpt lat="69.09863037428981" lon="26.400060653686527"/><trkpt lat="69.09859975328355" lon="26.39993190765381"/><trkpt lat="69.09856913223446" lon="26.399803161621097"/><trkpt lat="69.09852320058044" lon="26.399674415588382"/><trkpt lat="69.09849257942423" lon="26.399588584899906"/><trkpt lat="69.09844664760952" lon="26.399416923522953"/><trkpt lat="69.09841602634616" lon="26.399288177490238"/><trkpt lat="69.09838540503995" lon="26.39920234680176"/><trkpt lat="69.09835478369087" lon="26.399116516113285"/><trkpt lat="69.09832416229897" lon="26.39898777008057"/><trkpt lat="69.09830885158694" lon="26.398859024047855"/><trkpt lat="69.09827823013073" lon="26.39877319335938"/><trkpt lat="69.09824760863167" lon="26.398687362670902"/><trkpt lat="69.09821698708974" lon="26.398558616638187"/><trkpt lat="69.098186365505" lon="26.39847278594971"/><trkpt lat="69.09815574387737" lon="26.398386955261234"/><trkpt lat="69.09812512220691" lon="26.398301124572757"/><trkpt lat="69.09809450049359" lon="26.39821529388428"/><trkpt lat="69.09806387873742" lon="26.398129463195804"/><trkpt lat="69.09803325693838" lon="26.398043632507328"/><trkpt lat="69.09800263509648" lon="26.39795780181885"/><trkpt lat="69.09797201321177" lon="26.397871971130375"/><trkpt lat="69.09794139128415" lon="26.397786140441898"/><trkpt lat="69.09791076931371" lon="26.39765739440918"/><trkpt lat="69.09788014730043" lon="26.397571563720703"/><trkpt lat="69.09784952524427" lon="26.397442817687992"/><trkpt lat="69.09781890314527" lon="26.397356986999515"/><trkpt lat="69.09780359207969" lon="26.397228240966797"/><trkpt lat="69.0977729699164" lon="26.397142410278324"/><trkpt lat="69.09774234771025" lon="26.397056579589847"/><trkpt lat="69.09769641432071" lon="26.397056579589847"/><trkpt lat="69.09769641432071" lon="26.397056579589847"/><trkpt lat="69.09769641432071" lon="26.39701366424561"/><trkpt lat="69.09765048083473" lon="26.396927833557132"/><trkpt lat="69.09761985845715" lon="26.396842002868656"/><trkpt lat="69.0975586135735" lon="26.396799087524418"/><trkpt lat="69.09751267979823" lon="26.39675617218018"/><trkpt lat="69.09746674592657" lon="26.396670341491703"/><trkpt lat="69.09742081195847" lon="26.396627426147464"/><trkpt lat="69.09737487789393" lon="26.396584510803226"/><trkpt lat="69.09732894373299" lon="26.396541595458988"/><trkpt lat="69.09728300947563" lon="26.39649868011475"/><trkpt lat="69.09723707512184" lon="26.39645576477051"/><trkpt lat="69.09719114067163" lon="26.396369934082035"/><trkpt lat="69.09714520612499" lon="26.396369934082035"/><trkpt lat="69.09709927148192" lon="26.396327018737797"/><trkpt lat="69.09705333674245" lon="26.39628410339356"/><trkpt lat="69.09700740190654" lon="26.39628410339356"/><trkpt lat="69.0969614669742" lon="26.39628410339356"/><trkpt lat="69.09691553194544" lon="26.39628410339356"/><trkpt lat="69.09686959682028" lon="26.39628410339356"/><trkpt lat="69.09682366159866" lon="26.39628410339356"/><trkpt lat="69.09677772628064" lon="26.39628410339356"/><trkpt lat="69.09673179086617" lon="26.39628410339356"/><trkpt lat="69.09668585535529" lon="26.39628410339356"/><trkpt lat="69.09663991974799" lon="26.396327018737797"/><trkpt lat="69.09659398404425" lon="26.396369934082035"/><trkpt lat="69.09654804824409" lon="26.396369934082035"/><trkpt lat="69.09650211234748" lon="26.396412849426273"/><trkpt lat="69.0964561763545" lon="26.39645576477051"/><trkpt lat="69.09641024026503" lon="26.39649868011475"/><trkpt lat="69.09636430407917" lon="26.396541595458988"/><trkpt lat="69.09631836779687" lon="26.396541595458988"/><trkpt lat="69.09627243141817" lon="26.396584510803226"/><trkpt lat="69.09622649494302" lon="26.396627426147464"/><trkpt lat="69.09618055837144" lon="26.396670341491703"/><trkpt lat="69.09613462170344" lon="26.39671325683594"/><trkpt lat="69.09608868493899" lon="26.39675617218018"/><trkpt lat="69.09604274807813" lon="26.396799087524418"/><trkpt lat="69.09599681112086" lon="26.396884918212894"/><trkpt lat="69.09595087406716" lon="26.396927833557132"/><trkpt lat="69.095904936917" lon="26.39697074890137"/><trkpt lat="69.09584368723347" lon="26.39701366424561"/><trkpt lat="69.09579774985833" lon="26.397099494934086"/><trkpt lat="69.09575181238677" lon="26.397142410278324"/><trkpt lat="69.09570587481876" lon="26.397185325622562"/><trkpt lat="69.09567524971985" lon="26.39727115631104"/><trkpt lat="69.09562931199113" lon="26.397314071655273"/><trkpt lat="69.095583374166" lon="26.397356986999515"/><trkpt lat="69.09553743624444" lon="26.397442817687992"/><trkpt lat="69.09549149822642" lon="26.397485733032227"/><trkpt lat="69.09544556011197" lon="26.39752864837647"/><trkpt lat="69.09539962190111" lon="26.397571563720703"/><trkpt lat="69.09535368359381" lon="26.397614479064945"/><trkpt lat="69.09530774519008" lon="26.39765739440918"/><trkpt lat="69.09526180668993" lon="26.39770030975342"/><trkpt lat="69.09521586809333" lon="26.397786140441898"/><trkpt lat="69.0951699294003" lon="26.397786140441898"/><trkpt lat="69.09513930355139" lon="26.397871971130375"/><trkpt lat="69.09509336469766" lon="26.39795780181885"/><trkpt lat="69.09506273874158" lon="26.398043632507328"/><trkpt lat="69.09501679972713" lon="26.398129463195804"/><trkpt lat="69.09498617366391" lon="26.39821529388428"/><trkpt lat="69.09495554755783" lon="26.398301124572757"/><trkpt lat="69.09492492140892" lon="26.398386955261234"/><trkpt lat="69.09489429521712" lon="26.39847278594971"/><trkpt lat="69.09486366898247" lon="26.398558616638187"/><trkpt lat="69.09483304270495" lon="26.398644447326664"/><trkpt lat="69.0948024163846" lon="26.39873027801514"/><trkpt lat="69.09477179002137" lon="26.398816108703617"/><trkpt lat="69.09474116361528" lon="26.398901939392093"/><trkpt lat="69.09471053716635" lon="26.39903068542481"/><trkpt lat="69.09467991067454" lon="26.399116516113285"/><trkpt lat="69.09464928413988" lon="26.39920234680176"/><trkpt lat="69.09461865756236" lon="26.399288177490238"/><trkpt lat="69.09458803094199" lon="26.399416923522953"/><trkpt lat="69.09455740427873" lon="26.39950275421143"/><trkpt lat="69.09452677757265" lon="26.399588584899906"/><trkpt lat="69.09448083743314" lon="26.399674415588382"/><trkpt lat="69.09445021061988" lon="26.39976024627686"/><trkpt lat="69.09441958376378" lon="26.399846076965332"/><trkpt lat="69.09438895686482" lon="26.39993190765381"/><trkpt lat="69.094358329923" lon="26.400017738342285"/><trkpt lat="69.09434301643601" lon="26.400146484375004"/><trkpt lat="69.09431238942989" lon="26.40023231506348"/><trkpt lat="69.0942817623809" lon="26.400318145751957"/><trkpt lat="69.09425113528906" lon="26.400403976440433"/><trkpt lat="69.09422050815436" lon="26.40048980712891"/><trkpt lat="69.09418988097683" lon="26.40061855316162"/><trkpt lat="69.09415925375642" lon="26.400704383850098"/><trkpt lat="69.09412862649313" lon="26.400833129882816"/><trkpt lat="69.09408268551786" lon="26.400918960571293"/><trkpt lat="69.09403674444616" lon="26.401047706604007"/><trkpt lat="69.09400611701143" lon="26.401133537292484"/><trkpt lat="69.09397548953385" lon="26.40121936798096"/><trkpt lat="69.09394486201342" lon="26.401305198669437"/><trkpt lat="69.09389892065239" lon="26.401391029357914"/><trkpt lat="69.09386829302481" lon="26.40147686004639"/><trkpt lat="69.09383766535434" lon="26.401562690734867"/><trkpt lat="69.09380703764104" lon="26.401648521423343"/><trkpt lat="69.09377640988487" lon="26.40173435211182"/><trkpt lat="69.09374578208585" lon="26.401820182800297"/><trkpt lat="69.09371515424397" lon="26.401906013488773"/><trkpt lat="69.0936845263592" lon="26.40199184417725"/><trkpt lat="69.09365389843158" lon="26.402077674865726"/><trkpt lat="69.09362327046112" lon="26.40220642089844"/><trkpt lat="69.09357732842504" lon="26.402292251586918"/><trkpt lat="69.0935467003474" lon="26.402378082275394"/><trkpt lat="69.0935007581506" lon="26.40246391296387"/><trkpt lat="69.09345481585736" lon="26.40250682830811"/><trkpt lat="69.09342418760828" lon="26.402592658996586"/><trkpt lat="69.09337824515433" lon="26.40263557434082"/><trkpt lat="69.0933323026039" lon="26.402721405029297"/><trkpt lat="69.09328635995706" lon="26.402807235717773"/><trkpt lat="69.09324041721378" lon="26.402850151062015"/><trkpt lat="69.09320978866465" lon="26.402935981750492"/><trkpt lat="69.09316384576064" lon="26.40302181243897"/><trkpt lat="69.0931179027602" lon="26.403064727783203"/><trkpt lat="69.0930719596633" lon="26.40315055847168"/><trkpt lat="69.09302601646996" lon="26.40319347381592"/><trkpt lat="69.09301070205075" lon="26.403236389160156"/><trkpt lat="69.09301070205075" lon="26.403236389160156"/><trkpt lat="69.09296475872884" lon="26.403279304504398"/><trkpt lat="69.09291881531047" lon="26.403322219848633"/><trkpt lat="69.09288818631131" lon="26.40340805053711"/><trkpt lat="69.09284224273222" lon="26.40345096588135"/><trkpt lat="69.0927962990567" lon="26.403493881225586"/><trkpt lat="69.0927656698861" lon="26.403579711914066"/><trkpt lat="69.09271972604981" lon="26.403622627258304"/><trkpt lat="69.0926737821171" lon="26.403665542602543"/><trkpt lat="69.09262783808798" lon="26.40370845794678"/><trkpt lat="69.09258189396238" lon="26.40375137329102"/><trkpt lat="69.09253594974035" lon="26.403794288635257"/><trkpt lat="69.09247469062761" lon="26.403794288635257"/><trkpt lat="69.09242874618056" lon="26.403794288635257"/><trkpt lat="69.09238280163706" lon="26.403794288635257"/><trkpt lat="69.09233685699711" lon="26.403837203979496"/><trkpt lat="69.09229091226071" lon="26.403837203979496"/><trkpt lat="69.09224496742789" lon="26.403837203979496"/><trkpt lat="69.09219902249863" lon="26.403837203979496"/><trkpt lat="69.09215307747291" lon="26.403837203979496"/><trkpt lat="69.09210713235076" lon="26.403837203979496"/><trkpt lat="69.09206118713215" lon="26.403837203979496"/><trkpt lat="69.0920152418171" lon="26.403837203979496"/><trkpt lat="69.09196929640561" lon="26.403837203979496"/><trkpt lat="69.09190803570696" lon="26.403837203979496"/><trkpt lat="69.09186209007042" lon="26.403837203979496"/><trkpt lat="69.09181614433747" lon="26.403837203979496"/><trkpt lat="69.09177019850806" lon="26.403837203979496"/><trkpt lat="69.0917242525822" lon="26.403837203979496"/><trkpt lat="69.09167830655993" lon="26.403837203979496"/><trkpt lat="69.09163236044117" lon="26.403837203979496"/><trkpt lat="69.09158641422597" lon="26.403837203979496"/><trkpt lat="69.09154046791436" lon="26.403794288635257"/><trkpt lat="69.09149452150628" lon="26.403794288635257"/><trkpt lat="69.09144857500175" lon="26.40375137329102"/><trkpt lat="69.09140262840079" lon="26.40375137329102"/><trkpt lat="69.09134136611613" lon="26.40370845794678"/><trkpt lat="69.09128010366003" lon="26.403665542602543"/><trkpt lat="69.09123415670541" lon="26.403622627258304"/><trkpt lat="69.09118820965438" lon="26.403622627258304"/><trkpt lat="69.09114226250689" lon="26.403579711914066"/><trkpt lat="69.09109631526294" lon="26.403579711914066"/><trkpt lat="69.09105036792255" lon="26.403536796569828"/><trkpt lat="69.09100442048572" lon="26.403493881225586"/><trkpt lat="69.09095847295245" lon="26.403493881225586"/><trkpt lat="69.09091252532272" lon="26.40345096588135"/><trkpt lat="69.09086657759653" lon="26.40345096588135"/><trkpt lat="69.09082062977392" lon="26.40340805053711"/><trkpt lat="69.09077468185485" lon="26.403365135192875"/><trkpt lat="69.09072873383934" lon="26.403322219848633"/><trkpt lat="69.09068278572737" lon="26.403322219848633"/><trkpt lat="69.09063683751894" lon="26.403279304504398"/><trkpt lat="69.09059088921408" lon="26.403236389160156"/><trkpt lat="69.09054494081278" lon="26.403236389160156"/><trkpt lat="69.090498992315" lon="26.40319347381592"/><trkpt lat="69.09045304372081" lon="26.40315055847168"/><trkpt lat="69.09042241127108" lon="26.403064727783203"/><trkpt lat="69.09039177877848" lon="26.40302181243897"/><trkpt lat="69.09039177877848" lon="26.40302181243897"/><trkpt lat="69.09037646251612" lon="26.40289306640625"/><trkpt lat="69.09036114624303" lon="26.40276432037354"/><trkpt lat="69.09036114624303" lon="26.40263557434082"/><trkpt lat="69.09034582995922" lon="26.40250682830811"/><trkpt lat="69.09034582995922" lon="26.402378082275394"/><trkpt lat="69.09034582995922" lon="26.40224933624268"/><trkpt lat="69.09033051366471" lon="26.402120590209964"/><trkpt lat="69.09031519735947" lon="26.40199184417725"/><trkpt lat="69.09031519735947" lon="26.401863098144535"/><trkpt lat="69.09031519735947" lon="26.40173435211182"/><trkpt lat="69.09031519735947" lon="26.401605606079105"/><trkpt lat="69.09033051366471" lon="26.40147686004639"/><trkpt lat="69.09034582995922" lon="26.401348114013675"/><trkpt lat="69.09036114624303" lon="26.40121936798096"/><trkpt lat="69.09037646251612" lon="26.401047706604007"/><trkpt lat="69.09039177877848" lon="26.400918960571293"/><trkpt lat="69.09042241127108" lon="26.400790214538574"/><trkpt lat="69.0904377275013" lon="26.400661468505863"/><trkpt lat="69.09046835992957" lon="26.400532722473145"/><trkpt lat="69.090498992315" lon="26.40036106109619"/><trkpt lat="69.09052962465756" lon="26.40023231506348"/><trkpt lat="69.09056025695727" lon="26.40010356903076"/><trkpt lat="69.09057557309103" lon="26.39997482299805"/><trkpt lat="69.09060620532641" lon="26.399846076965332"/><trkpt lat="69.09063683751894" lon="26.39976024627686"/><trkpt lat="69.09065215359915" lon="26.399631500244144"/><trkpt lat="69.09068278572737" lon="26.399545669555668"/><trkpt lat="69.09068278572737" lon="26.399545669555668"/><trkpt lat="69.09066746966862" lon="26.399545669555668"/><trkpt lat="69.0906981017754" lon="26.39945983886719"/><trkpt lat="69.09072873383934" lon="26.399374008178714"/><trkpt lat="69.09075936586041" lon="26.399288177490238"/><trkpt lat="69.0907899978386" lon="26.399159431457523"/><trkpt lat="69.09082062977392" lon="26.39903068542481"/><trkpt lat="69.09085126166637" lon="26.39894485473633"/><trkpt lat="69.09088189351597" lon="26.398859024047855"/><trkpt lat="69.09089720942471" lon="26.39873027801514"/><trkpt lat="69.09092784121" lon="26.398644447326664"/><trkpt lat="69.09095847295245" lon="26.398558616638187"/><trkpt lat="69.09097378880759" lon="26.398429870605472"/><trkpt lat="69.09100442048572" lon="26.398344039916996"/><trkpt lat="69.091035052121" lon="26.39821529388428"/><trkpt lat="69.0910656837134" lon="26.398086547851562"/><trkpt lat="69.09109631526294" lon="26.398000717163086"/><trkpt lat="69.09112694676963" lon="26.39791488647461"/><trkpt lat="69.09115757823344" lon="26.397829055786133"/><trkpt lat="69.09118820965438" lon="26.39770030975342"/><trkpt lat="69.09121884103246" lon="26.397614479064945"/><trkpt lat="69.09124947236766" lon="26.39752864837647"/><trkpt lat="69.09128010366003" lon="26.397442817687992"/><trkpt lat="69.09131073490951" lon="26.397356986999515"/><trkpt lat="69.09134136611613" lon="26.39727115631104"/><trkpt lat="69.0913719972799" lon="26.397185325622562"/><trkpt lat="69.09140262840079" lon="26.397099494934086"/><trkpt lat="69.0914332594788" lon="26.39701366424561"/><trkpt lat="69.09146389051398" lon="26.396927833557132"/><trkpt lat="69.09149452150628" lon="26.396842002868656"/><trkpt lat="69.09152515245572" lon="26.39675617218018"/><trkpt lat="69.09157109879949" lon="26.396670341491703"/><trkpt lat="69.09160172964177" lon="26.396541595458988"/><trkpt lat="69.09163236044117" lon="26.39645576477051"/><trkpt lat="69.09166299119771" lon="26.396369934082035"/><trkpt lat="69.09169362191139" lon="26.39624118804932"/><trkpt lat="69.0917242525822" lon="26.396155357360843"/><trkpt lat="69.09175488321016" lon="26.39602661132813"/><trkpt lat="69.09178551379524" lon="26.395940780639652"/><trkpt lat="69.09181614433747" lon="26.395854949951175"/><trkpt lat="69.09184677483684" lon="26.3957691192627"/><trkpt lat="69.09187740529332" lon="26.395683288574222"/><trkpt lat="69.09190803570696" lon="26.395597457885746"/><trkpt lat="69.09193866607772" lon="26.395468711853027"/><trkpt lat="69.09196929640561" lon="26.39538288116455"/><trkpt lat="69.09199992669066" lon="26.395297050476074"/><trkpt lat="69.09203055693285" lon="26.395211219787598"/><trkpt lat="69.09207650221573" lon="26.39512538909912"/><trkpt lat="69.09210713235076" lon="26.395039558410645"/><trkpt lat="69.0921377624429" lon="26.394953727722168"/><trkpt lat="69.0921683924922" lon="26.39486789703369"/><trkpt lat="69.09219902249863" lon="26.394782066345215"/><trkpt lat="69.09222965246218" lon="26.39469623565674"/><trkpt lat="69.09226028238288" lon="26.39461040496826"/><trkpt lat="69.09229091226071" lon="26.39452457427979"/><trkpt lat="69.09232154209569" lon="26.394395828247074"/><trkpt lat="69.0923521718878" lon="26.394309997558597"/><trkpt lat="69.09238280163706" lon="26.394181251525882"/><trkpt lat="69.09241343134345" lon="26.394095420837406"/><trkpt lat="69.09244406100696" lon="26.39400959014893"/><trkpt lat="69.09245937582264" lon="26.393880844116214"/><trkpt lat="69.09249000542188" lon="26.393795013427738"/><trkpt lat="69.09252063497824" lon="26.39370918273926"/><trkpt lat="69.09255126449173" lon="26.393623352050785"/><trkpt lat="69.09256657923241" lon="26.39349460601807"/><trkpt lat="69.09259720868162" lon="26.393408775329593"/><trkpt lat="69.09262783808798" lon="26.39328002929688"/><trkpt lat="69.09265846745144" lon="26.393151283264164"/><trkpt lat="69.09268909677206" lon="26.393065452575687"/><trkpt lat="69.09271972604981" lon="26.392936706542972"/><trkpt lat="69.0927503552847" lon="26.392850875854492"/><trkpt lat="69.09278098447676" lon="26.392765045166016"/><trkpt lat="69.0927962990567" lon="26.392636299133304"/><trkpt lat="69.09282692818444" lon="26.392550468444828"/><trkpt lat="69.09285755726931" lon="26.39246463775635"/><trkpt lat="69.09287287179568" lon="26.392335891723633"/><trkpt lat="69.09290350081625" lon="26.392250061035156"/><trkpt lat="69.09293412979399" lon="26.39216423034668"/><trkpt lat="69.09296475872884" lon="26.392078399658203"/><trkpt lat="69.09299538762083" lon="26.391992568969727"/><trkpt lat="69.09302601646996" lon="26.39190673828125"/><trkpt lat="69.09305664527622" lon="26.391820907592777"/><trkpt lat="69.09308727403965" lon="26.3917350769043"/><trkpt lat="69.09313321710441" lon="26.391649246215824"/><trkpt lat="69.09316384576064" lon="26.391563415527347"/><trkpt lat="69.09319447437404" lon="26.39147758483887"/><trkpt lat="69.09322510294459" lon="26.391391754150394"/><trkpt lat="69.09325573147225" lon="26.391305923461918"/><trkpt lat="69.09328635995706" lon="26.39122009277344"/><trkpt lat="69.0933323026039" lon="26.391134262084964"/><trkpt lat="69.09336293098157" lon="26.391048431396488"/><trkpt lat="69.09340887346768" lon="26.39096260070801"/><trkpt lat="69.09345481585736" lon="26.390876770019535"/><trkpt lat="69.09348544406356" lon="26.39079093933106"/><trkpt lat="69.09353138629254" lon="26.39074802398682"/><trkpt lat="69.0935620143916" lon="26.390662193298343"/><trkpt lat="69.0936079564598" lon="26.390576362609867"/><trkpt lat="69.09365389843158" lon="26.39053344726563"/><trkpt lat="69.0936845263592" lon="26.390447616577152"/><trkpt lat="69.09373046817026" lon="26.390447616577152"/><trkpt lat="69.09377640988487" lon="26.390404701232914"/><trkpt lat="69.09382235150305" lon="26.390318870544437"/><trkpt lat="69.09386829302481" lon="26.3902759552002"/><trkpt lat="69.09391423445012" lon="26.390233039855957"/><trkpt lat="69.09396017577899" lon="26.390190124511722"/><trkpt lat="69.09400611701143" lon="26.390190124511722"/><trkpt lat="69.09405205814743" lon="26.39014720916748"/><trkpt lat="69.094097999187" lon="26.39014720916748"/><trkpt lat="69.09414394013014" lon="26.39014720916748"/><trkpt lat="69.09418988097683" lon="26.39014720916748"/><trkpt lat="69.0942358217271" lon="26.39014720916748"/><trkpt lat="69.0942817623809" lon="26.39014720916748"/><trkpt lat="69.0943277029383" lon="26.390104293823246"/><trkpt lat="69.09437364339925" lon="26.390104293823246"/><trkpt lat="69.09441958376378" lon="26.390104293823246"/><trkpt lat="69.09446552403188" lon="26.390104293823246"/><trkpt lat="69.0945114642035" lon="26.390104293823246"/><trkpt lat="69.09455740427873" lon="26.390104293823246"/><trkpt lat="69.09460334425752" lon="26.390104293823246"/><trkpt lat="69.09464928413988" lon="26.390104293823246"/><trkpt lat="69.09466459741256" lon="26.390104293823246"/><trkpt lat="69.09466459741256" lon="26.390104293823246"/><trkpt lat="69.09471053716635" lon="26.390104293823246"/><trkpt lat="69.0947564768237" lon="26.390104293823246"/><trkpt lat="69.0948024163846" lon="26.390104293823246"/><trkpt lat="69.09484835584907" lon="26.39014720916748"/><trkpt lat="69.09489429521712" lon="26.39014720916748"/><trkpt lat="69.09494023448873" lon="26.390190124511722"/><trkpt lat="69.09498617366391" lon="26.390190124511722"/><trkpt lat="69.09503211274264" lon="26.390233039855957"/><trkpt lat="69.09507805172498" lon="26.3902759552002"/><trkpt lat="69.09512399061086" lon="26.390318870544437"/><trkpt lat="69.0951699294003" lon="26.390361785888675"/><trkpt lat="69.09521586809333" lon="26.390404701232914"/><trkpt lat="69.09526180668993" lon="26.390447616577152"/><trkpt lat="69.09530774519008" lon="26.39049053192139"/><trkpt lat="69.09535368359381" lon="26.39053344726563"/><trkpt lat="69.09539962190111" lon="26.390576362609867"/><trkpt lat="69.09544556011197" lon="26.390662193298343"/><trkpt lat="69.09549149822642" lon="26.39070510864258"/><trkpt lat="69.09553743624444" lon="26.39074802398682"/><trkpt lat="69.095583374166" lon="26.39079093933106"/><trkpt lat="69.09562931199113" lon="26.390876770019535"/><trkpt lat="69.09567524971985" lon="26.390919685363773"/><trkpt lat="69.09572118735213" lon="26.39096260070801"/><trkpt lat="69.095767124888" lon="26.39100551605225"/><trkpt lat="69.09581306232744" lon="26.391091346740726"/><trkpt lat="69.09584368723347" lon="26.391177177429203"/><trkpt lat="69.0958896245122" lon="26.39122009277344"/><trkpt lat="69.09593556169446" lon="26.39126300811768"/><trkpt lat="69.09598149878035" lon="26.391305923461918"/><trkpt lat="69.09602743576977" lon="26.391391754150394"/><trkpt lat="69.09607337266276" lon="26.391434669494632"/><trkpt lat="69.09613462170344" lon="26.39152050018311"/><trkpt lat="69.09618055837144" lon="26.391563415527347"/><trkpt lat="69.09622649494302" lon="26.391649246215824"/><trkpt lat="69.09627243141817" lon="26.391692161560062"/><trkpt lat="69.09630305568135" lon="26.39177799224854"/><trkpt lat="69.09634899199578" lon="26.391820907592777"/><trkpt lat="69.09639492821381" lon="26.391863822937015"/><trkpt lat="69.09644086433538" lon="26.39190673828125"/><trkpt lat="69.09648680036054" lon="26.391992568969727"/><trkpt lat="69.09653273628928" lon="26.392078399658203"/><trkpt lat="69.09657867212157" lon="26.39216423034668"/><trkpt lat="69.09662460785745" lon="26.39220714569092"/><trkpt lat="69.09667054349688" lon="26.392335891723633"/><trkpt lat="69.09671647903993" lon="26.39242172241211"/><trkpt lat="69.09676241448652" lon="26.392507553100586"/><trkpt lat="69.09680834983669" lon="26.392593383789062"/><trkpt lat="69.0968389733499" lon="26.39267921447754"/><trkpt lat="69.09688490853938" lon="26.392765045166016"/><trkpt lat="69.0969308436324" lon="26.392850875854492"/><trkpt lat="69.0969614669742" lon="26.392936706542972"/><trkpt lat="69.09699209027313" lon="26.39302253723145"/><trkpt lat="69.09702271352923" lon="26.393108367919925"/><trkpt lat="69.09705333674245" lon="26.393194198608402"/><trkpt lat="69.09708395991282" lon="26.39328002929688"/><trkpt lat="69.09711458304034" lon="26.393365859985355"/><trkpt lat="69.09714520612499" lon="26.39345169067383"/><trkpt lat="69.09717582916679" lon="26.39353752136231"/><trkpt lat="69.09720645216574" lon="26.393623352050785"/><trkpt lat="69.09725238658383" lon="26.39370918273926"/><trkpt lat="69.09728300947563" lon="26.393795013427738"/><trkpt lat="69.09731363232459" lon="26.393880844116214"/><trkpt lat="69.09735956651767" lon="26.39396667480469"/><trkpt lat="69.0973901892595" lon="26.394052505493168"/><trkpt lat="69.09742081195847" lon="26.394181251525882"/><trkpt lat="69.09746674592657" lon="26.39426708221436"/><trkpt lat="69.09749736851838" lon="26.394395828247074"/><trkpt lat="69.09752799106737" lon="26.39448165893555"/><trkpt lat="69.0975586135735" lon="26.394567489624027"/><trkpt lat="69.09758923603674" lon="26.394653320312504"/><trkpt lat="69.09761985845715" lon="26.39473915100098"/><trkpt lat="69.09765048083473" lon="26.39486789703369"/><trkpt lat="69.09768110316942" lon="26.394953727722168"/><trkpt lat="69.09771172546128" lon="26.395039558410645"/><trkpt lat="69.09774234771025" lon="26.39512538909912"/><trkpt lat="69.09774234771025" lon="26.39512538909912"/><trkpt lat="69.09774234771025" lon="26.39512538909912"/><trkpt lat="69.0977729699164" lon="26.395211219787598"/><trkpt lat="69.09781890314527" lon="26.395297050476074"/><trkpt lat="69.09784952524427" lon="26.39538288116455"/><trkpt lat="69.09788014730043" lon="26.395468711853027"/><trkpt lat="69.09792608030429" lon="26.395554542541504"/><trkpt lat="69.0979567022533" lon="26.395640373229984"/><trkpt lat="69.09798732415949" lon="26.39572620391846"/><trkpt lat="69.09803325693838" lon="26.395812034606937"/><trkpt lat="69.09806387873742" lon="26.395897865295414"/><trkpt lat="69.09809450049359" lon="26.39598369598389"/><trkpt lat="69.09812512220691" lon="26.396069526672367"/><trkpt lat="69.09815574387737" lon="26.396155357360843"/><trkpt lat="69.098186365505" lon="26.39624118804932"/><trkpt lat="69.09821698708974" lon="26.396327018737797"/><trkpt lat="69.09824760863167" lon="26.396412849426273"/><trkpt lat="69.09827823013073" lon="26.39649868011475"/><trkpt lat="69.09830885158694" lon="26.396584510803226"/><trkpt lat="69.09835478369087" lon="26.396670341491703"/><trkpt lat="69.09838540503995" lon="26.396799087524418"/><trkpt lat="69.09841602634616" lon="26.396884918212894"/><trkpt lat="69.09844664760952" lon="26.39697074890137"/><trkpt lat="69.09847726883004" lon="26.397099494934086"/><trkpt lat="69.0985078900077" lon="26.397228240966797"/><trkpt lat="69.09853851114251" lon="26.397356986999515"/><trkpt lat="69.09856913223446" lon="26.397442817687992"/><trkpt lat="69.09859975328355" lon="26.39752864837647"/><trkpt lat="69.09863037428981" lon="26.39765739440918"/><trkpt lat="69.09866099525318" lon="26.397743225097656"/><trkpt lat="69.09869161617374" lon="26.397871971130375"/><trkpt lat="69.09872223705143" lon="26.39795780181885"/><trkpt lat="69.09875285788625" lon="26.398043632507328"/><trkpt lat="69.09878347867824" lon="26.39817237854004"/><trkpt lat="69.09881409942739" lon="26.398301124572757"/><trkpt lat="69.09884472013367" lon="26.398429870605472"/><trkpt lat="69.09887534079711" lon="26.39851570129395"/><trkpt lat="69.09889065111274" lon="26.398644447326664"/><trkpt lat="69.0989212717119" lon="26.39873027801514"/><trkpt lat="69.09893658199539" lon="26.398859024047855"/><trkpt lat="69.09896720253028" lon="26.39894485473633"/><trkpt lat="69.09899782302229" lon="26.399073600769047"/><trkpt lat="69.09901313325223" lon="26.39920234680176"/><trkpt lat="69.09904375367996" lon="26.399288177490238"/><trkpt lat="69.09907437406487" lon="26.399374008178714"/><trkpt lat="69.0991049944069" lon="26.39950275421143"/><trkpt lat="69.0991356147061" lon="26.399588584899906"/><trkpt lat="69.09916623496242" lon="26.399674415588382"/><trkpt lat="69.09919685517589" lon="26.399803161621097"/><trkpt lat="69.09922747534654" lon="26.39993190765381"/><trkpt lat="69.09925809547431" lon="26.400060653686527"/><trkpt lat="69.09928871555924" lon="26.400146484375004"/><trkpt lat="69.09931933560132" lon="26.400275230407715"/><trkpt lat="69.09934995560056" lon="26.40036106109619"/><trkpt lat="69.0993805755569" lon="26.400446891784668"/><trkpt lat="69.09941119547044" lon="26.400575637817386"/><trkpt lat="69.0994418153411" lon="26.400704383850098"/><trkpt lat="69.09947243516893" lon="26.400790214538574"/><trkpt lat="69.09948774506678" lon="26.400918960571293"/><trkpt lat="69.09951836483032" lon="26.401047706604007"/><trkpt lat="69.099548984551" lon="26.401176452636722"/><trkpt lat="69.09956429439528" lon="26.401305198669437"/><trkpt lat="69.09959491405169" lon="26.401391029357914"/><trkpt lat="69.09961022386383" lon="26.40151977539063"/><trkpt lat="69.09964084345599" lon="26.401648521423343"/><trkpt lat="69.09967146300528" lon="26.40177726745606"/><trkpt lat="69.09968677276383" lon="26.401906013488773"/><trkpt lat="69.09971739224885" lon="26.402034759521488"/><trkpt lat="69.0997327019753" lon="26.402163505554203"/><trkpt lat="69.09976332139603" lon="26.402292251586918"/><trkpt lat="69.0997939407739" lon="26.402420997619632"/><trkpt lat="69.09982456010896" lon="26.40250682830811"/><trkpt lat="69.09983986976039" lon="26.40263557434082"/><trkpt lat="69.09987048903115" lon="26.402721405029297"/><trkpt lat="69.09988579865046" lon="26.402850151062015"/><trkpt lat="69.09991641785695" lon="26.402935981750492"/><trkpt lat="69.09994703702058" lon="26.403064727783203"/><trkpt lat="69.09997765614138" lon="26.40319347381592"/><trkpt lat="69.10000827521928" lon="26.403279304504398"/><trkpt lat="69.10003889425437" lon="26.40340805053711"/><trkpt lat="69.10006951324658" lon="26.403536796569828"/><trkpt lat="69.10008482272666" lon="26.403665542602543"/><trkpt lat="69.1001154416546" lon="26.403794288635257"/><trkpt lat="69.10013075110253" lon="26.403923034667972"/><trkpt lat="69.10014606053971" lon="26.404051780700687"/><trkpt lat="69.10016136996619" lon="26.404180526733402"/><trkpt lat="69.10017667938196" lon="26.404309272766117"/><trkpt lat="69.10020729818139" lon="26.40443801879883"/><trkpt lat="69.10022260756502" lon="26.404566764831547"/><trkpt lat="69.10025322630014" lon="26.404652595520023"/><trkpt lat="69.10026853565164" lon="26.404781341552738"/><trkpt lat="69.10029915432249" lon="26.404910087585453"/><trkpt lat="69.10031446364185" lon="26.405038833618168"/><trkpt lat="69.10032977295049" lon="26.40516757965088"/><trkpt lat="69.10036039153565" lon="26.405253410339355"/><trkpt lat="69.10037570081215" lon="26.405382156372074"/><trkpt lat="69.10040631933303" lon="26.405553817749027"/><trkpt lat="69.10043693781107" lon="26.40568256378174"/><trkpt lat="69.10045224703403" lon="26.405811309814457"/><trkpt lat="69.10046755624626" lon="26.405940055847168"/><trkpt lat="69.10048286544779" lon="26.406068801879886"/><trkpt lat="69.1005134838187" lon="26.4061975479126"/><trkpt lat="69.10054410214674" lon="26.406326293945316"/><trkpt lat="69.1005594112947" lon="26.40645503997803"/><trkpt lat="69.10057472043195" lon="26.406583786010746"/><trkpt lat="69.10060533867431" lon="26.40671253204346"/><trkpt lat="69.10062064777944" lon="26.406841278076175"/><trkpt lat="69.10063595687384" lon="26.40697002410889"/><trkpt lat="69.10065126595751" lon="26.407098770141605"/><trkpt lat="69.10066657503049" lon="26.40722751617432"/><trkpt lat="69.10068188409275" lon="26.407356262207035"/><trkpt lat="69.10069719314431" lon="26.40748500823975"/><trkpt lat="69.10072781121525" lon="26.407613754272464"/><trkpt lat="69.10074312023467" lon="26.40774250030518"/><trkpt lat="69.10075842924338" lon="26.40787124633789"/><trkpt lat="69.10077373824137" lon="26.40799999237061"/><trkpt lat="69.10078904722866" lon="26.40812873840332"/><trkpt lat="69.1008043562052" lon="26.40825748443604"/><trkpt lat="69.10081966517106" lon="26.40838623046875"/><trkpt lat="69.10083497412622" lon="26.40851497650147"/><trkpt lat="69.10083497412622" lon="26.40864372253418"/><trkpt lat="69.10086559200434" lon="26.408772468566898"/><trkpt lat="69.10088090092735" lon="26.408901214599613"/><trkpt lat="69.10089620983965" lon="26.409029960632328"/><trkpt lat="69.10091151874121" lon="26.409158706665043"/><trkpt lat="69.10092682763208" lon="26.409287452697757"/><trkpt lat="69.10094213651224" lon="26.409416198730472"/><trkpt lat="69.1009574453817" lon="26.409544944763187"/><trkpt lat="69.1009727542404" lon="26.409673690795902"/><trkpt lat="69.10098806308842" lon="26.409802436828617"/><trkpt lat="69.10100337192574" lon="26.40993118286133"/><trkpt lat="69.10100337192574" lon="26.410059928894047"/><trkpt lat="69.10101868075232" lon="26.41018867492676"/><trkpt lat="69.10101868075232" lon="26.410317420959476"/><trkpt lat="69.10104929837338" lon="26.41044616699219"/><trkpt lat="69.10106460716784" lon="26.410574913024902"/><trkpt lat="69.10107991595157" lon="26.410746574401855"/><trkpt lat="69.10109522472462" lon="26.410875320434574"/><trkpt lat="69.10111053348695" lon="26.411004066467285"/><trkpt lat="69.10112584223853" lon="26.411132812500004"/><trkpt lat="69.10112584223853" lon="26.411261558532715"/><trkpt lat="69.10114115097944" lon="26.411390304565433"/><trkpt lat="69.10115645970963" lon="26.411519050598148"/><trkpt lat="69.10115645970963" lon="26.411604881286625"/></trkseg></trk></gpx>