<?xml version="1.0"?>
<gpx xmlns="http://www.topografix.com/GPX/1/1" xmlns:gpxx="http://www.garmin.com/xmlschemas/GpxExtensions/v3" creator="CALTOPO" version="1.1"><metadata><name><![CDATA[Peltoaivi]]></name></metadata><trk><name>Peltoaivi</name><extensions><gpxx:TrackExtension><gpxx:DisplayColor>Red</gpxx:DisplayColor></gpxx:TrackExtension></extensions><trkseg><trkpt lat="69.17394298258549" lon="26.640000343322757"/><trkpt lat="69.17348304809688" lon="26.641217150865028"/><trkpt lat="69.17347" lon="26.64137"/><trkpt lat="69.17336" lon="26.642"/><trkpt lat="69.17336" lon="26.642"/><trkpt lat="69.17319" lon="26.64257"/><trkpt lat="69.17305" lon="26.64296"/><trkpt lat="69.17299" lon="26.64328"/><trkpt lat="69.17284" lon="26.64372"/><trkpt lat="69.17257" lon="26.64431"/><trkpt lat="69.17241" lon="26.64497"/><trkpt lat="69.17206" lon="26.64593"/><trkpt lat="69.17191" lon="26.64681"/><trkpt lat="69.17185" lon="26.64738"/><trkpt lat="69.17147" lon="26.64839"/><trkpt lat="69.17108" lon="26.64913"/><trkpt lat="69.171" lon="26.64995"/><trkpt lat="69.17108" lon="26.65027"/><trkpt lat="69.17129" lon="26.65137"/><trkpt lat="69.17161" lon="26.65283"/><trkpt lat="69.17161" lon="26.65283"/><trkpt lat="69.17174" lon="26.65345"/><trkpt lat="69.17226" lon="26.6562"/><trkpt lat="69.17254" lon="26.65759"/><trkpt lat="69.17285" lon="26.65818"/><trkpt lat="69.17307" lon="26.65891"/><trkpt lat="69.17307" lon="26.65891"/><trkpt lat="69.17328" lon="26.65944"/><trkpt lat="69.17356" lon="26.65985"/><trkpt lat="69.17387" lon="26.66023"/><trkpt lat="69.17421" lon="26.66105"/><trkpt lat="69.17449" lon="26.66151"/><trkpt lat="69.1753" lon="26.66216"/><trkpt lat="69.17557" lon="26.66285"/><trkpt lat="69.17586" lon="26.66335"/><trkpt lat="69.176" lon="26.66395"/><trkpt lat="69.17632" lon="26.66482"/><trkpt lat="69.17672" lon="26.66576"/><trkpt lat="69.17716" lon="26.66633"/><trkpt lat="69.17754" lon="26.66694"/><trkpt lat="69.17779" lon="26.66695"/><trkpt lat="69.17803" lon="26.66674"/><trkpt lat="69.17818" lon="26.6669"/><trkpt lat="69.17818" lon="26.6669"/><trkpt lat="69.1782" lon="26.66693"/><trkpt lat="69.17853" lon="26.66765"/><trkpt lat="69.17873" lon="26.66835"/><trkpt lat="69.17895" lon="26.66864"/><trkpt lat="69.17921" lon="26.66935"/><trkpt lat="69.17944" lon="26.67008"/><trkpt lat="69.17969" lon="26.67063"/><trkpt lat="69.17985" lon="26.6713"/><trkpt lat="69.17992" lon="26.67231"/><trkpt lat="69.18017" lon="26.67313"/><trkpt lat="69.18035" lon="26.67403"/><trkpt lat="69.1806" lon="26.6748"/><trkpt lat="69.1806" lon="26.6748"/><trkpt lat="69.18067" lon="26.67504"/><trkpt lat="69.18091" lon="26.67561"/><trkpt lat="69.18142" lon="26.67631"/><trkpt lat="69.18166" lon="26.67671"/><trkpt lat="69.18185" lon="26.67742"/><trkpt lat="69.18201" lon="26.67767"/><trkpt lat="69.18236" lon="26.67789"/><trkpt lat="69.18252" lon="26.67834"/><trkpt lat="69.18269" lon="26.67873"/><trkpt lat="69.18287" lon="26.67932"/><trkpt lat="69.18293" lon="26.67982"/><trkpt lat="69.18306" lon="26.6802"/><trkpt lat="69.18321" lon="26.68029"/><trkpt lat="69.18335" lon="26.68061"/><trkpt lat="69.18363" lon="26.68116"/><trkpt lat="69.18373" lon="26.68128"/><trkpt lat="69.18389" lon="26.68134"/><trkpt lat="69.18409" lon="26.68155"/><trkpt lat="69.18419" lon="26.68181"/><trkpt lat="69.18425" lon="26.68211"/><trkpt lat="69.1843" lon="26.68324"/><trkpt lat="69.18456" lon="26.68414"/><trkpt lat="69.18479" lon="26.68454"/><trkpt lat="69.18524" lon="26.68503"/><trkpt lat="69.18541" lon="26.68531"/><trkpt lat="69.18569" lon="26.68541"/><trkpt lat="69.18598" lon="26.68557"/><trkpt lat="69.18599" lon="26.68562"/><trkpt lat="69.18599" lon="26.68562"/><trkpt lat="69.18613" lon="26.68612"/><trkpt lat="69.18622" lon="26.68697"/><trkpt lat="69.18635" lon="26.68744"/><trkpt lat="69.18643" lon="26.68788"/><trkpt lat="69.18653" lon="26.68815"/><trkpt lat="69.18672" lon="26.68842"/><trkpt lat="69.1869" lon="26.68878"/><trkpt lat="69.18705" lon="26.68882"/><trkpt lat="69.18738" lon="26.68931"/><trkpt lat="69.18763" lon="26.68959"/><trkpt lat="69.18787" lon="26.68997"/><trkpt lat="69.18823" lon="26.69011"/><trkpt lat="69.18823" lon="26.69011"/><trkpt lat="69.18823" lon="26.69011"/><trkpt lat="69.18830991864942" lon="26.690220475589975"/><trkpt lat="69.18830991864942" lon="26.690220475589975"/><trkpt lat="69.18857" lon="26.69058"/><trkpt lat="69.18929" lon="26.69074"/><trkpt lat="69.18956" lon="26.69092"/><trkpt lat="69.18994" lon="26.69079"/><trkpt lat="69.19016" lon="26.6906"/><trkpt lat="69.19027" lon="26.69061"/><trkpt lat="69.19041" lon="26.69075"/><trkpt lat="69.19075" lon="26.69087"/><trkpt lat="69.19108" lon="26.69115"/><trkpt lat="69.19119" lon="26.69101"/><trkpt lat="69.19163" lon="26.69109"/><trkpt lat="69.19194" lon="26.69131"/><trkpt lat="69.19216" lon="26.69149"/><trkpt lat="69.1925" lon="26.69151"/><trkpt lat="69.19302" lon="26.69192"/><trkpt lat="69.1938" lon="26.69273"/><trkpt lat="69.1938" lon="26.69273"/><trkpt lat="69.19416" lon="26.69315"/><trkpt lat="69.19453" lon="26.69342"/><trkpt lat="69.19464" lon="26.69363"/><trkpt lat="69.1949" lon="26.6936"/><trkpt lat="69.195" lon="26.69371"/><trkpt lat="69.19523" lon="26.69411"/><trkpt lat="69.19545" lon="26.69432"/><trkpt lat="69.19583" lon="26.69427"/><trkpt lat="69.19627" lon="26.69447"/><trkpt lat="69.19649" lon="26.69485"/><trkpt lat="69.19686" lon="26.69487"/><trkpt lat="69.197" lon="26.69491"/><trkpt lat="69.1972" lon="26.69533"/><trkpt lat="69.19737" lon="26.69562"/><trkpt lat="69.19804" lon="26.69556"/><trkpt lat="69.19833" lon="26.69575"/><trkpt lat="69.19865" lon="26.69574"/><trkpt lat="69.19963" lon="26.69602"/><trkpt lat="69.20017" lon="26.69592"/><trkpt lat="69.20037" lon="26.69641"/><trkpt lat="69.20049" lon="26.69678"/><trkpt lat="69.20049" lon="26.69678"/><trkpt lat="69.20059" lon="26.69711"/><trkpt lat="69.20096" lon="26.69751"/><trkpt lat="69.20149" lon="26.69786"/><trkpt lat="69.2016" lon="26.69791"/><trkpt lat="69.2016" lon="26.69791"/><trkpt lat="69.20172" lon="26.69796"/><trkpt lat="69.20188" lon="26.6981"/><trkpt lat="69.20217" lon="26.69826"/><trkpt lat="69.20251" lon="26.69834"/><trkpt lat="69.20265" lon="26.69857"/><trkpt lat="69.20272" lon="26.69952"/><trkpt lat="69.20277" lon="26.70092"/><trkpt lat="69.20289" lon="26.70186"/><trkpt lat="69.20298" lon="26.70289"/><trkpt lat="69.20307" lon="26.70364"/><trkpt lat="69.20314" lon="26.7047"/><trkpt lat="69.20316" lon="26.70583"/><trkpt lat="69.20321488979583" lon="26.70712383039368"/><trkpt lat="69.20321543987335" lon="26.70713679650156"/><trkpt lat="69.20321621335496" lon="26.707155028561132"/><trkpt lat="69.20321621335496" lon="26.707155028561132"/><trkpt lat="69.20323" lon="26.70748"/><trkpt lat="69.20324" lon="26.70867"/><trkpt lat="69.20318" lon="26.70953"/><trkpt lat="69.20312" lon="26.71068"/><trkpt lat="69.20319" lon="26.71311"/><trkpt lat="69.20316" lon="26.71445"/><trkpt lat="69.2031" lon="26.71532"/><trkpt lat="69.20308" lon="26.71589"/><trkpt lat="69.20311" lon="26.71633"/><trkpt lat="69.20331" lon="26.71718"/><trkpt lat="69.2036" lon="26.71875"/><trkpt lat="69.2036" lon="26.71875"/><trkpt lat="69.20373" lon="26.71939"/><trkpt lat="69.20388" lon="26.72036"/><trkpt lat="69.20388" lon="26.72036"/><trkpt lat="69.20388" lon="26.72036"/><trkpt lat="69.20419" lon="26.72152"/><trkpt lat="69.20433" lon="26.72194"/><trkpt lat="69.20456127319295" lon="26.722141622048202"/><trkpt lat="69.20472" lon="26.72228"/><trkpt lat="69.20498" lon="26.72305"/><trkpt lat="69.20518" lon="26.72344"/><trkpt lat="69.20537" lon="26.72361"/><trkpt lat="69.20557887402126" lon="26.72386135467159"/><trkpt lat="69.20553398282006" lon="26.724157333374027"/><trkpt lat="69.2072403101186" lon="26.727247238159183"/><trkpt lat="69.20919023460524" lon="26.729650497436527"/><trkpt lat="69.21031745497433" lon="26.732482910156254"/><trkpt lat="69.21165785722148" lon="26.732997894287113"/><trkpt lat="69.21299817687273" lon="26.734972000122074"/><trkpt lat="69.21415565919654" lon="26.739006042480472"/><trkpt lat="69.21446024956978" lon="26.74055099487305"/><trkpt lat="69.21476483567719" lon="26.743469238281254"/><trkpt lat="69.21570902550125" lon="26.744670867919925"/><trkpt lat="69.21613542037205" lon="26.746473312377933"/><trkpt lat="69.21828269838883" lon="26.751623153686527"/><trkpt lat="69.21939422165137" lon="26.7531681060791"/><trkpt lat="69.21989667242248" lon="26.75501346588135"/><trkpt lat="69.22100811317902" lon="26.758747100830078"/><trkpt lat="69.22179978975166" lon="26.759991645812992"/><trkpt lat="69.22246964741129" lon="26.760635375976566"/><trkpt lat="69.22347914846458" lon="26.762314626707322"/><trkpt lat="69.22367" lon="26.7627"/><trkpt lat="69.22367" lon="26.7627"/><trkpt lat="69.2239" lon="26.76318"/><trkpt lat="69.22436" lon="26.76374"/><trkpt lat="69.22463" lon="26.7639"/><trkpt lat="69.225" lon="26.76481"/><trkpt lat="69.225" lon="26.76481"/><trkpt lat="69.22531" lon="26.7656"/><trkpt lat="69.22562" lon="26.76619"/><trkpt lat="69.2259" lon="26.767"/><trkpt lat="69.22619596841162" lon="26.76750224903259"/><trkpt lat="69.22619500552366" lon="26.767500615434095"/><trkpt lat="69.22623" lon="26.76756"/><trkpt lat="69.22682" lon="26.76829"/><trkpt lat="69.2271" lon="26.76848"/><trkpt lat="69.22741" lon="26.76861"/><trkpt lat="69.22764" lon="26.76932"/><trkpt lat="69.22787" lon="26.76945"/><trkpt lat="69.22799" lon="26.77006"/><trkpt lat="69.22808" lon="26.77015"/><trkpt lat="69.22827" lon="26.77008"/><trkpt lat="69.22859" lon="26.77025"/><trkpt lat="69.22874" lon="26.77027"/><trkpt lat="69.22884438279661" lon="26.770350812105384"/><trkpt lat="69.22883135207988" lon="26.770340724190884"/><trkpt lat="69.22905" lon="26.77051"/><trkpt lat="69.22926" lon="26.77078"/><trkpt lat="69.22946" lon="26.77073"/><trkpt lat="69.22965" lon="26.77112"/><trkpt lat="69.22987" lon="26.77194"/><trkpt lat="69.23011" lon="26.77302"/><trkpt lat="69.23049" lon="26.77394"/><trkpt lat="69.23068" lon="26.77452"/><trkpt lat="69.23116" lon="26.77495"/><trkpt lat="69.23166" lon="26.77516"/><trkpt lat="69.23217" lon="26.77513"/><trkpt lat="69.23256" lon="26.77523"/><trkpt lat="69.23279" lon="26.77534"/><trkpt lat="69.23279" lon="26.77534"/><trkpt lat="69.23308" lon="26.77548"/><trkpt lat="69.23338" lon="26.77531"/><trkpt lat="69.23361" lon="26.77471"/><trkpt lat="69.23383" lon="26.77422"/><trkpt lat="69.23402" lon="26.77429"/><trkpt lat="69.23438" lon="26.77453"/><trkpt lat="69.23462" lon="26.77496"/><trkpt lat="69.2348" lon="26.77576"/><trkpt lat="69.23517" lon="26.77759"/><trkpt lat="69.23521" lon="26.77868"/><trkpt lat="69.23547" lon="26.77941"/><trkpt lat="69.23571" lon="26.77993"/><trkpt lat="69.23599" lon="26.78076"/><trkpt lat="69.2363" lon="26.78095"/><trkpt lat="69.2365" lon="26.7814"/><trkpt lat="69.23702" lon="26.78219"/><trkpt lat="69.23733" lon="26.78249"/><trkpt lat="69.23763" lon="26.78332"/><trkpt lat="69.23794" lon="26.78362"/><trkpt lat="69.2382" lon="26.78384"/><trkpt lat="69.23841" lon="26.78397"/><trkpt lat="69.23864" lon="26.78418"/><trkpt lat="69.23878" lon="26.78467"/><trkpt lat="69.23878" lon="26.78467"/><trkpt lat="69.23896" lon="26.78583"/><trkpt lat="69.23917" lon="26.78692"/><trkpt lat="69.23945" lon="26.78795"/><trkpt lat="69.23983" lon="26.78896"/><trkpt lat="69.24004" lon="26.78919"/><trkpt lat="69.24029" lon="26.78894"/><trkpt lat="69.24058" lon="26.789"/><trkpt lat="69.24058" lon="26.789"/><trkpt lat="69.2408" lon="26.78945"/><trkpt lat="69.2411" lon="26.78968"/><trkpt lat="69.24125" lon="26.78974"/><trkpt lat="69.24141" lon="26.78995"/><trkpt lat="69.24179" lon="26.791"/><trkpt lat="69.24201" lon="26.79133"/><trkpt lat="69.24222" lon="26.79171"/><trkpt lat="69.24232" lon="26.79207"/><trkpt lat="69.24247" lon="26.79243"/><trkpt lat="69.24263" lon="26.79326"/><trkpt lat="69.2429" lon="26.7937"/><trkpt lat="69.24305" lon="26.79387"/><trkpt lat="69.24311" lon="26.79371"/><trkpt lat="69.24314" lon="26.79334"/><trkpt lat="69.24316" lon="26.7927"/><trkpt lat="69.24333" lon="26.79263"/><trkpt lat="69.24338" lon="26.79319"/><trkpt lat="69.24342" lon="26.79411"/><trkpt lat="69.24354" lon="26.79465"/><trkpt lat="69.24366" lon="26.79493"/><trkpt lat="69.24381" lon="26.7954"/><trkpt lat="69.2441" lon="26.79558"/><trkpt lat="69.24439" lon="26.79598"/><trkpt lat="69.24447" lon="26.79632"/><trkpt lat="69.2445" lon="26.79684"/><trkpt lat="69.2446" lon="26.79757"/><trkpt lat="69.24477" lon="26.79801"/><trkpt lat="69.24529" lon="26.79837"/><trkpt lat="69.24551" lon="26.79872"/><trkpt lat="69.24588" lon="26.79912"/><trkpt lat="69.24605" lon="26.79907"/><trkpt lat="69.24617" lon="26.79873"/><trkpt lat="69.2467" lon="26.79882"/><trkpt lat="69.24721" lon="26.79835"/><trkpt lat="69.24755" lon="26.79872"/><trkpt lat="69.24768" lon="26.79894"/><trkpt lat="69.2479" lon="26.79974"/><trkpt lat="69.24812" lon="26.80011"/><trkpt lat="69.24835" lon="26.80002"/><trkpt lat="69.24837" lon="26.80005"/><trkpt lat="69.24837" lon="26.80005"/><trkpt lat="69.24852" lon="26.80032"/><trkpt lat="69.24862" lon="26.8011"/><trkpt lat="69.24885" lon="26.80207"/><trkpt lat="69.24908" lon="26.80234"/><trkpt lat="69.2493" lon="26.80284"/><trkpt lat="69.25057" lon="26.8055"/><trkpt lat="69.25094" lon="26.8066"/><trkpt lat="69.25099" lon="26.80664"/><trkpt lat="69.25099" lon="26.80664"/><trkpt lat="69.25112" lon="26.80675"/><trkpt lat="69.25141" lon="26.80664"/><trkpt lat="69.25176" lon="26.80692"/><trkpt lat="69.25199" lon="26.80755"/><trkpt lat="69.25215" lon="26.80937"/><trkpt lat="69.25208" lon="26.80988"/><trkpt lat="69.25224" lon="26.8113"/><trkpt lat="69.25281" lon="26.81234"/><trkpt lat="69.25281" lon="26.81234"/><trkpt lat="69.25281" lon="26.81234"/><trkpt lat="69.25301" lon="26.81241"/><trkpt lat="69.25325" lon="26.81296"/><trkpt lat="69.25341" lon="26.81341"/><trkpt lat="69.25341" lon="26.81341"/><trkpt lat="69.25341" lon="26.81341"/><trkpt lat="69.25416" lon="26.81451"/><trkpt lat="69.25416" lon="26.81451"/><trkpt lat="69.25418" lon="26.81487"/><trkpt lat="69.25425" lon="26.81524"/><trkpt lat="69.25427" lon="26.81551"/><trkpt lat="69.25426929324931" lon="26.815512374473418"/><trkpt lat="69.25429" lon="26.81556"/><trkpt lat="69.25429" lon="26.81556"/><trkpt lat="69.25429" lon="26.81556"/><trkpt lat="69.25433" lon="26.81605"/><trkpt lat="69.25439" lon="26.81626"/><trkpt lat="69.25482" lon="26.8173"/><trkpt lat="69.25518" lon="26.8179"/><trkpt lat="69.25518021408125" lon="26.81790506075144"/><trkpt lat="69.25490340062645" lon="26.817998148693118"/><trkpt lat="69.25490340062645" lon="26.817998148693118"/><trkpt lat="69.25466" lon="26.81808"/><trkpt lat="69.25466" lon="26.81808"/><trkpt lat="69.2544" lon="26.81816"/><trkpt lat="69.2544" lon="26.81816"/><trkpt lat="69.25393746895614" lon="26.81832455430343"/><trkpt lat="69.25393746895614" lon="26.81832455430343"/><trkpt lat="69.2536601418303" lon="26.81842321876273"/><trkpt lat="69.2536601418303" lon="26.81842321876273"/><trkpt lat="69.25338053513372" lon="26.81852269422317"/><trkpt lat="69.25338053513372" lon="26.81852269422317"/><trkpt lat="69.25289031438771" lon="26.818697099682772"/><trkpt lat="69.25289031438771" lon="26.818697099682772"/><trkpt lat="69.25273982837028" lon="26.818750638828487"/><trkpt lat="69.25274330827033" lon="26.818828582763675"/></trkseg></trk></gpx>