<?xml version="1.0"?>
<gpx xmlns="http://www.topografix.com/GPX/1/1" xmlns:gpxx="http://www.garmin.com/xmlschemas/GpxExtensions/v3" creator="CALTOPO" version="1.1"><metadata><name><![CDATA[Peltojärvi]]></name></metadata><trk><name>Peltojärvi</name><extensions><gpxx:TrackExtension><gpxx:DisplayColor>Red</gpxx:DisplayColor></gpxx:TrackExtension></extensions><trkseg><trkpt lat="69.11229293619925" lon="26.54125213623047"/><trkpt lat="69.11229293619925" lon="26.540565490722656"/><trkpt lat="69.11229293619925" lon="26.540393829345703"/><trkpt lat="69.1123541398413" lon="26.539878845214847"/><trkpt lat="69.11241534331204" lon="26.539363861083988"/><trkpt lat="69.11241534331204" lon="26.53884887695313"/><trkpt lat="69.11253774973954" lon="26.538505554199222"/><trkpt lat="69.11259895269632" lon="26.537990570068363"/><trkpt lat="69.11272135809592" lon="26.537647247314457"/><trkpt lat="69.11278256053875" lon="26.537132263183597"/><trkpt lat="69.11284376281026" lon="26.536617279052738"/><trkpt lat="69.11296616683936" lon="26.53627395629883"/><trkpt lat="69.11308857018318" lon="26.535930633544922"/><trkpt lat="69.1131497715981" lon="26.535415649414062"/><trkpt lat="69.11327217391404" lon="26.535072326660156"/><trkpt lat="69.11339457554475" lon="26.534729003906254"/><trkpt lat="69.11351697649017" lon="26.534385681152347"/><trkpt lat="69.11363937675038" lon="26.53404235839844"/><trkpt lat="69.11376177632535" lon="26.533699035644535"/><trkpt lat="69.11388417521506" lon="26.53335571289063"/><trkpt lat="69.11400657341957" lon="26.533012390136722"/><trkpt lat="69.11412897093884" lon="26.532669067382816"/><trkpt lat="69.11425136777287" lon="26.53232574462891"/><trkpt lat="69.11443496173914" lon="26.531982421875004"/><trkpt lat="69.11455735686012" lon="26.531639099121097"/><trkpt lat="69.1146797512959" lon="26.53129577636719"/><trkpt lat="69.11480214504645" lon="26.530952453613285"/><trkpt lat="69.11498573438753" lon="26.530609130859375"/><trkpt lat="69.11510812642506" lon="26.53026580810547"/><trkpt lat="69.1152305177774" lon="26.529922485351562"/><trkpt lat="69.11535290844455" lon="26.52957916259766"/><trkpt lat="69.11547529842647" lon="26.529235839843754"/><trkpt lat="69.11559768772327" lon="26.528892517089847"/><trkpt lat="69.11572007633484" lon="26.52854919433594"/><trkpt lat="69.1158424642612" lon="26.528205871582035"/><trkpt lat="69.11596485150243" lon="26.52786254882813"/><trkpt lat="69.11608723805846" lon="26.527519226074222"/><trkpt lat="69.11614843107954" lon="26.527004241943363"/><trkpt lat="69.11620962392934" lon="26.526489257812504"/><trkpt lat="69.11633200911501" lon="26.525974273681644"/><trkpt lat="69.11633200911501" lon="26.52545928955078"/><trkpt lat="69.11639320145093" lon="26.524944305419922"/><trkpt lat="69.11645439361553" lon="26.524429321289066"/><trkpt lat="69.11651558560885" lon="26.523914337158207"/><trkpt lat="69.1165767774309" lon="26.523399353027347"/><trkpt lat="69.1165767774309" lon="26.522884368896488"/><trkpt lat="69.11663796908161" lon="26.52236938476563"/><trkpt lat="69.1166991605611" lon="26.52185440063477"/><trkpt lat="69.1166991605611" lon="26.52133941650391"/><trkpt lat="69.11682154300613" lon="26.520996093750004"/><trkpt lat="69.1168827339717" lon="26.520481109619144"/><trkpt lat="69.117005115389" lon="26.520137786865234"/><trkpt lat="69.11706630584074" lon="26.519622802734375"/><trkpt lat="69.11718868623032" lon="26.51927947998047"/><trkpt lat="69.11731106593476" lon="26.518936157226566"/><trkpt lat="69.11743344495406" lon="26.51859283447266"/><trkpt lat="69.11749463420676" lon="26.5180778503418"/><trkpt lat="69.11761701219837" lon="26.517734527587894"/><trkpt lat="69.11767820093722" lon="26.517219543457035"/><trkpt lat="69.11773938950482" lon="26.516704559326175"/><trkpt lat="69.11780057790112" lon="26.516189575195316"/><trkpt lat="69.11792295417989" lon="26.51584625244141"/><trkpt lat="69.11798414206234" lon="26.51533126831055"/><trkpt lat="69.11804532977352" lon="26.514816284179688"/><trkpt lat="69.11804532977352" lon="26.514301300048828"/><trkpt lat="69.11804532977352" lon="26.513786315917972"/><trkpt lat="69.11804532977352" lon="26.513271331787113"/><trkpt lat="69.11804532977352" lon="26.512756347656254"/><trkpt lat="69.11804532977352" lon="26.512241363525394"/><trkpt lat="69.11804532977352" lon="26.511726379394535"/><trkpt lat="69.11804532977352" lon="26.511211395263675"/><trkpt lat="69.11804532977352" lon="26.510696411132816"/><trkpt lat="69.11804532977352" lon="26.510181427001957"/><trkpt lat="69.11798414206234" lon="26.509666442871097"/><trkpt lat="69.11798414206234" lon="26.509151458740234"/><trkpt lat="69.11792295417989" lon="26.508636474609375"/><trkpt lat="69.11792295417989" lon="26.50812149047852"/><trkpt lat="69.11786176612615" lon="26.50760650634766"/><trkpt lat="69.11780057790112" lon="26.5070915222168"/><trkpt lat="69.11773938950482" lon="26.50657653808594"/><trkpt lat="69.11767820093722" lon="26.50606155395508"/><trkpt lat="69.11761701219837" lon="26.505546569824222"/><trkpt lat="69.11755582328821" lon="26.505031585693363"/><trkpt lat="69.11749463420676" lon="26.504516601562504"/><trkpt lat="69.11749463420676" lon="26.50400161743164"/><trkpt lat="69.11743344495406" lon="26.50348663330078"/><trkpt lat="69.11737225553003" lon="26.502971649169925"/><trkpt lat="69.11731106593476" lon="26.502456665039066"/><trkpt lat="69.11731106593476" lon="26.501941680908207"/><trkpt lat="69.11731106593476" lon="26.501426696777347"/><trkpt lat="69.11731106593476" lon="26.500911712646488"/><trkpt lat="69.11731106593476" lon="26.50039672851563"/><trkpt lat="69.11731106593476" lon="26.499710083007816"/><trkpt lat="69.11731106593476" lon="26.499195098876957"/><trkpt lat="69.11731106593476" lon="26.498680114746094"/><trkpt lat="69.11737225553003" lon="26.498165130615234"/><trkpt lat="69.11743344495406" lon="26.49765014648438"/><trkpt lat="69.11749463420676" lon="26.49713516235352"/><trkpt lat="69.11761701219837" lon="26.496791839599613"/><trkpt lat="69.11767820093722" lon="26.496276855468754"/><trkpt lat="69.11773938950482" lon="26.495761871337894"/><trkpt lat="69.11786176612615" lon="26.495246887207035"/><trkpt lat="69.11798414206234" lon="26.49490356445313"/><trkpt lat="69.11810651731342" lon="26.494560241699222"/><trkpt lat="69.11829007890545" lon="26.49438858032227"/><trkpt lat="69.11847363895595" lon="26.494216918945316"/><trkpt lat="69.11865719746497" lon="26.494045257568363"/><trkpt lat="69.11884075443247" lon="26.49387359619141"/><trkpt lat="69.11902430985853" lon="26.493701934814457"/><trkpt lat="69.11920786374313" lon="26.4935302734375"/><trkpt lat="69.11939141608626" lon="26.4935302734375"/><trkpt lat="69.11957496688794" lon="26.4935302734375"/><trkpt lat="69.11975851614818" lon="26.4935302734375"/><trkpt lat="69.11994206386704" lon="26.4935302734375"/><trkpt lat="69.12012561004447" lon="26.4935302734375"/><trkpt lat="69.1203091546805" lon="26.4935302734375"/><trkpt lat="69.12049269777513" lon="26.493701934814457"/><trkpt lat="69.12067623932839" lon="26.49387359619141"/><trkpt lat="69.12085977934028" lon="26.49387359619141"/><trkpt lat="69.12098213849193" lon="26.494216918945316"/><trkpt lat="69.12116567593489" lon="26.49438858032227"/><trkpt lat="69.12128803337392" lon="26.494731903076175"/><trkpt lat="69.12147156824801" lon="26.49490356445313"/><trkpt lat="69.12165510158079" lon="26.495246887207035"/><trkpt lat="69.12183863337226" lon="26.49559020996094"/><trkpt lat="69.12202216362245" lon="26.495933532714847"/><trkpt lat="69.12214451626629" lon="26.496276855468754"/><trkpt lat="69.12232804394765" lon="26.49662017822266"/><trkpt lat="69.12245039487898" lon="26.496963500976566"/><trkpt lat="69.1226339199916" lon="26.49713516235352"/><trkpt lat="69.12275626921043" lon="26.497478485107425"/><trkpt lat="69.12287861774423" lon="26.49782180786133"/><trkpt lat="69.12300096559308" lon="26.498165130615234"/><trkpt lat="69.12318448608198" lon="26.49850845336914"/><trkpt lat="69.12330683221833" lon="26.498851776123047"/><trkpt lat="69.12342917766972" lon="26.499195098876957"/><trkpt lat="69.12355152243616" lon="26.499538421630863"/><trkpt lat="69.12373503830142" lon="26.499710083007816"/><trkpt lat="69.12391855262554" lon="26.500053405761722"/><trkpt lat="69.12410206540848" lon="26.500225067138675"/><trkpt lat="69.12422440640758" lon="26.50056838989258"/><trkpt lat="69.1244079166219" lon="26.500740051269535"/><trkpt lat="69.12459142529511" lon="26.50108337402344"/><trkpt lat="69.12477493242719" lon="26.501426696777347"/><trkpt lat="69.12495843801814" lon="26.5015983581543"/><trkpt lat="69.12508077422261" lon="26.501941680908207"/><trkpt lat="69.12526427724507" lon="26.50211334228516"/><trkpt lat="69.1253866117372" lon="26.502456665039066"/><trkpt lat="69.12557011219118" lon="26.50262832641602"/><trkpt lat="69.12569244497101" lon="26.502971649169925"/><trkpt lat="69.12587594285655" lon="26.50314331054688"/><trkpt lat="69.12605943920103" lon="26.50348663330078"/><trkpt lat="69.12624293400447" lon="26.503658294677734"/><trkpt lat="69.12642642726688" lon="26.503829956054688"/><trkpt lat="69.12660991898828" lon="26.50400161743164"/><trkpt lat="69.12679340916866" lon="26.504173278808594"/><trkpt lat="69.12697689780805" lon="26.50434494018555"/><trkpt lat="69.12716038490645" lon="26.504516601562504"/><trkpt lat="69.12734387046387" lon="26.504516601562504"/><trkpt lat="69.12752735448035" lon="26.504516601562504"/><trkpt lat="69.12771083695587" lon="26.504688262939457"/><trkpt lat="69.12789431789042" lon="26.504688262939457"/><trkpt lat="69.12820011602376" lon="26.505031585693363"/><trkpt lat="69.12820011602376" lon="26.505031585693363"/><trkpt lat="69.1283835928492" lon="26.505031585693363"/><trkpt lat="69.12856706813378" lon="26.505203247070316"/><trkpt lat="69.12875054187744" lon="26.505203247070316"/><trkpt lat="69.1289340140802" lon="26.505203247070316"/><trkpt lat="69.1291174847421" lon="26.505203247070316"/><trkpt lat="69.12930095386317" lon="26.50537490844727"/><trkpt lat="69.1294844214434" lon="26.50537490844727"/><trkpt lat="69.12966788748275" lon="26.505546569824222"/><trkpt lat="69.1298513519813" lon="26.505718231201175"/><trkpt lat="69.13003481493905" lon="26.505718231201175"/><trkpt lat="69.13021827635598" lon="26.50588989257813"/><trkpt lat="69.13040173623213" lon="26.50588989257813"/><trkpt lat="69.1305851945675" lon="26.50606155395508"/><trkpt lat="69.13076865136212" lon="26.506233215332035"/><trkpt lat="69.13095210661595" lon="26.506404876708988"/><trkpt lat="69.13113556032907" lon="26.506404876708988"/><trkpt lat="69.13131901250144" lon="26.50657653808594"/><trkpt lat="69.13150246313307" lon="26.50657653808594"/><trkpt lat="69.131685912224" lon="26.506748199462894"/><trkpt lat="69.13186935977423" lon="26.506748199462894"/><trkpt lat="69.13205280578376" lon="26.506919860839847"/><trkpt lat="69.13223625025262" lon="26.5070915222168"/><trkpt lat="69.1324196931808" lon="26.507263183593754"/><trkpt lat="69.13260313456834" lon="26.507434844970707"/><trkpt lat="69.13272542797077" lon="26.507778167724613"/><trkpt lat="69.13290886679056" lon="26.507949829101566"/><trkpt lat="69.13309230406975" lon="26.50812149047852"/><trkpt lat="69.13321459473327" lon="26.508464813232425"/><trkpt lat="69.13339802944476" lon="26.508636474609375"/><trkpt lat="69.13358146261564" lon="26.508808135986328"/><trkpt lat="69.13376489424593" lon="26.50897979736328"/><trkpt lat="69.13394832433565" lon="26.509151458740234"/><trkpt lat="69.1341317528848" lon="26.509323120117188"/><trkpt lat="69.13431517989338" lon="26.50949478149414"/><trkpt lat="69.13449860536143" lon="26.509666442871097"/><trkpt lat="69.13468202928895" lon="26.50983810424805"/><trkpt lat="69.13486545167596" lon="26.510009765625004"/><trkpt lat="69.13504887252245" lon="26.510009765625004"/><trkpt lat="69.13523229182844" lon="26.510181427001957"/><trkpt lat="69.13541570959394" lon="26.51035308837891"/><trkpt lat="69.13559912581898" lon="26.510524749755863"/><trkpt lat="69.13578254050353" lon="26.510696411132816"/><trkpt lat="69.13596595364764" lon="26.51086807250977"/><trkpt lat="69.1361493652513" lon="26.511211395263675"/><trkpt lat="69.13633277531453" lon="26.51138305664063"/><trkpt lat="69.13651618383734" lon="26.511726379394535"/><trkpt lat="69.13669959081973" lon="26.51206970214844"/><trkpt lat="69.13688299626175" lon="26.512241363525394"/><trkpt lat="69.13700526570062" lon="26.5125846862793"/><trkpt lat="69.13718866857532" lon="26.512756347656254"/><trkpt lat="69.1373109363027" lon="26.51309967041016"/><trkpt lat="69.1374943366101" lon="26.513271331787113"/><trkpt lat="69.13761660262597" lon="26.51361465454102"/><trkpt lat="69.13773886795722" lon="26.513957977294922"/><trkpt lat="69.1379222646705" lon="26.514129638671875"/><trkpt lat="69.13804452829028" lon="26.51447296142578"/><trkpt lat="69.13816679122547" lon="26.514816284179688"/><trkpt lat="69.13828905347609" lon="26.515159606933597"/><trkpt lat="69.13847244556842" lon="26.51533126831055"/><trkpt lat="69.13859470610761" lon="26.515674591064457"/><trkpt lat="69.1387169659622" lon="26.516017913818363"/><trkpt lat="69.13883922513222" lon="26.51636123657227"/><trkpt lat="69.1389614836177" lon="26.516704559326175"/><trkpt lat="69.1390837414186" lon="26.51704788208008"/><trkpt lat="69.13920599853495" lon="26.517391204833988"/><trkpt lat="69.13938938292594" lon="26.51756286621094"/><trkpt lat="69.13951163833089" lon="26.517906188964847"/><trkpt lat="69.13969502015483" lon="26.5180778503418"/><trkpt lat="69.13987840043853" lon="26.518249511718754"/><trkpt lat="69.14006177918205" lon="26.518421173095707"/><trkpt lat="69.14024515638533" lon="26.51859283447266"/><trkpt lat="69.14042853204846" lon="26.518936157226566"/><trkpt lat="69.1406119061714" lon="26.51910781860352"/><trkpt lat="69.14079527875418" lon="26.51927947998047"/><trkpt lat="69.1409786497968" lon="26.519451141357422"/><trkpt lat="69.14116201929929" lon="26.519451141357422"/><trkpt lat="69.14134538726167" lon="26.519451141357422"/><trkpt lat="69.14152875368389" lon="26.519451141357422"/><trkpt lat="69.14171211856602" lon="26.519451141357422"/><trkpt lat="69.14189548190807" lon="26.519451141357422"/><trkpt lat="69.14207884371001" lon="26.519451141357422"/><trkpt lat="69.14226220397185" lon="26.519622802734375"/><trkpt lat="69.14244556269368" lon="26.519622802734375"/><trkpt lat="69.14262891987543" lon="26.519622802734375"/><trkpt lat="69.14281227551714" lon="26.519451141357422"/><trkpt lat="69.14299562961882" lon="26.519451141357422"/><trkpt lat="69.1431789821805" lon="26.519451141357422"/><trkpt lat="69.14336233320215" lon="26.519451141357422"/><trkpt lat="69.1435456826838" lon="26.51927947998047"/><trkpt lat="69.14372903062547" lon="26.51910781860352"/><trkpt lat="69.14391237702715" lon="26.518936157226566"/><trkpt lat="69.14409572188887" lon="26.518764495849613"/><trkpt lat="69.14427906521065" lon="26.51859283447266"/><trkpt lat="69.14446240699249" lon="26.51859283447266"/><trkpt lat="69.14464574723442" lon="26.51859283447266"/><trkpt lat="69.14482908593638" lon="26.51859283447266"/><trkpt lat="69.14501242309848" lon="26.51859283447266"/><trkpt lat="69.14519575872063" lon="26.51859283447266"/><trkpt lat="69.14537909280293" lon="26.518764495849613"/><trkpt lat="69.14556242534533" lon="26.518764495849613"/><trkpt lat="69.14574575634788" lon="26.518764495849613"/><trkpt lat="69.14592908581058" lon="26.518936157226566"/><trkpt lat="69.14611241373345" lon="26.51910781860352"/><trkpt lat="69.14629574011646" lon="26.51927947998047"/><trkpt lat="69.14647906495965" lon="26.519451141357422"/><trkpt lat="69.14666238826304" lon="26.519622802734375"/><trkpt lat="69.14678460294317" lon="26.51996612548828"/><trkpt lat="69.14690681693898" lon="26.52030944824219"/><trkpt lat="69.14709013664952" lon="26.520481109619144"/><trkpt lat="69.1472734548203" lon="26.52082443237305"/><trkpt lat="69.14745677145129" lon="26.520996093750004"/><trkpt lat="69.14745677145129" lon="26.520996093750004"/><trkpt lat="69.14745677145129" lon="26.520996093750004"/><trkpt lat="69.14757898168322" lon="26.52133941650391"/><trkpt lat="69.14776229574798" lon="26.521511077880863"/><trkpt lat="69.14788450426909" lon="26.52185440063477"/><trkpt lat="69.14800671210587" lon="26.522197723388675"/><trkpt lat="69.14812891925831" lon="26.52254104614258"/><trkpt lat="69.14831222870393" lon="26.522712707519535"/><trkpt lat="69.1484344341456" lon="26.52305603027344"/><trkpt lat="69.14855663890297" lon="26.523399353027347"/><trkpt lat="69.14867884297604" lon="26.523742675781254"/><trkpt lat="69.1488010463648" lon="26.524257659912113"/><trkpt lat="69.14892324906928" lon="26.52477264404297"/><trkpt lat="69.14904545108946" lon="26.525287628173828"/><trkpt lat="69.14916765242533" lon="26.525630950927738"/><trkpt lat="69.14928985307691" lon="26.525974273681644"/><trkpt lat="69.14947315277128" lon="26.52631759643555"/><trkpt lat="69.14959535171218" lon="26.526660919189457"/><trkpt lat="69.1497175499688" lon="26.527004241943363"/><trkpt lat="69.14983974754114" lon="26.527519226074222"/><trkpt lat="69.1499619444292" lon="26.52786254882813"/><trkpt lat="69.15008414063301" lon="26.528205871582035"/><trkpt lat="69.15020633615255" lon="26.52854919433594"/><trkpt lat="69.15032853098782" lon="26.528892517089847"/><trkpt lat="69.15045072513885" lon="26.529235839843754"/><trkpt lat="69.1505729186056" lon="26.52957916259766"/><trkpt lat="69.15069511138813" lon="26.529922485351562"/><trkpt lat="69.15081730348642" lon="26.53026580810547"/><trkpt lat="69.15093949490044" lon="26.530609130859375"/><trkpt lat="69.15106168563024" lon="26.530952453613285"/><trkpt lat="69.15118387567581" lon="26.531467437744144"/><trkpt lat="69.1513060650371" lon="26.53181076049805"/><trkpt lat="69.15142825371419" lon="26.532154083251957"/><trkpt lat="69.15155044170706" lon="26.532497406005863"/><trkpt lat="69.15167262901569" lon="26.53284072875977"/><trkpt lat="69.15179481564012" lon="26.533184051513675"/><trkpt lat="69.15191700158033" lon="26.53352737426758"/><trkpt lat="69.1520391868363" lon="26.53404235839844"/><trkpt lat="69.15222246343738" lon="26.534385681152347"/><trkpt lat="69.15234464698287" lon="26.534729003906254"/><trkpt lat="69.15246682984413" lon="26.535072326660156"/><trkpt lat="69.15258901202118" lon="26.535587310791016"/><trkpt lat="69.15271119351407" lon="26.535930633544922"/><trkpt lat="69.15283337432271" lon="26.53627395629883"/><trkpt lat="69.1529555544472" lon="26.53678894042969"/><trkpt lat="69.1530777338875" lon="26.537132263183597"/><trkpt lat="69.15319991264363" lon="26.537475585937504"/><trkpt lat="69.15332209071556" lon="26.53781890869141"/><trkpt lat="69.15344426810331" lon="26.538162231445316"/><trkpt lat="69.15356644480691" lon="26.538505554199222"/><trkpt lat="69.15374970857948" lon="26.53884887695313"/><trkpt lat="69.15393297081266" lon="26.539192199707035"/><trkpt lat="69.1541162315065" lon="26.53953552246094"/><trkpt lat="69.15423840444721" lon="26.539878845214847"/><trkpt lat="69.15442166257544" lon="26.540222167968754"/><trkpt lat="69.15454383380576" lon="26.540565490722656"/><trkpt lat="69.15472708936849" lon="26.540908813476562"/><trkpt lat="69.15484925888846" lon="26.54125213623047"/><trkpt lat="69.15497142772429" lon="26.54159545898438"/><trkpt lat="69.15509359587598" lon="26.541938781738285"/><trkpt lat="69.15521576334356" lon="26.54228210449219"/><trkpt lat="69.15533793012699" lon="26.542625427246097"/><trkpt lat="69.15546009622632" lon="26.542968750000004"/><trkpt lat="69.15558226164153" lon="26.54331207275391"/><trkpt lat="69.15570442637262" lon="26.54382705688477"/><trkpt lat="69.15582659041961" lon="26.544170379638675"/><trkpt lat="69.15594875378245" lon="26.54451370239258"/><trkpt lat="69.15613199754405" lon="26.544857025146488"/><trkpt lat="69.15625415919665" lon="26.545200347900394"/><trkpt lat="69.15637632016517" lon="26.5455436706543"/><trkpt lat="69.1564984804496" lon="26.545886993408203"/><trkpt lat="69.15655956033527" lon="26.546401977539062"/><trkpt lat="69.15668171959355" lon="26.546916961669925"/><trkpt lat="69.15680387816774" lon="26.54726028442383"/><trkpt lat="69.15686495719831" lon="26.54777526855469"/><trkpt lat="69.15692603605785" lon="26.54829025268555"/><trkpt lat="69.15698711474637" lon="26.54880523681641"/><trkpt lat="69.15704819326389" lon="26.54932022094727"/><trkpt lat="69.15710927161035" lon="26.54983520507813"/><trkpt lat="69.15717034978583" lon="26.550350189208988"/><trkpt lat="69.15717034978583" lon="26.550865173339847"/><trkpt lat="69.1572314277903" lon="26.551380157470703"/><trkpt lat="69.15735358328614" lon="26.55172348022461"/><trkpt lat="69.15741466077752" lon="26.552238464355472"/><trkpt lat="69.1574757380979" lon="26.55275344848633"/><trkpt lat="69.15759789222562" lon="26.55326843261719"/><trkpt lat="69.15765896903295" lon="26.55378341674805"/><trkpt lat="69.15772004566927" lon="26.55429840087891"/><trkpt lat="69.15772004566927" lon="26.55481338500977"/><trkpt lat="69.15778112213458" lon="26.55532836914063"/><trkpt lat="69.15784219842887" lon="26.555843353271488"/><trkpt lat="69.15790327455215" lon="26.556358337402344"/><trkpt lat="69.15796435050441" lon="26.556873321533203"/><trkpt lat="69.15802542628565" lon="26.557388305664066"/><trkpt lat="69.1580865018959" lon="26.557903289794925"/><trkpt lat="69.1581475773351" lon="26.558418273925785"/><trkpt lat="69.15826972770053" lon="26.558933258056644"/><trkpt lat="69.1583308026267" lon="26.559448242187504"/><trkpt lat="69.15839187738189" lon="26.559963226318363"/><trkpt lat="69.15851402637921" lon="26.560478210449222"/><trkpt lat="69.15857510062136" lon="26.56099319458008"/><trkpt lat="69.15869724859265" lon="26.561336517333988"/><trkpt lat="69.15881939587989" lon="26.56167984008789"/><trkpt lat="69.1589415424831" lon="26.562023162841797"/><trkpt lat="69.15912476110539" lon="26.56219482421875"/><trkpt lat="69.15924690599853" lon="26.562538146972656"/><trkpt lat="69.15943012205572" lon="26.562881469726566"/><trkpt lat="69.1596133365739" lon="26.563224792480472"/><trkpt lat="69.15979654955306" lon="26.563396453857425"/><trkpt lat="69.15991869068417" lon="26.56373977661133"/><trkpt lat="69.1601019010983" lon="26.563911437988285"/><trkpt lat="69.16028510997349" lon="26.564083099365238"/><trkpt lat="69.1604072483686" lon="26.564426422119144"/><trkpt lat="69.16059045467881" lon="26.564598083496097"/><trkpt lat="69.16071259136397" lon="26.564941406250004"/><trkpt lat="69.16083472736514" lon="26.56528472900391"/><trkpt lat="69.16095686268237" lon="26.565628051757816"/><trkpt lat="69.1610789973156" lon="26.565971374511722"/><trkpt lat="69.16126219798302" lon="26.56631469726563"/><trkpt lat="69.16138433090633" lon="26.566658020019535"/><trkpt lat="69.16156752900889" lon="26.566829681396488"/><trkpt lat="69.16168966022232" lon="26.56717300415039"/><trkpt lat="69.16187285576004" lon="26.567344665527344"/><trkpt lat="69.1619949852636" lon="26.56768798828125"/><trkpt lat="69.16211711408322" lon="26.56803131103516"/><trkpt lat="69.16223924221887" lon="26.568374633789066"/><trkpt lat="69.16236136967062" lon="26.568717956542972"/><trkpt lat="69.16254455956586" lon="26.568889617919925"/><trkpt lat="69.16266668530776" lon="26.56923294067383"/><trkpt lat="69.16284987263825" lon="26.569404602050785"/><trkpt lat="69.16297199667034" lon="26.56974792480469"/><trkpt lat="69.16315518143615" lon="26.569919586181644"/><trkpt lat="69.16327730375845" lon="26.57026290893555"/><trkpt lat="69.16339942539685" lon="26.570606231689457"/><trkpt lat="69.1640100233303" lon="26.572151184082035"/><trkpt lat="69.1640100233303" lon="26.572322845458984"/><trkpt lat="69.16407108218328" lon="26.572837829589844"/><trkpt lat="69.16419319937637" lon="26.57318115234375"/><trkpt lat="69.16425425771642" lon="26.573696136474613"/><trkpt lat="69.16431531588553" lon="26.574211120605472"/><trkpt lat="69.16431531588553" lon="26.57472610473633"/><trkpt lat="69.16437637388367" lon="26.57524108886719"/><trkpt lat="69.16443743171085" lon="26.57575607299805"/><trkpt lat="69.16449848936703" lon="26.57627105712891"/><trkpt lat="69.16449848936703" lon="26.57678604125977"/><trkpt lat="69.16449848936703" lon="26.57747268676758"/><trkpt lat="69.16455954685226" lon="26.577987670898438"/><trkpt lat="69.16462060416652" lon="26.578502655029297"/><trkpt lat="69.16468166130981" lon="26.57901763916016"/><trkpt lat="69.16474271828214" lon="26.57953262329102"/><trkpt lat="69.16486483171387" lon="26.579875946044925"/><trkpt lat="69.16492588817329" lon="26.580390930175785"/><trkpt lat="69.16498694446173" lon="26.580905914306644"/><trkpt lat="69.16510905652575" lon="26.58124923706055"/><trkpt lat="69.16517011230133" lon="26.58176422119141"/><trkpt lat="69.1652311679059" lon="26.58227920532227"/><trkpt lat="69.16529222333952" lon="26.58279418945313"/><trkpt lat="69.16535327860218" lon="26.583309173583984"/><trkpt lat="69.16535327860218" lon="26.583824157714847"/><trkpt lat="69.1654143336939" lon="26.584339141845707"/><trkpt lat="69.16547538861464" lon="26.584854125976566"/><trkpt lat="69.16553644336442" lon="26.585369110107425"/><trkpt lat="69.16565855235109" lon="26.58571243286133"/><trkpt lat="69.16571960658796" lon="26.58622741699219"/><trkpt lat="69.16584171454885" lon="26.586570739746097"/><trkpt lat="69.16590276827286" lon="26.587085723876957"/><trkpt lat="69.16602487520801" lon="26.587429046630863"/><trkpt lat="69.1661469814593" lon="26.58777236938477"/><trkpt lat="69.16626908702678" lon="26.588287353515625"/><trkpt lat="69.16639119191042" lon="26.58863067626953"/><trkpt lat="69.16651329611022" lon="26.588973999023438"/><trkpt lat="69.16663539962624" lon="26.589317321777347"/><trkpt lat="69.16681855361804" lon="26.5894889831543"/><trkpt lat="69.1670017060713" lon="26.589832305908207"/><trkpt lat="69.16718485698597" lon="26.59000396728516"/><trkpt lat="69.16730695674099" lon="26.590347290039066"/><trkpt lat="69.1674901050914" lon="26.59051895141602"/><trkpt lat="69.16761220313694" lon="26.590862274169925"/><trkpt lat="69.16779534892311" lon="26.59120559692383"/><trkpt lat="69.16791744525916" lon="26.591548919677738"/><trkpt lat="69.16810058848115" lon="26.591892242431644"/><trkpt lat="69.1681616358799" lon="26.592407226562504"/><trkpt lat="69.16828373016462" lon="26.59275054931641"/><trkpt lat="69.16840582376555" lon="26.593093872070316"/><trkpt lat="69.1685279166827" lon="26.59343719482422"/><trkpt lat="69.16858896288488" lon="26.593952178955078"/><trkpt lat="69.1687110547764" lon="26.594295501708984"/><trkpt lat="69.16883314598414" lon="26.594638824462894"/><trkpt lat="69.16895523650813" lon="26.5949821472168"/><trkpt lat="69.16907732634833" lon="26.595325469970707"/><trkpt lat="69.1691994155048" lon="26.595668792724613"/><trkpt lat="69.16932150397753" lon="26.59601211547852"/><trkpt lat="69.16944359176651" lon="26.596355438232425"/><trkpt lat="69.16956567887175" lon="26.59669876098633"/><trkpt lat="69.16968776529325" lon="26.597042083740238"/><trkpt lat="69.16980985103098" lon="26.597557067871097"/><trkpt lat="69.169931936085" lon="26.597900390625004"/><trkpt lat="69.1700540204553" lon="26.598415374755863"/><trkpt lat="69.17017610414185" lon="26.598758697509766"/><trkpt lat="69.17023714572873" lon="26.599273681640625"/><trkpt lat="69.1703592283897" lon="26.59961700439453"/><trkpt lat="69.17048131036697" lon="26.59996032714844"/><trkpt lat="69.17060339166049" lon="26.600303649902347"/><trkpt lat="69.17072547227032" lon="26.600646972656254"/><trkpt lat="69.17084755219645" lon="26.60099029541016"/><trkpt lat="69.17096963143887" lon="26.601333618164066"/><trkpt lat="69.17109170999757" lon="26.601676940917972"/><trkpt lat="69.17121378787256" lon="26.60202026367188"/><trkpt lat="69.17139690340315" lon="26.602363586425785"/><trkpt lat="69.17158001739543" lon="26.602535247802738"/><trkpt lat="69.17170209253565" lon="26.602878570556644"/><trkpt lat="69.17182416699224" lon="26.60322189331055"/><trkpt lat="69.17188520396411" lon="26.60373687744141"/><trkpt lat="69.17200727739515" lon="26.604080200195312"/><trkpt lat="69.17212935014253" lon="26.60442352294922"/><trkpt lat="69.17231245798169" lon="26.604766845703125"/><trkpt lat="69.17298384023144" lon="26.605625152587894"/><trkpt lat="69.1735331375991" lon="26.606140136718754"/><trkpt lat="69.1748758062186" lon="26.608028411865238"/><trkpt lat="69.17573018863678" lon="26.6114616394043"/><trkpt lat="69.17621839212273" lon="26.617813110351566"/><trkpt lat="69.1759742917469" lon="26.623649597167972"/><trkpt lat="69.17566916243202" lon="26.628112792968754"/><trkpt lat="69.17518094664169" lon="26.63223266601563"/><trkpt lat="69.17432654269031" lon="26.63566589355469"/><trkpt lat="69.17432654269031" lon="26.638240814208988"/><trkpt lat="69.17383829682153" lon="26.639785766601566"/></trkseg></trk></gpx>