<?xml version="1.0"?>
<gpx xmlns="http://www.topografix.com/GPX/1/1" xmlns:gpxx="http://www.garmin.com/xmlschemas/GpxExtensions/v3" creator="CALTOPO" version="1.1"><metadata><name><![CDATA[Stuorravzi]]></name></metadata><trk><name>Stuorravzi</name><extensions><gpxx:TrackExtension><gpxx:DisplayColor>Red</gpxx:DisplayColor></gpxx:TrackExtension></extensions><trkseg><trkpt lat="69.29954511219482" lon="26.09956741333008"/><trkpt lat="69.29954511219482" lon="26.099052429199222"/><trkpt lat="69.2994844328565" lon="26.098537445068363"/><trkpt lat="69.2993630736697" lon="26.098194122314457"/><trkpt lat="69.2993023938212" lon="26.097679138183597"/><trkpt lat="69.29918103361399" lon="26.09733581542969"/><trkpt lat="69.2991203532553" lon="26.09682083129883"/><trkpt lat="69.29905967272653" lon="26.096305847167972"/><trkpt lat="69.29893831115879" lon="26.095962524414062"/><trkpt lat="69.29887763011985" lon="26.095447540283203"/><trkpt lat="69.29881694891083" lon="26.094932556152344"/><trkpt lat="69.29869558598257" lon="26.09458923339844"/><trkpt lat="69.29863490426335" lon="26.09407424926758"/><trkpt lat="69.29857422237406" lon="26.093559265136722"/><trkpt lat="69.29851354031467" lon="26.093044281005863"/><trkpt lat="69.29839217568576" lon="26.092700958251957"/><trkpt lat="69.29833149311618" lon="26.092185974121097"/><trkpt lat="69.29827081037655" lon="26.091670989990238"/><trkpt lat="69.29814944438705" lon="26.09132766723633"/><trkpt lat="69.29808876113721" lon="26.090812683105472"/><trkpt lat="69.29796739412728" lon="26.090469360351562"/><trkpt lat="69.29790671036723" lon="26.089954376220703"/><trkpt lat="69.29784602643707" lon="26.089439392089847"/><trkpt lat="69.29778534233688" lon="26.088924407958988"/><trkpt lat="69.29766397362621" lon="26.08840942382813"/><trkpt lat="69.29760328901578" lon="26.08789443969727"/><trkpt lat="69.29748191928468" lon="26.087551116943363"/><trkpt lat="69.297421234164" lon="26.087036132812504"/><trkpt lat="69.29729986341245" lon="26.086692810058597"/><trkpt lat="69.29711780600957" lon="26.086521148681644"/><trkpt lat="69.29699643355723" lon="26.086177825927738"/><trkpt lat="69.29681437360315" lon="26.086006164550785"/><trkpt lat="69.29663231211835" lon="26.08566284179688"/><trkpt lat="69.29645024910279" lon="26.085491180419925"/><trkpt lat="69.29626818455651" lon="26.08531951904297"/><trkpt lat="69.29614680734191" lon="26.084976196289062"/><trkpt lat="69.29596474024437" lon="26.08480453491211"/><trkpt lat="69.29584336132892" lon="26.084461212158203"/><trkpt lat="69.29566129168008" lon="26.08428955078125"/><trkpt lat="69.29547922050045" lon="26.0841178894043"/><trkpt lat="69.29529714779001" lon="26.083946228027347"/><trkpt lat="69.29511507354876" lon="26.083774566650394"/><trkpt lat="69.2949329977767" lon="26.08360290527344"/><trkpt lat="69.29475092047379" lon="26.083431243896488"/><trkpt lat="69.29456884164004" lon="26.083431243896488"/><trkpt lat="69.29438676127543" lon="26.083259582519535"/><trkpt lat="69.29420467937996" lon="26.08308792114258"/><trkpt lat="69.2940225959536" lon="26.08291625976563"/><trkpt lat="69.29384051099635" lon="26.08291625976563"/><trkpt lat="69.29365842450821" lon="26.082744598388675"/><trkpt lat="69.29347633648912" lon="26.082572937011722"/><trkpt lat="69.29329424693914" lon="26.08240127563477"/><trkpt lat="69.29311215585822" lon="26.082229614257816"/><trkpt lat="69.29293006324637" lon="26.082229614257816"/><trkpt lat="69.29274796910352" lon="26.082057952880863"/><trkpt lat="69.29256587342977" lon="26.08188629150391"/><trkpt lat="69.29238377622498" lon="26.081714630126957"/><trkpt lat="69.29220167748923" lon="26.08137130737305"/><trkpt lat="69.29201957722246" lon="26.081199645996097"/><trkpt lat="69.29183747542469" lon="26.08085632324219"/><trkpt lat="69.29165537209589" lon="26.080513000488285"/><trkpt lat="69.29147326723607" lon="26.08016967773438"/><trkpt lat="69.29135186314561" lon="26.07982635498047"/><trkpt lat="69.29123045837467" lon="26.079483032226562"/><trkpt lat="69.29104834994237" lon="26.079139709472656"/><trkpt lat="69.29092694347027" lon="26.078796386718754"/><trkpt lat="69.29080553631766" lon="26.078453063964847"/><trkpt lat="69.29068412848459" lon="26.07810974121094"/><trkpt lat="69.29056271997102" lon="26.077766418457035"/><trkpt lat="69.29044131077697" lon="26.07742309570313"/><trkpt lat="69.29031990090242" lon="26.07690811157227"/><trkpt lat="69.29019849034736" lon="26.07639312744141"/><trkpt lat="69.29007707911184" lon="26.07587814331055"/><trkpt lat="69.29001637323888" lon="26.07536315917969"/><trkpt lat="69.2898949609826" lon="26.075019836425785"/><trkpt lat="69.28983425459926" lon="26.074504852294922"/><trkpt lat="69.2897128413222" lon="26.073989868164062"/><trkpt lat="69.28959142736463" lon="26.07364654541016"/><trkpt lat="69.28953072013064" lon="26.0731315612793"/><trkpt lat="69.2894093051523" lon="26.072788238525394"/><trkpt lat="69.28928788949344" lon="26.072273254394535"/><trkpt lat="69.28916647315404" lon="26.07192993164063"/><trkpt lat="69.28904505613414" lon="26.07141494750977"/><trkpt lat="69.28892363843372" lon="26.071071624755863"/><trkpt lat="69.28880222005274" lon="26.070556640625004"/><trkpt lat="69.28868080099123" lon="26.070041656494144"/><trkpt lat="69.28855938124916" lon="26.069698333740238"/><trkpt lat="69.28843796082658" lon="26.069355010986328"/><trkpt lat="69.28831653972344" lon="26.069011688232422"/><trkpt lat="69.28819511793975" lon="26.068668365478516"/><trkpt lat="69.2880736954755" lon="26.068325042724613"/><trkpt lat="69.2879522723307" lon="26.067981719970707"/><trkpt lat="69.28777013633749" lon="26.067810058593754"/><trkpt lat="69.28758799881297" lon="26.0676383972168"/><trkpt lat="69.28740585975717" lon="26.067466735839847"/><trkpt lat="69.28722371917009" lon="26.067295074462894"/><trkpt lat="69.2870415770517" lon="26.06712341308594"/><trkpt lat="69.28685943340199" lon="26.06712341308594"/><trkpt lat="69.28667728822096" lon="26.06712341308594"/><trkpt lat="69.2864951415086" lon="26.066951751708988"/><trkpt lat="69.28631299326487" lon="26.066951751708988"/><trkpt lat="69.2861308434898" lon="26.066951751708988"/><trkpt lat="69.28594869218338" lon="26.066951751708988"/><trkpt lat="69.28576653934556" lon="26.066951751708988"/><trkpt lat="69.28558438497636" lon="26.06712341308594"/><trkpt lat="69.28540222907574" lon="26.06712341308594"/><trkpt lat="69.2852807909579" lon="26.067466735839847"/><trkpt lat="69.28509863250493" lon="26.0676383972168"/><trkpt lat="69.28497719268549" lon="26.067981719970707"/><trkpt lat="69.28485575218541" lon="26.068325042724613"/><trkpt lat="69.28467359015909" lon="26.068496704101562"/><trkpt lat="69.2845521479574" lon="26.06884002685547"/><trkpt lat="69.28436998337862" lon="26.069011688232422"/><trkpt lat="69.28418781726839" lon="26.069355010986328"/><trkpt lat="69.28400564962666" lon="26.069526672363285"/><trkpt lat="69.28388420368135" lon="26.06986999511719"/><trkpt lat="69.28376275705537" lon="26.070213317871097"/><trkpt lat="69.28364130974872" lon="26.070556640625004"/><trkpt lat="69.28345913751248" lon="26.070728302001957"/><trkpt lat="69.28333768850415" lon="26.071071624755863"/><trkpt lat="69.28315551371533" lon="26.071243286132816"/><trkpt lat="69.28297333739496" lon="26.07141494750977"/><trkpt lat="69.28285188566386" lon="26.071758270263675"/><trkpt lat="69.28266970679091" lon="26.07192993164063"/><trkpt lat="69.28254825335806" lon="26.072273254394535"/><trkpt lat="69.28236607193247" lon="26.072444915771488"/><trkpt lat="69.28224461679785" lon="26.072788238525394"/><trkpt lat="69.2820624328196" lon="26.072959899902347"/><trkpt lat="69.28188024730973" lon="26.0731315612793"/><trkpt lat="69.28175878945221" lon="26.073474884033207"/><trkpt lat="69.28157660138965" lon="26.07364654541016"/><trkpt lat="69.2813944117954" lon="26.07381820678711"/><trkpt lat="69.2812122206695" lon="26.073989868164062"/><trkpt lat="69.28103002801195" lon="26.074161529541016"/><trkpt lat="69.28090856538931" lon="26.074504852294922"/><trkpt lat="69.28072637017894" lon="26.074676513671875"/><trkpt lat="69.2805441734369" lon="26.07484817504883"/><trkpt lat="69.28042270809122" lon="26.075191497802738"/><trkpt lat="69.28024050879634" lon="26.07536315917969"/><trkpt lat="69.2800583079697" lon="26.07536315917969"/><trkpt lat="69.27987610561132" lon="26.075534820556644"/><trkpt lat="69.27969390172119" lon="26.075706481933597"/><trkpt lat="69.27951169629931" lon="26.075706481933597"/><trkpt lat="69.27932948934567" lon="26.07587814331055"/><trkpt lat="69.27932948934567" lon="26.076049804687504"/><trkpt lat="69.27932948934567" lon="26.076049804687504"/><trkpt lat="69.27914728086026" lon="26.07639312744141"/><trkpt lat="69.27896507084303" lon="26.076564788818363"/><trkpt lat="69.278782859294" lon="26.07690811157227"/><trkpt lat="69.27860064621316" lon="26.077079772949222"/><trkpt lat="69.27841843160053" lon="26.07742309570313"/><trkpt lat="69.27823621545603" lon="26.07759475708008"/><trkpt lat="69.27805399777968" lon="26.077766418457035"/><trkpt lat="69.27793251847774" lon="26.07810974121094"/><trkpt lat="69.27775029824829" lon="26.078281402587894"/><trkpt lat="69.27756807648699" lon="26.078453063964847"/><trkpt lat="69.27744659446172" lon="26.078796386718754"/><trkpt lat="69.27726437014724" lon="26.078968048095707"/><trkpt lat="69.2771428864199" lon="26.07931137084961"/><trkpt lat="69.27696065955222" lon="26.079483032226562"/><trkpt lat="69.27683917412271" lon="26.07982635498047"/><trkpt lat="69.27665694470186" lon="26.08016967773438"/><trkpt lat="69.27647471374905" lon="26.08034133911133"/><trkpt lat="69.27635322559608" lon="26.080684661865238"/><trkpt lat="69.27617099209" lon="26.08085632324219"/><trkpt lat="69.27598875705196" lon="26.081027984619144"/><trkpt lat="69.27586726617551" lon="26.08137130737305"/><trkpt lat="69.27568502858415" lon="26.081542968750004"/><trkpt lat="69.27550278946079" lon="26.081714630126957"/><trkpt lat="69.27538129586077" lon="26.082057952880863"/><trkpt lat="69.27519905418407" lon="26.082229614257816"/><trkpt lat="69.27501681097532" lon="26.08240127563477"/><trkpt lat="69.27483456623453" lon="26.08240127563477"/><trkpt lat="69.27465231996167" lon="26.082572937011722"/><trkpt lat="69.27447007215677" lon="26.082572937011722"/><trkpt lat="69.2742878228198" lon="26.082572937011722"/><trkpt lat="69.27410557195074" lon="26.082744598388675"/><trkpt lat="69.27392331954957" lon="26.082744598388675"/><trkpt lat="69.27374106561629" lon="26.082744598388675"/><trkpt lat="69.2735588101509" lon="26.082744598388675"/><trkpt lat="69.2733765531534" lon="26.082744598388675"/><trkpt lat="69.27319429462374" lon="26.082572937011722"/><trkpt lat="69.27301203456192" lon="26.08240127563477"/><trkpt lat="69.27282977296795" lon="26.082229614257816"/><trkpt lat="69.27264750984179" lon="26.082229614257816"/><trkpt lat="69.27246524518345" lon="26.082229614257816"/><trkpt lat="69.27228297899293" lon="26.082229614257816"/><trkpt lat="69.2721007112702" lon="26.082229614257816"/><trkpt lat="69.27191844201523" lon="26.082229614257816"/><trkpt lat="69.27173617122804" lon="26.08240127563477"/><trkpt lat="69.27161465651868" lon="26.082744598388675"/><trkpt lat="69.27143238317774" lon="26.08308792114258"/><trkpt lat="69.27131086676589" lon="26.083431243896488"/><trkpt lat="69.271189349673" lon="26.083774566650394"/><trkpt lat="69.2710678318991" lon="26.0841178894043"/><trkpt lat="69.27088555396136" lon="26.084461212158203"/><trkpt lat="69.27076403448493" lon="26.08480453491211"/><trkpt lat="69.27058175399338" lon="26.084976196289062"/><trkpt lat="69.27046023281439" lon="26.08531951904297"/><trkpt lat="69.27033871095435" lon="26.08566284179688"/><trkpt lat="69.27015642688741" lon="26.08583450317383"/><trkpt lat="69.27003490332478" lon="26.086177825927738"/><trkpt lat="69.26991337908113" lon="26.086521148681644"/><trkpt lat="69.2697310914387" lon="26.08686447143555"/><trkpt lat="69.26954880226388" lon="26.087207794189457"/><trkpt lat="69.26942727529605" lon="26.087551116943363"/><trkpt lat="69.26924498356728" lon="26.08789443969727"/><trkpt lat="69.26912345489679" lon="26.088237762451175"/><trkpt lat="69.26894116061405" lon="26.08858108520508"/><trkpt lat="69.26881963024086" lon="26.088924407958988"/><trkpt lat="69.26869809918662" lon="26.089267730712894"/><trkpt lat="69.26857656745129" lon="26.089611053466797"/><trkpt lat="69.26845503503489" lon="26.089954376220703"/><trkpt lat="69.26827273513327" lon="26.09029769897461"/><trkpt lat="69.26809043369916" lon="26.090469360351562"/><trkpt lat="69.26790813073262" lon="26.090812683105472"/><trkpt lat="69.26772582623359" lon="26.090984344482425"/><trkpt lat="69.26754352020208" lon="26.09132766723633"/><trkpt lat="69.26742198199636" lon="26.091670989990238"/><trkpt lat="69.26723967341069" lon="26.09184265136719"/><trkpt lat="69.26705736329248" lon="26.092014312744144"/><trkpt lat="69.2668750516418" lon="26.092185974121097"/><trkpt lat="69.26675350968992" lon="26.092529296875004"/><trkpt lat="69.26657119548497" lon="26.092529296875004"/><trkpt lat="69.2663888797475" lon="26.092700958251957"/><trkpt lat="69.26620656247744" lon="26.092700958251957"/><trkpt lat="69.2660242436748" lon="26.09287261962891"/><trkpt lat="69.2658419233396" lon="26.09287261962891"/><trkpt lat="69.26565960147177" lon="26.09287261962891"/><trkpt lat="69.26547727807133" lon="26.09287261962891"/><trkpt lat="69.26529495313831" lon="26.093044281005863"/><trkpt lat="69.26511262667266" lon="26.093044281005863"/><trkpt lat="69.26493029867433" lon="26.093044281005863"/><trkpt lat="69.26474796914337" lon="26.093215942382816"/><trkpt lat="69.26456563807976" lon="26.093215942382816"/><trkpt lat="69.26438330548345" lon="26.09338760375977"/><trkpt lat="69.26420097135446" lon="26.093559265136722"/><trkpt lat="69.26401863569276" lon="26.093730926513675"/><trkpt lat="69.26383629849839" lon="26.09390258789063"/><trkpt lat="69.26365395977126" lon="26.09407424926758"/><trkpt lat="69.26347161951142" lon="26.094245910644535"/><trkpt lat="69.26335005848667" lon="26.094245910644535"/><trkpt lat="69.26237754576444" lon="26.094760894775394"/><trkpt lat="69.26219519477517" lon="26.094932556152344"/><trkpt lat="69.26207362659744" lon="26.09527587890625"/><trkpt lat="69.26189127305348" lon="26.09527587890625"/><trkpt lat="69.26170891797668" lon="26.095447540283203"/><trkpt lat="69.26158734707388" lon="26.09579086303711"/><trkpt lat="69.26140498944234" lon="26.09579086303711"/><trkpt lat="69.2612834168364" lon="26.09613418579102"/><trkpt lat="69.26110105665008" lon="26.09613418579102"/><trkpt lat="69.26091869493085" lon="26.096305847167972"/><trkpt lat="69.26073633167876" lon="26.096477508544925"/><trkpt lat="69.26055396689372" lon="26.09664916992188"/><trkpt lat="69.26037160057581" lon="26.09664916992188"/><trkpt lat="69.26018923272493" lon="26.09682083129883"/><trkpt lat="69.26000686334113" lon="26.09682083129883"/><trkpt lat="69.25982449242437" lon="26.09682083129883"/><trkpt lat="69.25964211997467" lon="26.09682083129883"/><trkpt lat="69.25945974599199" lon="26.09682083129883"/><trkpt lat="69.25927737047631" lon="26.09682083129883"/><trkpt lat="69.25909499342765" lon="26.09682083129883"/><trkpt lat="69.25891261484597" lon="26.09682083129883"/><trkpt lat="69.25873023473127" lon="26.09682083129883"/><trkpt lat="69.25854785308357" lon="26.09682083129883"/><trkpt lat="69.25836546990283" lon="26.09664916992188"/><trkpt lat="69.25818308518903" lon="26.096477508544925"/><trkpt lat="69.25800069894215" lon="26.096305847167972"/><trkpt lat="69.25781831116223" lon="26.096305847167972"/><trkpt lat="69.2576359218492" lon="26.09613418579102"/><trkpt lat="69.2574535310031" lon="26.095962524414062"/><trkpt lat="69.25727113862388" lon="26.095619201660156"/><trkpt lat="69.25708874471154" lon="26.095447540283203"/><trkpt lat="69.25696714791825" lon="26.095104217529297"/><trkpt lat="69.2567847514507" lon="26.094932556152344"/><trkpt lat="69.25660235345002" lon="26.094760894775394"/><trkpt lat="69.25641995391616" lon="26.094417572021488"/><trkpt lat="69.25623755284913" lon="26.094245910644535"/><trkpt lat="69.25605515024894" lon="26.09407424926758"/><trkpt lat="69.25587274611557" lon="26.09390258789063"/><trkpt lat="69.25569034044896" lon="26.093730926513675"/><trkpt lat="69.25550793324915" lon="26.093730926513675"/><trkpt lat="69.25532552451614" lon="26.093730926513675"/><trkpt lat="69.25514311424988" lon="26.093730926513675"/><trkpt lat="69.25496070245038" lon="26.093730926513675"/><trkpt lat="69.25477828911761" lon="26.093730926513675"/><trkpt lat="69.2545958742516" lon="26.093730926513675"/><trkpt lat="69.25441345785228" lon="26.093730926513675"/><trkpt lat="69.2542310399197" lon="26.093559265136722"/><trkpt lat="69.25404862045383" lon="26.093559265136722"/><trkpt lat="69.2538661994546" lon="26.093559265136722"/><trkpt lat="69.25368377692209" lon="26.093559265136722"/><trkpt lat="69.25350135285623" lon="26.093559265136722"/><trkpt lat="69.25331892725704" lon="26.093559265136722"/><trkpt lat="69.25313650012447" lon="26.093559265136722"/><trkpt lat="69.25295407145856" lon="26.09338760375977"/><trkpt lat="69.25277164125924" lon="26.093215942382816"/><trkpt lat="69.25258920952658" lon="26.093215942382816"/><trkpt lat="69.25240677626047" lon="26.093044281005863"/><trkpt lat="69.25222434146097" lon="26.093044281005863"/><trkpt lat="69.25204190512805" lon="26.093215942382816"/><trkpt lat="69.25185946726171" lon="26.09338760375977"/><trkpt lat="69.25167702786192" lon="26.093559265136722"/><trkpt lat="69.25155540074346" lon="26.09390258789063"/><trkpt lat="69.2513729587879" lon="26.094245910644535"/><trkpt lat="69.25125132996561" lon="26.09458923339844"/><trkpt lat="69.25112970046176" lon="26.094932556152344"/><trkpt lat="69.25100807027636" lon="26.09527587890625"/><trkpt lat="69.25088643940941" lon="26.095619201660156"/><trkpt lat="69.2507648078609" lon="26.095962524414062"/><trkpt lat="69.25070399183106" lon="26.096477508544925"/><trkpt lat="69.25058235926022" lon="26.09682083129883"/><trkpt lat="69.25052154271921" lon="26.09733581542969"/><trkpt lat="69.250399909126" lon="26.097679138183597"/><trkpt lat="69.25033909207382" lon="26.098194122314457"/><trkpt lat="69.25027827485121" lon="26.098709106445316"/><trkpt lat="69.25021745745825" lon="26.099224090576175"/><trkpt lat="69.25015663989491" lon="26.099739074707035"/><trkpt lat="69.25009582216113" lon="26.10025405883789"/><trkpt lat="69.25003500425696" lon="26.10076904296875"/><trkpt lat="69.24997418618244" lon="26.10128402709961"/><trkpt lat="69.24991336793748" lon="26.101799011230472"/><trkpt lat="69.24991336793748" lon="26.10231399536133"/><trkpt lat="69.24985254952213" lon="26.10282897949219"/><trkpt lat="69.24979173093641" lon="26.10334396362305"/><trkpt lat="69.24973091218028" lon="26.10385894775391"/><trkpt lat="69.24960927415681" lon="26.10437393188477"/><trkpt lat="69.24954845488948" lon="26.10488891601563"/><trkpt lat="69.24948763545177" lon="26.105403900146488"/><trkpt lat="69.24942681584363" lon="26.105918884277344"/><trkpt lat="69.24936599606512" lon="26.106433868408203"/><trkpt lat="69.24930517611618" lon="26.106948852539066"/><trkpt lat="69.24924435599686" lon="26.107463836669925"/><trkpt lat="69.24918353570716" lon="26.107978820800785"/><trkpt lat="69.24918353570716" lon="26.108493804931644"/><trkpt lat="69.24912271524704" lon="26.109008789062504"/><trkpt lat="69.24906189461649" lon="26.109523773193363"/><trkpt lat="69.24900107381558" lon="26.110038757324222"/><trkpt lat="69.24894025284425" lon="26.11055374145508"/><trkpt lat="69.24887943170252" lon="26.111068725585938"/><trkpt lat="69.24887943170252" lon="26.111583709716797"/><trkpt lat="69.2488186103904" lon="26.11209869384766"/><trkpt lat="69.2488186103904" lon="26.11261367797852"/><trkpt lat="69.24875778890785" lon="26.11312866210938"/><trkpt lat="69.24869696725493" lon="26.113643646240238"/><trkpt lat="69.24869696725493" lon="26.114158630371097"/><trkpt lat="69.24869696725493" lon="26.114673614501957"/><trkpt lat="69.24869696725493" lon="26.115188598632816"/><trkpt lat="69.24869696725493" lon="26.115703582763675"/><trkpt lat="69.24869696725493" lon="26.11621856689453"/><trkpt lat="69.24869696725493" lon="26.11673355102539"/><trkpt lat="69.24869696725493" lon="26.117248535156254"/><trkpt lat="69.24869696725493" lon="26.117763519287113"/><trkpt lat="69.24869696725493" lon="26.118278503417972"/><trkpt lat="69.24869696725493" lon="26.11879348754883"/><trkpt lat="69.24869696725493" lon="26.11930847167969"/><trkpt lat="69.24869696725493" lon="26.11982345581055"/><trkpt lat="69.24875778890785" lon="26.12033843994141"/><trkpt lat="69.2488186103904" lon="26.12085342407227"/><trkpt lat="69.2488186103904" lon="26.12136840820313"/><trkpt lat="69.24887943170252" lon="26.121883392333984"/><trkpt lat="69.24887943170252" lon="26.122398376464844"/><trkpt lat="69.24887943170252" lon="26.122913360595707"/><trkpt lat="69.24894025284425" lon="26.123428344726566"/><trkpt lat="69.24894025284425" lon="26.123943328857425"/><trkpt lat="69.24894025284425" lon="26.124458312988285"/><trkpt lat="69.24894025284425" lon="26.124458312988285"/><trkpt lat="69.24894025284425" lon="26.124458312988285"/><trkpt lat="69.24894025284425" lon="26.124973297119144"/><trkpt lat="69.24894025284425" lon="26.125488281250004"/><trkpt lat="69.24894025284425" lon="26.126003265380863"/><trkpt lat="69.24894025284425" lon="26.126518249511722"/><trkpt lat="69.24900107381558" lon="26.127033233642578"/><trkpt lat="69.24900107381558" lon="26.127548217773438"/><trkpt lat="69.24906189461649" lon="26.1280632019043"/><trkpt lat="69.24912271524704" lon="26.12857818603516"/><trkpt lat="69.24912271524704" lon="26.12909317016602"/><trkpt lat="69.24918353570716" lon="26.12960815429688"/><trkpt lat="69.24924435599686" lon="26.130123138427738"/><trkpt lat="69.24924435599686" lon="26.130638122558597"/><trkpt lat="69.24930517611618" lon="26.131153106689457"/><trkpt lat="69.24936599606512" lon="26.131668090820316"/><trkpt lat="69.24942681584363" lon="26.132183074951172"/><trkpt lat="69.24942681584363" lon="26.13269805908203"/><trkpt lat="69.24948763545177" lon="26.133213043212894"/><trkpt lat="69.24948763545177" lon="26.133728027343754"/><trkpt lat="69.24954845488948" lon="26.134243011474613"/><trkpt lat="69.24960927415681" lon="26.134757995605472"/><trkpt lat="69.24967009325374" lon="26.13527297973633"/><trkpt lat="69.24973091218028" lon="26.13578796386719"/><trkpt lat="69.24979173093641" lon="26.13630294799805"/><trkpt lat="69.24991336793748" lon="26.136646270751957"/><trkpt lat="69.25003500425696" lon="26.137161254882816"/><trkpt lat="69.25009582216113" lon="26.137676239013672"/><trkpt lat="69.25021745745825" lon="26.138019561767578"/><trkpt lat="69.25033909207382" lon="26.13853454589844"/><trkpt lat="69.25046072600779" lon="26.1390495300293"/><trkpt lat="69.25058235926022" lon="26.13956451416016"/><trkpt lat="69.25064317563083" lon="26.14007949829102"/><trkpt lat="69.2507648078609" lon="26.140422821044925"/><trkpt lat="69.25082562372036" lon="26.140937805175785"/><trkpt lat="69.25088643940941" lon="26.141452789306644"/><trkpt lat="69.25100807027636" lon="26.14179611206055"/><trkpt lat="69.25106888545426" lon="26.14231109619141"/><trkpt lat="69.25112970046176" lon="26.142826080322266"/><trkpt lat="69.25119051529886" lon="26.143341064453125"/><trkpt lat="69.25125132996561" lon="26.143856048583988"/><trkpt lat="69.25131214446195" lon="26.144371032714847"/><trkpt lat="69.2513729587879" lon="26.144886016845707"/><trkpt lat="69.25143377294347" lon="26.145401000976566"/><trkpt lat="69.25149458692867" lon="26.145915985107425"/><trkpt lat="69.25155540074346" lon="26.146430969238285"/><trkpt lat="69.25155540074346" lon="26.146945953369144"/><trkpt lat="69.25161621438788" lon="26.147460937500004"/><trkpt lat="69.25161621438788" lon="26.14797592163086"/><trkpt lat="69.25161621438788" lon="26.14849090576172"/><trkpt lat="69.25161621438788" lon="26.149005889892578"/><trkpt lat="69.25161621438788" lon="26.14952087402344"/><trkpt lat="69.25161621438788" lon="26.1500358581543"/><trkpt lat="69.25161621438788" lon="26.15055084228516"/><trkpt lat="69.25161621438788" lon="26.15106582641602"/><trkpt lat="69.25155540074346" lon="26.15158081054688"/><trkpt lat="69.25149458692867" lon="26.152095794677738"/><trkpt lat="69.25149458692867" lon="26.152610778808597"/><trkpt lat="69.25143377294347" lon="26.153125762939457"/><trkpt lat="69.25131214446195" lon="26.153640747070312"/><trkpt lat="69.25125132996561" lon="26.154155731201172"/><trkpt lat="69.25119051529886" lon="26.154670715332035"/><trkpt lat="69.25106888545426" lon="26.155185699462894"/><trkpt lat="69.25100807027636" lon="26.155700683593754"/><trkpt lat="69.25088643940941" lon="26.15604400634766"/><trkpt lat="69.25082562372036" lon="26.15655899047852"/><trkpt lat="69.2507648078609" lon="26.15707397460938"/><trkpt lat="69.25064317563083" lon="26.157417297363285"/><trkpt lat="69.25058235926022" lon="26.157932281494144"/><trkpt lat="69.25052154271921" lon="26.158447265625004"/><trkpt lat="69.250399909126" lon="26.158790588378906"/><trkpt lat="69.25033909207382" lon="26.159305572509766"/><trkpt lat="69.25021745745825" lon="26.159648895263675"/><trkpt lat="69.25015663989491" lon="26.160163879394535"/><trkpt lat="69.25003500425696" lon="26.16050720214844"/><trkpt lat="69.24997418618244" lon="26.1610221862793"/><trkpt lat="69.24985254952213" lon="26.161365509033207"/><trkpt lat="69.24979173093641" lon="26.161880493164066"/><trkpt lat="69.24967009325374" lon="26.162223815917972"/><trkpt lat="69.24960927415681" lon="26.16273880004883"/><trkpt lat="69.24948763545177" lon="26.163082122802738"/><trkpt lat="69.24942681584363" lon="26.163597106933597"/><trkpt lat="69.24936599606512" lon="26.164112091064453"/><trkpt lat="69.24930517611618" lon="26.164627075195312"/><trkpt lat="69.24930517611618" lon="26.165142059326175"/><trkpt lat="69.24924435599686" lon="26.165657043457035"/><trkpt lat="69.24918353570716" lon="26.166172027587894"/><trkpt lat="69.24912271524704" lon="26.166687011718754"/><trkpt lat="69.24906189461649" lon="26.167201995849613"/><trkpt lat="69.24900107381558" lon="26.167716979980472"/><trkpt lat="69.24894025284425" lon="26.16823196411133"/><trkpt lat="69.24887943170252" lon="26.16874694824219"/><trkpt lat="69.2488186103904" lon="26.169261932373047"/><trkpt lat="69.24875778890785" lon="26.169776916503906"/><trkpt lat="69.24875778890785" lon="26.17029190063477"/><trkpt lat="69.24869696725493" lon="26.17080688476563"/><trkpt lat="69.24863614543158" lon="26.171321868896488"/><trkpt lat="69.24857532343783" lon="26.171836853027347"/><trkpt lat="69.24857532343783" lon="26.172351837158207"/><trkpt lat="69.24851450127368" lon="26.172866821289066"/><trkpt lat="69.24845367893914" lon="26.173381805419925"/><trkpt lat="69.24839285643417" lon="26.173896789550785"/><trkpt lat="69.24839285643417" lon="26.174411773681644"/><trkpt lat="69.24839285643417" lon="26.1749267578125"/><trkpt lat="69.2483320337588" lon="26.17544174194336"/><trkpt lat="69.2483320337588" lon="26.175956726074222"/><trkpt lat="69.2483320337588" lon="26.17647171020508"/><trkpt lat="69.2483320337588" lon="26.17698669433594"/><trkpt lat="69.2483320337588" lon="26.1775016784668"/><trkpt lat="69.2483320337588" lon="26.17801666259766"/><trkpt lat="69.24827121091305" lon="26.17853164672852"/><trkpt lat="69.24821038789685" lon="26.17904663085938"/><trkpt lat="69.24814956471026" lon="26.179561614990238"/><trkpt lat="69.24808874135327" lon="26.180076599121094"/><trkpt lat="69.24802791782588" lon="26.180591583251953"/><trkpt lat="69.24796709412807" lon="26.181106567382816"/><trkpt lat="69.24790627025986" lon="26.181621551513675"/><trkpt lat="69.24790627025986" lon="26.181621551513675"/><trkpt lat="69.24790627025986" lon="26.181621551513675"/><trkpt lat="69.24778462201218" lon="26.18196487426758"/><trkpt lat="69.24772379763273" lon="26.18247985839844"/><trkpt lat="69.2476021483626" lon="26.182823181152347"/><trkpt lat="69.24748049841084" lon="26.183166503906254"/><trkpt lat="69.24735884777742" lon="26.183681488037113"/><trkpt lat="69.24723719646234" lon="26.18402481079102"/><trkpt lat="69.2471155444656" lon="26.184368133544925"/><trkpt lat="69.24699389178721" lon="26.18471145629883"/><trkpt lat="69.24681141149152" lon="26.185054779052734"/><trkpt lat="69.24668975710898" lon="26.18539810180664"/><trkpt lat="69.24650727425704" lon="26.185569763183594"/><trkpt lat="69.24638561817032" lon="26.1859130859375"/><trkpt lat="69.24620313276209" lon="26.18625640869141"/><trkpt lat="69.24602064582005" lon="26.186428070068363"/><trkpt lat="69.24583815734425" lon="26.186599731445316"/><trkpt lat="69.24565566733463" lon="26.18677139282227"/><trkpt lat="69.24547317579118" lon="26.186943054199222"/><trkpt lat="69.24529068271391" lon="26.186943054199222"/><trkpt lat="69.2451081881028" lon="26.187114715576175"/><trkpt lat="69.24492569195785" lon="26.187114715576175"/><trkpt lat="69.24474319427898" lon="26.18728637695313"/><trkpt lat="69.2445606950663" lon="26.18745803833008"/><trkpt lat="69.24437819431971" lon="26.187629699707035"/><trkpt lat="69.24419569203923" lon="26.187629699707035"/><trkpt lat="69.24401318822486" lon="26.187801361083988"/><trkpt lat="69.24383068287653" lon="26.187801361083988"/><trkpt lat="69.24364817599431" lon="26.187801361083988"/><trkpt lat="69.24346566757812" lon="26.187801361083988"/><trkpt lat="69.24328315762799" lon="26.187801361083988"/><trkpt lat="69.24310064614389" lon="26.187801361083988"/><trkpt lat="69.24291813312584" lon="26.187629699707035"/><trkpt lat="69.24273561857379" lon="26.187629699707035"/><trkpt lat="69.24255310248773" lon="26.187629699707035"/><trkpt lat="69.2423705848677" lon="26.187629699707035"/><trkpt lat="69.2421880657136" lon="26.187629699707035"/><trkpt lat="69.24200554502553" lon="26.187629699707035"/><trkpt lat="69.24182302280339" lon="26.187801361083988"/><trkpt lat="69.2416404990472" lon="26.187801361083988"/><trkpt lat="69.24145797375695" lon="26.18797302246094"/><trkpt lat="69.24127544693263" lon="26.18797302246094"/><trkpt lat="69.24109291857422" lon="26.187801361083988"/><trkpt lat="69.24091038868173" lon="26.187629699707035"/><trkpt lat="69.24078870123442" lon="26.18728637695313"/><trkpt lat="69.24066701310532" lon="26.18677139282227"/><trkpt lat="69.24060616878509" lon="26.18625640869141"/><trkpt lat="69.24048447963321" lon="26.1859130859375"/><trkpt lat="69.24036278979953" lon="26.185569763183594"/><trkpt lat="69.24024109928399" lon="26.185226440429688"/><trkpt lat="69.24005856223224" lon="26.185054779052734"/><trkpt lat="69.23987602364632" lon="26.185054779052734"/><trkpt lat="69.23969348352624" lon="26.184883117675785"/><trkpt lat="69.23951094187197" lon="26.184883117675785"/><trkpt lat="69.23932839868353" lon="26.18471145629883"/><trkpt lat="69.23932839868353" lon="26.18471145629883"/><trkpt lat="69.2392537795731" lon="26.18471145629883"/><trkpt lat="69.23916250708999" lon="26.184625625610355"/><trkpt lat="69.2390712342233" lon="26.18453979492188"/><trkpt lat="69.23897996097307" lon="26.18453979492188"/><trkpt lat="69.23888868733928" lon="26.184368133544925"/><trkpt lat="69.23879741332196" lon="26.184368133544925"/><trkpt lat="69.23870613892105" lon="26.18428230285645"/><trkpt lat="69.2386148641366" lon="26.18428230285645"/><trkpt lat="69.23852358896856" lon="26.18428230285645"/><trkpt lat="69.23843231341698" lon="26.18428230285645"/><trkpt lat="69.23834103748185" lon="26.184196472167972"/><trkpt lat="69.2382497611631" lon="26.184196472167972"/><trkpt lat="69.23815848446085" lon="26.184196472167972"/><trkpt lat="69.238067207375" lon="26.184110641479496"/><trkpt lat="69.23797592990559" lon="26.184110641479496"/><trkpt lat="69.23788465205259" lon="26.18402481079102"/><trkpt lat="69.23779337381603" lon="26.183938980102543"/><trkpt lat="69.2377020951959" lon="26.183853149414066"/><trkpt lat="69.2376108161922" lon="26.18376731872559"/><trkpt lat="69.23751953680491" lon="26.183681488037113"/><trkpt lat="69.23742825703404" lon="26.183681488037113"/><trkpt lat="69.2373369768796" lon="26.183595657348636"/><trkpt lat="69.23724569634157" lon="26.18350982666016"/><trkpt lat="69.23715441541997" lon="26.18350982666016"/><trkpt lat="69.23706313411479" lon="26.18350982666016"/><trkpt lat="69.23697185242601" lon="26.18350982666016"/><trkpt lat="69.23688057035365" lon="26.18350982666016"/><trkpt lat="69.23678928789772" lon="26.18350982666016"/><trkpt lat="69.23669800505817" lon="26.18350982666016"/><trkpt lat="69.23660672183506" lon="26.183423995971683"/><trkpt lat="69.23651543822832" lon="26.183423995971683"/><trkpt lat="69.23642415423802" lon="26.183338165283207"/><trkpt lat="69.23633286986411" lon="26.183338165283207"/><trkpt lat="69.23624158510664" lon="26.18325233459473"/><trkpt lat="69.23615029996553" lon="26.18325233459473"/><trkpt lat="69.23605901444083" lon="26.183166503906254"/><trkpt lat="69.23596772853254" lon="26.183080673217777"/><trkpt lat="69.23587644224065" lon="26.183080673217777"/><trkpt lat="69.23578515556515" lon="26.1829948425293"/><trkpt lat="69.23569386850603" lon="26.1829948425293"/><trkpt lat="69.23560258106333" lon="26.182909011840824"/><trkpt lat="69.23548086387635" lon="26.182909011840824"/><trkpt lat="69.23538957553855" lon="26.182823181152347"/><trkpt lat="69.23529828681713" lon="26.182823181152347"/><trkpt lat="69.23520699771211" lon="26.182823181152347"/><trkpt lat="69.23511570822349" lon="26.18273735046387"/><trkpt lat="69.23502441835127" lon="26.18273735046387"/><trkpt lat="69.23493312809539" lon="26.18273735046387"/><trkpt lat="69.23484183745593" lon="26.182651519775394"/><trkpt lat="69.23475054643283" lon="26.182565689086918"/><trkpt lat="69.23465925502613" lon="26.182565689086918"/><trkpt lat="69.2345679632358" lon="26.18247985839844"/><trkpt lat="69.23447667106183" lon="26.18247985839844"/><trkpt lat="69.23438537850426" lon="26.182394027709964"/><trkpt lat="69.23429408556305" lon="26.182308197021488"/><trkpt lat="69.23423322338913" lon="26.182136535644535"/><trkpt lat="69.23414192980856" lon="26.18205070495606"/><trkpt lat="69.23405063584433" lon="26.18196487426758"/><trkpt lat="69.23395934149649" lon="26.181879043579105"/><trkpt lat="69.23386804676504" lon="26.18179321289063"/><trkpt lat="69.23377675164994" lon="26.181707382202152"/><trkpt lat="69.23368545615119" lon="26.181707382202152"/><trkpt lat="69.23359416026882" lon="26.181621551513675"/><trkpt lat="69.23350286400279" lon="26.1815357208252"/><trkpt lat="69.23341156735314" lon="26.181449890136722"/><trkpt lat="69.23332027031987" lon="26.181449890136722"/><trkpt lat="69.23322897290294" lon="26.181449890136722"/><trkpt lat="69.23313767510236" lon="26.181449890136722"/><trkpt lat="69.23304637691813" lon="26.181449890136722"/><trkpt lat="69.23295507835027" lon="26.181364059448246"/><trkpt lat="69.23286377939876" lon="26.181364059448246"/><trkpt lat="69.2327724800636" lon="26.181364059448246"/><trkpt lat="69.23268118034478" lon="26.181364059448246"/><trkpt lat="69.23258988024233" lon="26.181364059448246"/><trkpt lat="69.23249857975621" lon="26.181364059448246"/><trkpt lat="69.23240727888647" lon="26.181364059448246"/><trkpt lat="69.23231597763304" lon="26.181364059448246"/><trkpt lat="69.23222467599597" lon="26.181364059448246"/><trkpt lat="69.23213337397522" lon="26.181449890136722"/><trkpt lat="69.23213337397522" lon="26.181449890136722"/><trkpt lat="69.23210293988305" lon="26.181449890136722"/><trkpt lat="69.23201163735078" lon="26.181449890136722"/><trkpt lat="69.23192033443485" lon="26.181449890136722"/><trkpt lat="69.23182903113523" lon="26.181449890136722"/><trkpt lat="69.23173772745199" lon="26.181449890136722"/><trkpt lat="69.23164642338504" lon="26.181449890136722"/><trkpt lat="69.23155511893444" lon="26.1815357208252"/><trkpt lat="69.23146381410017" lon="26.1815357208252"/><trkpt lat="69.23137250888223" lon="26.181621551513675"/><trkpt lat="69.23128120328062" lon="26.181707382202152"/><trkpt lat="69.23118989729535" lon="26.18179321289063"/><trkpt lat="69.23112902642535" lon="26.18196487426758"/><trkpt lat="69.23103771980061" lon="26.18205070495606"/><trkpt lat="69.23097684850431" lon="26.18222236633301"/><trkpt lat="69.23088554124011" lon="26.182308197021488"/><trkpt lat="69.23082466951749" lon="26.18247985839844"/><trkpt lat="69.23076379762435" lon="26.182651519775394"/><trkpt lat="69.23070292556066" lon="26.182823181152347"/><trkpt lat="69.23064205332649" lon="26.1829948425293"/><trkpt lat="69.23058118092179" lon="26.183166503906254"/><trkpt lat="69.23052030834653" lon="26.183338165283207"/><trkpt lat="69.23045943560075" lon="26.18350982666016"/><trkpt lat="69.23039856268446" lon="26.183681488037113"/><trkpt lat="69.23033768959765" lon="26.183853149414066"/><trkpt lat="69.23030725299029" lon="26.184110641479496"/><trkpt lat="69.2302768163403" lon="26.184368133544925"/><trkpt lat="69.23024637964767" lon="26.184625625610355"/><trkpt lat="69.23021594291241" lon="26.184883117675785"/><trkpt lat="69.23018550613456" lon="26.18514060974121"/><trkpt lat="69.23015506931402" lon="26.18539810180664"/><trkpt lat="69.23015506931402" lon="26.18565559387207"/><trkpt lat="69.23012463245085" lon="26.1859130859375"/><trkpt lat="69.23009419554509" lon="26.186170578002933"/><trkpt lat="69.23006375859669" lon="26.186428070068363"/><trkpt lat="69.23006375859669" lon="26.186685562133793"/><trkpt lat="69.23003332160563" lon="26.186943054199222"/><trkpt lat="69.23000288457195" lon="26.187200546264652"/><trkpt lat="69.22997244749563" lon="26.18745803833008"/><trkpt lat="69.2299115732151" lon="26.187629699707035"/><trkpt lat="69.2298811360109" lon="26.187887191772464"/><trkpt lat="69.22985069876405" lon="26.188144683837894"/><trkpt lat="69.22982026147459" lon="26.188402175903324"/><trkpt lat="69.22978982414247" lon="26.188659667968754"/><trkpt lat="69.22978982414247" lon="26.188917160034183"/><trkpt lat="69.22975938676775" lon="26.189174652099613"/><trkpt lat="69.22972894935037" lon="26.189432144165043"/><trkpt lat="69.22969851189038" lon="26.189689636230472"/><trkpt lat="69.2296680743877" lon="26.189947128295902"/><trkpt lat="69.22963763684244" lon="26.19020462036133"/><trkpt lat="69.22957676162402" lon="26.190462112426758"/><trkpt lat="69.22957676162402" lon="26.190719604492188"/><trkpt lat="69.22951588623503" lon="26.190977096557617"/><trkpt lat="69.22951588623503" lon="26.191234588623047"/><trkpt lat="69.2294854484766" lon="26.19149208068848"/><trkpt lat="69.22945501067555" lon="26.19174957275391"/><trkpt lat="69.22942457283182" lon="26.19200706481934"/><trkpt lat="69.22939413494548" lon="26.19226455688477"/><trkpt lat="69.22939413494548" lon="26.1925220489502"/><trkpt lat="69.22936369701652" lon="26.19277954101563"/><trkpt lat="69.22930282103069" lon="26.19295120239258"/><trkpt lat="69.22927238297382" lon="26.19320869445801"/><trkpt lat="69.22927238297382" lon="26.19346618652344"/><trkpt lat="69.22924194487429" lon="26.19372367858887"/><trkpt lat="69.22921150673216" lon="26.1939811706543"/><trkpt lat="69.2291810685474" lon="26.19423866271973"/><trkpt lat="69.22915063031998" lon="26.19449615478516"/><trkpt lat="69.22912019204996" lon="26.19475364685059"/><trkpt lat="69.22908975373727" lon="26.19501113891602"/><trkpt lat="69.22908975373727" lon="26.19526863098145"/><trkpt lat="69.22905931538196" lon="26.19552612304688"/><trkpt lat="69.22902887698403" lon="26.195783615112305"/><trkpt lat="69.22899843854346" lon="26.196041107177734"/><trkpt lat="69.22899843854346" lon="26.196298599243164"/><trkpt lat="69.22896800006023" lon="26.196556091308594"/><trkpt lat="69.22896800006023" lon="26.196813583374027"/><trkpt lat="69.2289375615344" lon="26.197071075439457"/><trkpt lat="69.22890712296592" lon="26.197328567504886"/><trkpt lat="69.22890712296592" lon="26.197586059570316"/><trkpt lat="69.22887668435482" lon="26.197843551635746"/><trkpt lat="69.22884624570106" lon="26.198101043701175"/><trkpt lat="69.2288158070047" lon="26.198358535766605"/><trkpt lat="69.22878536826566" lon="26.198616027832035"/><trkpt lat="69.22878536826566" lon="26.19870185852051"/><trkpt lat="69.22878536826566" lon="26.198787689208988"/><trkpt lat="69.22875492948403" lon="26.199045181274418"/><trkpt lat="69.22872449065973" lon="26.199302673339847"/><trkpt lat="69.22869405179283" lon="26.199560165405277"/><trkpt lat="69.22866361288327" lon="26.199817657470707"/><trkpt lat="69.22863317393109" lon="26.200075149536136"/><trkpt lat="69.22863317393109" lon="26.200332641601566"/><trkpt lat="69.22860273493626" lon="26.200590133666996"/><trkpt lat="69.2285722958988" lon="26.200847625732425"/><trkpt lat="69.2285722958988" lon="26.20110511779785"/><trkpt lat="69.2285722958988" lon="26.20136260986328"/><trkpt lat="69.22854185681871" lon="26.20162010192871"/><trkpt lat="69.22854185681871" lon="26.20187759399414"/><trkpt lat="69.228511417696" lon="26.202135086059574"/><trkpt lat="69.22848097853064" lon="26.202392578125004"/><trkpt lat="69.22848097853064" lon="26.202650070190433"/><trkpt lat="69.22845053932264" lon="26.202907562255863"/><trkpt lat="69.22842010007201" lon="26.203165054321293"/><trkpt lat="69.22838966077875" lon="26.203422546386722"/><trkpt lat="69.22835922144283" lon="26.203680038452152"/><trkpt lat="69.22829834264313" lon="26.203851699829105"/><trkpt lat="69.22829834264313" lon="26.204109191894535"/><trkpt lat="69.22823746367288" lon="26.204366683959964"/><trkpt lat="69.22823746367288" lon="26.204624176025394"/><trkpt lat="69.2282070241238" lon="26.204881668090824"/><trkpt lat="69.2281765845321" lon="26.205139160156254"/><trkpt lat="69.2281765845321" lon="26.205396652221683"/><trkpt lat="69.22814614489774" lon="26.205654144287113"/><trkpt lat="69.22811570522074" lon="26.205911636352543"/><trkpt lat="69.22811570522074" lon="26.206169128417972"/><trkpt lat="69.22808526550114" lon="26.2064266204834"/><trkpt lat="69.22805482573887" lon="26.206684112548828"/><trkpt lat="69.22802438593399" lon="26.206941604614258"/><trkpt lat="69.22802438593399" lon="26.207199096679688"/><trkpt lat="69.2279635061963" lon="26.20745658874512"/><trkpt lat="69.22793306626352" lon="26.20771408081055"/><trkpt lat="69.22793306626352" lon="26.20797157287598"/><trkpt lat="69.22790262628808" lon="26.20822906494141"/><trkpt lat="69.22787218627" lon="26.20848655700684"/><trkpt lat="69.22787218627" lon="26.20874404907227"/><trkpt lat="69.22784174620931" lon="26.2090015411377"/><trkpt lat="69.22781130610596" lon="26.20925903320313"/><trkpt lat="69.22781130610596" lon="26.20951652526856"/><trkpt lat="69.22778086596" lon="26.209774017333988"/><trkpt lat="69.22778086596" lon="26.210031509399418"/><trkpt lat="69.22775042577136" lon="26.210289001464847"/><trkpt lat="69.22771998554012" lon="26.210546493530277"/><trkpt lat="69.22768954526624" lon="26.210803985595707"/><trkpt lat="69.22768954526624" lon="26.211061477661136"/><trkpt lat="69.22765910494971" lon="26.211318969726566"/><trkpt lat="69.22762866459054" lon="26.211576461791992"/><trkpt lat="69.22759822418877" lon="26.211833953857422"/><trkpt lat="69.22759822418877" lon="26.21209144592285"/><trkpt lat="69.22756778374433" lon="26.21234893798828"/><trkpt lat="69.22753734325727" lon="26.21260643005371"/><trkpt lat="69.22750690272755" lon="26.212863922119144"/><trkpt lat="69.22750690272755" lon="26.213121414184574"/><trkpt lat="69.22747646215522" lon="26.213378906250004"/><trkpt lat="69.22744602154025" lon="26.21372222900391"/><trkpt lat="69.22741558088262" lon="26.21397972106934"/><trkpt lat="69.22738514018238" lon="26.21423721313477"/><trkpt lat="69.22735469943949" lon="26.2144947052002"/><trkpt lat="69.22735469943949" lon="26.21475219726563"/><trkpt lat="69.22732425865398" lon="26.21500968933106"/><trkpt lat="69.2272938178258" lon="26.215267181396488"/><trkpt lat="69.227263376955" lon="26.215524673461918"/><trkpt lat="69.22723293604156" lon="26.215782165527347"/><trkpt lat="69.22720249508549" lon="26.216039657592777"/><trkpt lat="69.2271720540868" lon="26.216382980346683"/><trkpt lat="69.22714161304543" lon="26.216640472412113"/><trkpt lat="69.22708073083486" lon="26.21689796447754"/><trkpt lat="69.22705028966557" lon="26.21715545654297"/><trkpt lat="69.22698940719914" lon="26.217327117919922"/><trkpt lat="69.22692852456217" lon="26.21758460998535"/><trkpt lat="69.22686764175464" lon="26.217927932739258"/><trkpt lat="69.22680675877658" lon="26.21818542480469"/><trkpt lat="69.22674587562793" lon="26.21844291687012"/><trkpt lat="69.22668499230878" lon="26.21870040893555"/><trkpt lat="69.22662410881902" lon="26.218872070312504"/><trkpt lat="69.22656322515873" lon="26.219129562377933"/><trkpt lat="69.2265023413279" lon="26.219301223754886"/><trkpt lat="69.2264414573265" lon="26.21947288513184"/><trkpt lat="69.22638057315456" lon="26.21973037719727"/><trkpt lat="69.22631968881205" lon="26.2199878692627"/><trkpt lat="69.22628924657688" lon="26.22024536132813"/><trkpt lat="69.22625880429901" lon="26.22050285339356"/><trkpt lat="69.22619791961542" lon="26.22067451477051"/><trkpt lat="69.22616747720967" lon="26.22093200683594"/><trkpt lat="69.22613703476127" lon="26.22118949890137"/><trkpt lat="69.22607614973654" lon="26.221361160278324"/><trkpt lat="69.22604570716021" lon="26.221618652343754"/><trkpt lat="69.22601526454125" lon="26.221876144409183"/><trkpt lat="69.22598482187968" lon="26.222133636474613"/><trkpt lat="69.22592393642856" lon="26.22239112854004"/><trkpt lat="69.22589349363905" lon="26.22264862060547"/><trkpt lat="69.2258630508069" lon="26.222991943359375"/><trkpt lat="69.22580216501467" lon="26.223335266113285"/><trkpt lat="69.2257717220546" lon="26.223592758178714"/><trkpt lat="69.22571083600654" lon="26.223764419555668"/><trkpt lat="69.22568039291856" lon="26.224021911621097"/><trkpt lat="69.22564994978792" lon="26.224279403686527"/><trkpt lat="69.22558906339874" lon="26.224536895751957"/><trkpt lat="69.22555862014022" lon="26.224794387817386"/><trkpt lat="69.22549773349519" lon="26.22496604919434"/><trkpt lat="69.22543684667963" lon="26.22522354125977"/><trkpt lat="69.22537595969347" lon="26.225395202636722"/><trkpt lat="69.22531507253679" lon="26.225566864013675"/><trkpt lat="69.22522374148194" lon="26.22573852539063"/><trkpt lat="69.22516285389884" lon="26.22591018676758"/><trkpt lat="69.22510196614517" lon="26.226081848144535"/><trkpt lat="69.22504107822097" lon="26.226253509521488"/><trkpt lat="69.22498019012617" lon="26.226596832275394"/><trkpt lat="69.22491930186082" lon="26.226854324340824"/><trkpt lat="69.2248584134249" lon="26.227025985717777"/><trkpt lat="69.22482796914299" lon="26.227283477783207"/><trkpt lat="69.22476708045123" lon="26.22745513916016"/><trkpt lat="69.22470619158891" lon="26.22762680053711"/><trkpt lat="69.22464530255603" lon="26.22788429260254"/><trkpt lat="69.22461485797561" lon="26.22814178466797"/><trkpt lat="69.22455396868686" lon="26.228313446044922"/><trkpt lat="69.22449307922757" lon="26.228485107421875"/><trkpt lat="69.22446263443395" lon="26.22874259948731"/><trkpt lat="69.2244017447188" lon="26.22891426086426"/><trkpt lat="69.22437129979728" lon="26.22917175292969"/><trkpt lat="69.22431040982626" lon="26.229343414306644"/><trkpt lat="69.2242495196847" lon="26.229600906372074"/><trkpt lat="69.22418862937255" lon="26.229858398437504"/><trkpt lat="69.22409729358452" lon="26.230115890502933"/><trkpt lat="69.22403640284595" lon="26.230287551879886"/><trkpt lat="69.22397551193683" lon="26.230545043945316"/><trkpt lat="69.22391462085713" lon="26.23071670532227"/><trkpt lat="69.22385372960687" lon="26.2309741973877"/><trkpt lat="69.223792838186" lon="26.231145858764652"/><trkpt lat="69.22373194659458" lon="26.231317520141605"/><trkpt lat="69.22367105483262" lon="26.23148918151856"/><trkpt lat="69.22361016290007" lon="26.23166084289551"/><trkpt lat="69.22354927079694" lon="26.231832504272464"/><trkpt lat="69.22348837852323" lon="26.232004165649418"/><trkpt lat="69.22342748607893" lon="26.232261657714847"/><trkpt lat="69.22339703979286" lon="26.232519149780277"/><trkpt lat="69.2233361470927" lon="26.23269081115723"/><trkpt lat="69.22327525422199" lon="26.232948303222656"/><trkpt lat="69.22321436118072" lon="26.23311996459961"/><trkpt lat="69.22315346796884" lon="26.233291625976562"/><trkpt lat="69.22306212783124" lon="26.23337745666504"/><trkpt lat="69.22300123419292" lon="26.233549118041992"/><trkpt lat="69.22290989341565" lon="26.233720779418945"/><trkpt lat="69.2228489993509" lon="26.233892440795902"/><trkpt lat="69.22278810511558" lon="26.234064102172855"/><trkpt lat="69.22272721070968" lon="26.23423576354981"/><trkpt lat="69.2226663161332" lon="26.23423576354981"/></trkseg></trk></gpx>