<?xml version="1.0"?>
<gpx xmlns="http://www.topografix.com/GPX/1/1" xmlns:gpxx="http://www.garmin.com/xmlschemas/GpxExtensions/v3" creator="CALTOPO" version="1.1"><metadata><name><![CDATA[Stuorraskaidi]]></name></metadata><trk><name>Stuorraskaidi</name><extensions><gpxx:TrackExtension><gpxx:DisplayColor>Red</gpxx:DisplayColor></gpxx:TrackExtension></extensions><trkseg><trkpt lat="69.14747101974334" lon="26.305904388427738"/><trkpt lat="69.14753212490494" lon="26.30538940429688"/><trkpt lat="69.14759322989548" lon="26.30487442016602"/><trkpt lat="69.14771543936327" lon="26.304531097412113"/><trkpt lat="69.14771543936327" lon="26.304016113281254"/><trkpt lat="69.14777654384056" lon="26.303501129150394"/><trkpt lat="69.14771543936327" lon="26.302986145019535"/><trkpt lat="69.14759322989548" lon="26.302471160888672"/><trkpt lat="69.14753212490494" lon="26.301956176757812"/><trkpt lat="69.14740991441064" lon="26.30161285400391"/><trkpt lat="69.14734880890686" lon="26.30109786987305"/><trkpt lat="69.14734880890686" lon="26.30058288574219"/><trkpt lat="69.14734880890686" lon="26.30006790161133"/><trkpt lat="69.14734880890686" lon="26.299552917480472"/><trkpt lat="69.14734880890686" lon="26.299037933349613"/><trkpt lat="69.14734880890686" lon="26.298522949218754"/><trkpt lat="69.14734880890686" lon="26.298007965087894"/><trkpt lat="69.14734880890686" lon="26.297492980957035"/><trkpt lat="69.14740991441064" lon="26.296977996826172"/><trkpt lat="69.14753212490494" lon="26.296634674072266"/><trkpt lat="69.14765433471491" lon="26.296291351318363"/><trkpt lat="69.14771543936327" lon="26.295776367187504"/><trkpt lat="69.14783764814676" lon="26.295433044433597"/><trkpt lat="69.14795985624592" lon="26.29508972167969"/><trkpt lat="69.14802096003886" lon="26.29457473754883"/><trkpt lat="69.14814316711154" lon="26.294231414794925"/><trkpt lat="69.1482653734999" lon="26.29388809204102"/><trkpt lat="69.14838757920396" lon="26.293544769287113"/><trkpt lat="69.1485097842237" lon="26.293201446533207"/><trkpt lat="69.14869309047023" lon="26.293029785156254"/><trkpt lat="69.14881529377924" lon="26.292686462402347"/><trkpt lat="69.14893749640392" lon="26.292171478271484"/><trkpt lat="69.14899859745965" lon="26.291656494140625"/><trkpt lat="69.1490596983443" lon="26.291141510009766"/><trkpt lat="69.14912079905788" lon="26.29062652587891"/><trkpt lat="69.14912079905788" lon="26.29011154174805"/><trkpt lat="69.14918189960042" lon="26.28959655761719"/><trkpt lat="69.14918189960042" lon="26.28908157348633"/><trkpt lat="69.14924299997185" lon="26.288566589355472"/><trkpt lat="69.14924299997185" lon="26.288051605224613"/><trkpt lat="69.14930410017223" lon="26.287536621093754"/><trkpt lat="69.14930410017223" lon="26.287021636962894"/><trkpt lat="69.14942630005976" lon="26.286678314208984"/><trkpt lat="69.14942630005976" lon="26.286163330078125"/><trkpt lat="69.149548499263" lon="26.28582000732422"/><trkpt lat="69.14967069778199" lon="26.285305023193363"/><trkpt lat="69.14979289561668" lon="26.284961700439457"/><trkpt lat="69.1499150927671" lon="26.28461837768555"/><trkpt lat="69.14997619108573" lon="26.28410339355469"/><trkpt lat="69.15003728923327" lon="26.28358840942383"/><trkpt lat="69.15015948501517" lon="26.283245086669925"/><trkpt lat="69.15022058264951" lon="26.282730102539066"/><trkpt lat="69.15028168011281" lon="26.282215118408207"/><trkpt lat="69.15040387452618" lon="26.2818717956543"/><trkpt lat="69.15052606825527" lon="26.28152847290039"/><trkpt lat="69.15064826130016" lon="26.281185150146484"/><trkpt lat="69.150709357566" lon="26.280670166015625"/><trkpt lat="69.15083154958451" lon="26.280326843261722"/><trkpt lat="69.15089264533715" lon="26.279811859130863"/><trkpt lat="69.15101483632928" lon="26.279296875000004"/><trkpt lat="69.15113702663719" lon="26.278953552246097"/><trkpt lat="69.15125921626087" lon="26.27861022949219"/><trkpt lat="69.15138140520028" lon="26.278266906738285"/><trkpt lat="69.15150359345549" lon="26.27792358398438"/><trkpt lat="69.15156468732651" lon="26.27740859985352"/><trkpt lat="69.15162578102645" lon="26.27689361572266"/><trkpt lat="69.15168687455537" lon="26.2763786315918"/><trkpt lat="69.15180906110001" lon="26.27603530883789"/><trkpt lat="69.15193124696046" lon="26.275691986083984"/><trkpt lat="69.15205343213667" lon="26.275348663330078"/><trkpt lat="69.15223670861808" lon="26.27517700195313"/><trkpt lat="69.1523588920838" lon="26.274833679199222"/><trkpt lat="69.15254216599946" lon="26.27466201782227"/><trkpt lat="69.15266434775465" lon="26.274318695068363"/><trkpt lat="69.15284761910458" lon="26.273975372314457"/><trkpt lat="69.1529697991493" lon="26.27363204956055"/><trkpt lat="69.15309197850982" lon="26.273288726806644"/><trkpt lat="69.15321415718618" lon="26.272945404052738"/><trkpt lat="69.15333633517834" lon="26.27260208129883"/><trkpt lat="69.15345851248635" lon="26.272258758544925"/><trkpt lat="69.15358068911016" lon="26.27191543579102"/><trkpt lat="69.15370286504981" lon="26.271572113037113"/><trkpt lat="69.15382504030529" lon="26.271228790283207"/><trkpt lat="69.15394721487662" lon="26.270885467529297"/><trkpt lat="69.15406938876379" lon="26.27054214477539"/><trkpt lat="69.1541915619668" lon="26.270198822021484"/><trkpt lat="69.15431373448565" lon="26.26985549926758"/><trkpt lat="69.15443590632036" lon="26.269512176513675"/><trkpt lat="69.15455807747091" lon="26.26916885375977"/><trkpt lat="69.15474133291397" lon="26.268825531005863"/><trkpt lat="69.15486350235417" lon="26.268482208251957"/><trkpt lat="69.15504675523174" lon="26.26813888549805"/><trkpt lat="69.15523000657" lon="26.267795562744144"/><trkpt lat="69.15535217327368" lon="26.267452239990238"/><trkpt lat="69.15553542204648" lon="26.267280578613285"/><trkpt lat="69.15565758703987" lon="26.26693725585938"/><trkpt lat="69.15577975134914" lon="26.266593933105472"/><trkpt lat="69.15590191497431" lon="26.266250610351566"/><trkpt lat="69.15602407791538" lon="26.26590728759766"/><trkpt lat="69.1561462401723" lon="26.26556396484375"/><trkpt lat="69.15626840174515" lon="26.265220642089844"/><trkpt lat="69.15645164282174" lon="26.264877319335938"/><trkpt lat="69.15657380268435" lon="26.264533996582035"/><trkpt lat="69.15669596186287" lon="26.26419067382813"/><trkpt lat="69.15681812035731" lon="26.263847351074222"/><trkpt lat="69.15700135681632" lon="26.26367568969727"/><trkpt lat="69.15712351360057" lon="26.263332366943363"/><trkpt lat="69.15724566970071" lon="26.262817382812504"/><trkpt lat="69.15736782511682" lon="26.262474060058597"/><trkpt lat="69.15748997984885" lon="26.26213073730469"/><trkpt lat="69.15755105695833" lon="26.26161575317383"/><trkpt lat="69.15767321066426" lon="26.261272430419925"/><trkpt lat="69.15779536368613" lon="26.26092910766602"/><trkpt lat="69.15791751602393" lon="26.260585784912113"/><trkpt lat="69.15797859193631" lon="26.26007080078125"/><trkpt lat="69.15810074324804" lon="26.259727478027344"/><trkpt lat="69.15822289387575" lon="26.259384155273438"/><trkpt lat="69.15834504381938" lon="26.25886917114258"/><trkpt lat="69.15840611853467" lon="26.258354187011722"/><trkpt lat="69.15852826745227" lon="26.258010864257816"/><trkpt lat="69.1586504156858" lon="26.25766754150391"/><trkpt lat="69.15877256323532" lon="26.25715255737305"/><trkpt lat="69.1588947101008" lon="26.256809234619144"/><trkpt lat="69.15901685628224" lon="26.256465911865238"/><trkpt lat="69.15913900177966" lon="26.25612258911133"/><trkpt lat="69.15920007427187" lon="26.255607604980472"/><trkpt lat="69.15932221874327" lon="26.255264282226566"/><trkpt lat="69.15950543416785" lon="26.254920959472656"/><trkpt lat="69.15962757692921" lon="26.25457763671875"/><trkpt lat="69.15981078978874" lon="26.254234313964844"/><trkpt lat="69.1599329308401" lon="26.25389099121094"/><trkpt lat="69.16005507120744" lon="26.253547668457035"/><trkpt lat="69.16017721089081" lon="26.25320434570313"/><trkpt lat="69.16029934989018" lon="26.252861022949222"/><trkpt lat="69.16048255710675" lon="26.252517700195316"/><trkpt lat="69.16060469439614" lon="26.25217437744141"/><trkpt lat="69.16072683100155" lon="26.251831054687504"/><trkpt lat="69.16078789904778" lon="26.251316070556644"/><trkpt lat="69.16078789904778" lon="26.251316070556644"/><trkpt lat="69.16078789904778" lon="26.251316070556644"/><trkpt lat="69.16091003462722" lon="26.250972747802738"/><trkpt lat="69.16109323671397" lon="26.25062942504883"/><trkpt lat="69.16121537058349" lon="26.250286102294925"/><trkpt lat="69.16133750376905" lon="26.24994277954102"/><trkpt lat="69.16145963627065" lon="26.24959945678711"/><trkpt lat="69.16152070226495" lon="26.24908447265625"/><trkpt lat="69.16164283374063" lon="26.248741149902344"/><trkpt lat="69.16170389922198" lon="26.248226165771488"/><trkpt lat="69.16176496453234" lon="26.24771118164063"/><trkpt lat="69.16188709464011" lon="26.247367858886722"/><trkpt lat="69.16200922406392" lon="26.247024536132816"/><trkpt lat="69.1621313528038" lon="26.24668121337891"/><trkpt lat="69.16219241691725" lon="26.24616622924805"/><trkpt lat="69.1623145446312" lon="26.245822906494144"/><trkpt lat="69.16243667166123" lon="26.245479583740238"/><trkpt lat="69.16249773491978" lon="26.24496459960938"/><trkpt lat="69.16255879800731" lon="26.244449615478516"/><trkpt lat="69.1626809236695" lon="26.24410629272461"/><trkpt lat="69.16280304864772" lon="26.243762969970703"/><trkpt lat="69.16292517294204" lon="26.243419647216797"/><trkpt lat="69.16304729655246" lon="26.24290466308594"/><trkpt lat="69.16316941947893" lon="26.242561340332035"/><trkpt lat="69.16329154172149" lon="26.24221801757813"/><trkpt lat="69.16341366328015" lon="26.24170303344727"/><trkpt lat="69.16353578415493" lon="26.241359710693363"/><trkpt lat="69.16365790434577" lon="26.241016387939457"/><trkpt lat="69.16378002385272" lon="26.24067306518555"/><trkpt lat="69.16384108334974" lon="26.24015808105469"/><trkpt lat="69.16396320183087" lon="26.239814758300785"/><trkpt lat="69.16408531962809" lon="26.23947143554688"/><trkpt lat="69.16420743674142" lon="26.23912811279297"/><trkpt lat="69.16432955317086" lon="26.238784790039062"/><trkpt lat="69.16445166891644" lon="26.238441467285156"/><trkpt lat="69.16457378397811" lon="26.23809814453125"/><trkpt lat="69.16469589835593" lon="26.237754821777347"/><trkpt lat="69.16481801204986" lon="26.237239837646488"/><trkpt lat="69.16494012505996" lon="26.23689651489258"/><trkpt lat="69.16506223738615" lon="26.236553192138675"/><trkpt lat="69.16518434902851" lon="26.236038208007816"/><trkpt lat="69.165306459987" lon="26.23569488525391"/><trkpt lat="69.16542857026164" lon="26.235351562500004"/><trkpt lat="69.16555067985243" lon="26.235008239746097"/><trkpt lat="69.16567278875935" lon="26.23466491699219"/><trkpt lat="69.16579489698246" lon="26.234321594238285"/><trkpt lat="69.16585595083755" lon="26.233806610107422"/><trkpt lat="69.1659780580349" lon="26.233463287353516"/><trkpt lat="69.16610016454838" lon="26.23311996459961"/><trkpt lat="69.16622227037803" lon="26.232604980468754"/><trkpt lat="69.16634437552386" lon="26.232261657714847"/><trkpt lat="69.16646647998587" lon="26.23191833496094"/><trkpt lat="69.16658858376404" lon="26.231575012207035"/><trkpt lat="69.16677173814914" lon="26.23123168945313"/><trkpt lat="69.16689384021777" lon="26.230888366699222"/><trkpt lat="69.1670159416026" lon="26.230545043945316"/><trkpt lat="69.16719909239768" lon="26.23020172119141"/><trkpt lat="69.16732119207298" lon="26.229858398437504"/><trkpt lat="69.16744329106449" lon="26.229515075683597"/><trkpt lat="69.1675653893722" lon="26.22917175292969"/><trkpt lat="69.16774853555164" lon="26.229000091552738"/><trkpt lat="69.16787063214984" lon="26.22865676879883"/><trkpt lat="69.16805377576507" lon="26.228485107421875"/><trkpt lat="69.16817587065385" lon="26.22814178466797"/><trkpt lat="69.16835901170492" lon="26.227970123291016"/><trkpt lat="69.16848110488425" lon="26.22762680053711"/><trkpt lat="69.1686031973798" lon="26.227283477783207"/><trkpt lat="69.1687252891916" lon="26.2269401550293"/><trkpt lat="69.1688473803196" lon="26.226596832275394"/><trkpt lat="69.16896947076387" lon="26.226253509521488"/><trkpt lat="69.16903051572959" lon="26.22573852539063"/><trkpt lat="69.16915260514824" lon="26.225395202636722"/><trkpt lat="69.16921364960113" lon="26.224880218505863"/><trkpt lat="69.16933573799415" lon="26.224536895751957"/><trkpt lat="69.16933573799415" lon="26.224021911621097"/><trkpt lat="69.1694578257034" lon="26.223506927490238"/><trkpt lat="69.1694578257034" lon="26.222991943359375"/><trkpt lat="69.16951886930163" lon="26.222476959228516"/><trkpt lat="69.16957991272893" lon="26.22196197509766"/><trkpt lat="69.16964095598527" lon="26.2214469909668"/><trkpt lat="69.16970199907068" lon="26.22093200683594"/><trkpt lat="69.16982408472875" lon="26.220588684082035"/><trkpt lat="69.16988512730134" lon="26.220073699951175"/><trkpt lat="69.1700072119338" lon="26.21973037719727"/><trkpt lat="69.1701292958825" lon="26.219387054443363"/><trkpt lat="69.17025137914749" lon="26.219043731689457"/><trkpt lat="69.17037346172876" lon="26.21870040893555"/><trkpt lat="69.17049554362627" lon="26.218357086181644"/><trkpt lat="69.17061762484012" lon="26.218013763427738"/><trkpt lat="69.17073970537022" lon="26.217670440673828"/><trkpt lat="69.17086178521663" lon="26.217327117919922"/><trkpt lat="69.17104490370428" lon="26.216983795166016"/><trkpt lat="69.17116698184144" lon="26.216640472412113"/><trkpt lat="69.17128905929488" lon="26.216297149658207"/><trkpt lat="69.17141113606465" lon="26.2159538269043"/><trkpt lat="69.17153321215069" lon="26.215610504150394"/><trkpt lat="69.17165528755307" lon="26.215267181396488"/><trkpt lat="69.17177736227174" lon="26.21492385864258"/><trkpt lat="69.1718383993747" lon="26.214408874511722"/><trkpt lat="69.17196047306788" lon="26.214065551757816"/><trkpt lat="69.17208254607738" lon="26.21372222900391"/><trkpt lat="69.1722046184032" lon="26.213378906250004"/><trkpt lat="69.17232669004534" lon="26.213035583496097"/><trkpt lat="69.17238772561004" lon="26.212520599365234"/><trkpt lat="69.17250979622669" lon="26.212177276611328"/><trkpt lat="69.17257083127863" lon="26.21166229248047"/><trkpt lat="69.1726929008698" lon="26.211318969726566"/><trkpt lat="69.1728149697773" lon="26.21097564697266"/><trkpt lat="69.17293703800115" lon="26.210632324218754"/><trkpt lat="69.17305910554134" lon="26.210289001464847"/><trkpt lat="69.1731811723979" lon="26.20994567871094"/><trkpt lat="69.1732422055698" lon="26.20943069458008"/><trkpt lat="69.1733642714009" lon="26.209087371826175"/><trkpt lat="69.17348633654835" lon="26.20874404907227"/><trkpt lat="69.17360840101216" lon="26.208400726318363"/><trkpt lat="69.17373046479233" lon="26.208057403564457"/><trkpt lat="69.1739135591808" lon="26.20771408081055"/><trkpt lat="69.17403562125192" lon="26.207370758056644"/><trkpt lat="69.17421871307678" lon="26.207199096679688"/><trkpt lat="69.17434077343884" lon="26.20685577392578"/><trkpt lat="69.17452386270018" lon="26.206684112548828"/><trkpt lat="69.17470695042338" lon="26.206340789794922"/><trkpt lat="69.17482900805103" lon="26.20599746704102"/><trkpt lat="69.17482900805103" lon="26.20599746704102"/><trkpt lat="69.17482900805103" lon="26.20599746704102"/><trkpt lat="69.17501209321073" lon="26.20599746704102"/><trkpt lat="69.17519517683236" lon="26.205825805664066"/><trkpt lat="69.1753782589159" lon="26.205654144287113"/><trkpt lat="69.17550031278378" lon="26.205310821533207"/><trkpt lat="69.17562236596807" lon="26.2049674987793"/><trkpt lat="69.1758054444628" lon="26.204795837402347"/><trkpt lat="69.17598852141951" lon="26.204624176025394"/><trkpt lat="69.17611057186951" lon="26.204280853271488"/><trkpt lat="69.17629364626283" lon="26.204280853271488"/><trkpt lat="69.17647671911816" lon="26.204109191894535"/><trkpt lat="69.17665979043544" lon="26.20393753051758"/><trkpt lat="69.17684286021478" lon="26.20376586914063"/><trkpt lat="69.17702592845612" lon="26.203594207763675"/><trkpt lat="69.1772089951595" lon="26.203422546386722"/><trkpt lat="69.17739206032493" lon="26.20325088500977"/><trkpt lat="69.1775751239524" lon="26.203079223632816"/><trkpt lat="69.17775818604196" lon="26.203079223632816"/><trkpt lat="69.17794124659356" lon="26.202907562255863"/><trkpt lat="69.1781243056073" lon="26.20273590087891"/><trkpt lat="69.1783073630831" lon="26.202564239501957"/><trkpt lat="69.17849041902103" lon="26.202392578125004"/><trkpt lat="69.17867347342107" lon="26.20222091674805"/><trkpt lat="69.1787955088334" lon="26.20187759399414"/><trkpt lat="69.17897856067034" lon="26.20187759399414"/><trkpt lat="69.17910059437395" lon="26.201534271240234"/><trkpt lat="69.17928364364779" lon="26.20136260986328"/><trkpt lat="69.17946669138384" lon="26.201190948486328"/><trkpt lat="69.17964973758207" lon="26.201019287109375"/><trkpt lat="69.17977176752653" lon="26.200675964355472"/><trkpt lat="69.17995481116174" lon="26.20050430297852"/><trkpt lat="69.18013785325917" lon="26.200332641601566"/><trkpt lat="69.1802598804698" lon="26.19998931884766"/><trkpt lat="69.18044292000425" lon="26.199817657470707"/><trkpt lat="69.18062595800096" lon="26.1994743347168"/><trkpt lat="69.1808089944599" lon="26.199302673339847"/><trkpt lat="69.18099202938113" lon="26.199131011962894"/><trkpt lat="69.18117506276462" lon="26.198787689208988"/><trkpt lat="69.18135809461037" lon="26.198616027832035"/><trkpt lat="69.18154112491845" lon="26.19844436645508"/><trkpt lat="69.18172415368882" lon="26.19827270507813"/><trkpt lat="69.18190718092151" lon="26.198101043701175"/><trkpt lat="69.18209020661654" lon="26.198101043701175"/><trkpt lat="69.1822732307739" lon="26.197929382324222"/><trkpt lat="69.18245625339361" lon="26.19775772094727"/><trkpt lat="69.18257826761916" lon="26.197414398193363"/><trkpt lat="69.18276128767616" lon="26.19724273681641"/><trkpt lat="69.18294430619552" lon="26.197071075439457"/><trkpt lat="69.18312732317727" lon="26.196899414062504"/><trkpt lat="69.18331033862142" lon="26.196727752685547"/><trkpt lat="69.18349335252799" lon="26.196727752685547"/><trkpt lat="69.183676364897" lon="26.196556091308594"/><trkpt lat="69.18385937572843" lon="26.19638442993164"/><trkpt lat="69.1840423850223" lon="26.196212768554688"/><trkpt lat="69.18422539277861" lon="26.196041107177734"/><trkpt lat="69.18440839899742" lon="26.19586944580078"/><trkpt lat="69.18453040228913" lon="26.19552612304688"/><trkpt lat="69.1847134059454" lon="26.195354461669925"/><trkpt lat="69.18489640806416" lon="26.195182800292972"/><trkpt lat="69.18507940864545" lon="26.19501113891602"/><trkpt lat="69.18526240768924" lon="26.194667816162113"/><trkpt lat="69.18544540519557" lon="26.19449615478516"/><trkpt lat="69.18562840116444" lon="26.194324493408207"/><trkpt lat="69.18581139559586" lon="26.194152832031254"/><trkpt lat="69.18599438848985" lon="26.1939811706543"/><trkpt lat="69.18617737984641" lon="26.193809509277347"/><trkpt lat="69.18636036966556" lon="26.193637847900394"/><trkpt lat="69.18654335794733" lon="26.19346618652344"/><trkpt lat="69.18672634469168" lon="26.19346618652344"/><trkpt lat="69.18690932989864" lon="26.19346618652344"/><trkpt lat="69.18709231356826" lon="26.193294525146488"/><trkpt lat="69.1872752957005" lon="26.193294525146488"/><trkpt lat="69.18745827629539" lon="26.193122863769535"/><trkpt lat="69.18764125535297" lon="26.193122863769535"/><trkpt lat="69.18782423287321" lon="26.193122863769535"/><trkpt lat="69.18800720885613" lon="26.19295120239258"/><trkpt lat="69.18819018330174" lon="26.19295120239258"/><trkpt lat="69.18837315621009" lon="26.19295120239258"/><trkpt lat="69.18855612758112" lon="26.19277954101563"/><trkpt lat="69.1887390974149" lon="26.19277954101563"/><trkpt lat="69.18892206571141" lon="26.192607879638675"/><trkpt lat="69.18910503247068" lon="26.192436218261722"/><trkpt lat="69.18928799769273" lon="26.19226455688477"/><trkpt lat="69.18947096137752" lon="26.192092895507816"/><trkpt lat="69.18965392352511" lon="26.191921234130863"/><trkpt lat="69.18983688413552" lon="26.19174957275391"/><trkpt lat="69.1900198432087" lon="26.191577911376957"/><trkpt lat="69.1902028007447" lon="26.19140625"/><trkpt lat="69.19038575674357" lon="26.191234588623047"/><trkpt lat="69.19056871120523" lon="26.191234588623047"/><trkpt lat="69.19075166412978" lon="26.191062927246094"/><trkpt lat="69.19093461551718" lon="26.191062927246094"/><trkpt lat="69.19111756536745" lon="26.19089126586914"/><trkpt lat="69.19130051368059" lon="26.19089126586914"/><trkpt lat="69.19148346045664" lon="26.19089126586914"/><trkpt lat="69.1916664056956" lon="26.19089126586914"/><trkpt lat="69.19184934939747" lon="26.19089126586914"/><trkpt lat="69.19203229156228" lon="26.190719604492188"/><trkpt lat="69.19203229156228" lon="26.190719604492188"/><trkpt lat="69.19203229156228" lon="26.190719604492188"/><trkpt lat="69.19221523219001" lon="26.190719604492188"/><trkpt lat="69.1923981712807" lon="26.190719604492188"/><trkpt lat="69.19258110883436" lon="26.190719604492188"/><trkpt lat="69.19276404485099" lon="26.190547943115234"/><trkpt lat="69.19294697933061" lon="26.190547943115234"/><trkpt lat="69.1931299122732" lon="26.19037628173828"/><trkpt lat="69.19331284367884" lon="26.19037628173828"/><trkpt lat="69.19349577354747" lon="26.19020462036133"/><trkpt lat="69.19367870187912" lon="26.19003295898438"/><trkpt lat="69.1938616286738" lon="26.19003295898438"/><trkpt lat="69.19404455393156" lon="26.189861297607425"/><trkpt lat="69.19422747765236" lon="26.189689636230472"/><trkpt lat="69.19441039983623" lon="26.18951797485352"/><trkpt lat="69.19459332048321" lon="26.189346313476566"/><trkpt lat="69.19477623959327" lon="26.189346313476566"/><trkpt lat="69.19495915716644" lon="26.189174652099613"/><trkpt lat="69.19514207320273" lon="26.189174652099613"/><trkpt lat="69.19532498770212" lon="26.189174652099613"/><trkpt lat="69.19550790066468" lon="26.189174652099613"/><trkpt lat="69.19569081209036" lon="26.18900299072266"/><trkpt lat="69.19587372197924" lon="26.18900299072266"/><trkpt lat="69.19605663033126" lon="26.188831329345707"/><trkpt lat="69.19623953714645" lon="26.188831329345707"/><trkpt lat="69.19642244242488" lon="26.188659667968754"/><trkpt lat="69.19660534616649" lon="26.1884880065918"/><trkpt lat="69.19678824837132" lon="26.188316345214847"/><trkpt lat="69.19697114903937" lon="26.188144683837894"/><trkpt lat="69.19715404817066" lon="26.188144683837894"/><trkpt lat="69.1973369457652" lon="26.188144683837894"/><trkpt lat="69.19751984182301" lon="26.188144683837894"/><trkpt lat="69.19770273634407" lon="26.188144683837894"/><trkpt lat="69.19788562932844" lon="26.188144683837894"/><trkpt lat="69.19806852077608" lon="26.18797302246094"/><trkpt lat="69.19825141068704" lon="26.18797302246094"/><trkpt lat="69.1984342990613" lon="26.187801361083988"/><trkpt lat="69.1986171858989" lon="26.187629699707035"/><trkpt lat="69.19880007119983" lon="26.187629699707035"/><trkpt lat="69.19898295496411" lon="26.187629699707035"/><trkpt lat="69.19916583719176" lon="26.18745803833008"/><trkpt lat="69.19934871788276" lon="26.18745803833008"/><trkpt lat="69.19953159703716" lon="26.18728637695313"/><trkpt lat="69.19971447465495" lon="26.187114715576175"/><trkpt lat="69.19989735073612" lon="26.187114715576175"/><trkpt lat="69.20008022528073" lon="26.186943054199222"/><trkpt lat="69.20026309828874" lon="26.186943054199222"/><trkpt lat="69.20044596976022" lon="26.186943054199222"/><trkpt lat="69.20062883969514" lon="26.18677139282227"/><trkpt lat="69.2008117080935" lon="26.18677139282227"/><trkpt lat="69.20099457495536" lon="26.186599731445316"/><trkpt lat="69.20117744028069" lon="26.186428070068363"/><trkpt lat="69.20136030406951" lon="26.186428070068363"/><trkpt lat="69.20136030406951" lon="26.186428070068363"/><trkpt lat="69.20178698026815" lon="26.18625640869141"/><trkpt lat="69.20196983893536" lon="26.18625640869141"/><trkpt lat="69.20215269606611" lon="26.18625640869141"/><trkpt lat="69.20233555166041" lon="26.186084747314453"/><trkpt lat="69.20251840571828" lon="26.186084747314453"/><trkpt lat="69.20270125823971" lon="26.1859130859375"/><trkpt lat="69.2028841092247" lon="26.1859130859375"/><trkpt lat="69.20306695867333" lon="26.185741424560547"/><trkpt lat="69.20324980658553" lon="26.185569763183594"/><trkpt lat="69.20343265296137" lon="26.185569763183594"/><trkpt lat="69.20361549780084" lon="26.185569763183594"/><trkpt lat="69.20379834110393" lon="26.185569763183594"/><trkpt lat="69.20398118287069" lon="26.185569763183594"/><trkpt lat="69.2041640231011" lon="26.185569763183594"/><trkpt lat="69.20434686179519" lon="26.185569763183594"/><trkpt lat="69.20452969895297" lon="26.185569763183594"/><trkpt lat="69.20471253457443" lon="26.185569763183594"/><trkpt lat="69.2048953686596" lon="26.185569763183594"/><trkpt lat="69.20507820120848" lon="26.185569763183594"/><trkpt lat="69.20526103222109" lon="26.185569763183594"/><trkpt lat="69.20544386169745" lon="26.185569763183594"/><trkpt lat="69.20562668963757" lon="26.18539810180664"/><trkpt lat="69.20580951604143" lon="26.18539810180664"/><trkpt lat="69.20599234090905" lon="26.185226440429688"/><trkpt lat="69.20617516424048" lon="26.185054779052734"/><trkpt lat="69.20635798603571" lon="26.184883117675785"/><trkpt lat="69.20654080629471" lon="26.18471145629883"/><trkpt lat="69.20672362501756" lon="26.18453979492188"/><trkpt lat="69.20690644220423" lon="26.184368133544925"/><trkpt lat="69.20708925785473" lon="26.184196472167972"/><trkpt lat="69.20727207196906" lon="26.18402481079102"/><trkpt lat="69.20745488454727" lon="26.183853149414066"/><trkpt lat="69.20763769558936" lon="26.183681488037113"/><trkpt lat="69.20782050509534" lon="26.183681488037113"/><trkpt lat="69.20800331306519" lon="26.18350982666016"/><trkpt lat="69.20818611949896" lon="26.18350982666016"/><trkpt lat="69.20836892439662" lon="26.183338165283207"/><trkpt lat="69.20855172775823" lon="26.183338165283207"/><trkpt lat="69.20873452958378" lon="26.18350982666016"/><trkpt lat="69.20891732987327" lon="26.183681488037113"/><trkpt lat="69.20910012862672" lon="26.183681488037113"/><trkpt lat="69.20928292584414" lon="26.18350982666016"/><trkpt lat="69.20946572152556" lon="26.183338165283207"/><trkpt lat="69.20964851567093" lon="26.183166503906254"/><trkpt lat="69.20977037758121" lon="26.182823181152347"/><trkpt lat="69.20995316916662" lon="26.182823181152347"/><trkpt lat="69.21013595921605" lon="26.182651519775394"/><trkpt lat="69.21031874772953" lon="26.18247985839844"/><trkpt lat="69.21050153470703" lon="26.18247985839844"/><trkpt lat="69.2106843201486" lon="26.182308197021488"/><trkpt lat="69.21086710405426" lon="26.182136535644535"/><trkpt lat="69.21104988642395" lon="26.18196487426758"/><trkpt lat="69.21123266725776" lon="26.18179321289063"/><trkpt lat="69.21141544655565" lon="26.181621551513675"/><trkpt lat="69.21159822431765" lon="26.181449890136722"/><trkpt lat="69.2117810005438" lon="26.18127822875977"/><trkpt lat="69.21196377523407" lon="26.181106567382816"/><trkpt lat="69.21214654838847" lon="26.180934906005863"/><trkpt lat="69.21232932000703" lon="26.180763244628906"/><trkpt lat="69.21251209008977" lon="26.180591583251953"/><trkpt lat="69.21269485863668" lon="26.180419921875"/><trkpt lat="69.21287762564778" lon="26.180248260498047"/><trkpt lat="69.21306039112307" lon="26.180076599121094"/><trkpt lat="69.21324315506257" lon="26.17973327636719"/><trkpt lat="69.2134259174663" lon="26.179561614990238"/><trkpt lat="69.21360867833424" lon="26.179389953613285"/><trkpt lat="69.21379143766646" lon="26.179389953613285"/><trkpt lat="69.21397419546291" lon="26.17921829223633"/><trkpt lat="69.21415695172362" lon="26.17921829223633"/><trkpt lat="69.21433970644863" lon="26.17904663085938"/><trkpt lat="69.21452245963792" lon="26.17904663085938"/><trkpt lat="69.2147052112915" lon="26.17904663085938"/><trkpt lat="69.2147661281681" lon="26.178874969482425"/><trkpt lat="69.2147661281681" lon="26.178874969482425"/><trkpt lat="69.21494887777408" lon="26.178874969482425"/><trkpt lat="69.21513162584442" lon="26.178874969482425"/><trkpt lat="69.21531437237908" lon="26.178874969482425"/><trkpt lat="69.21549711737809" lon="26.178874969482425"/><trkpt lat="69.21567986084146" lon="26.178874969482425"/><trkpt lat="69.21586260276918" lon="26.178874969482425"/><trkpt lat="69.2160453431613" lon="26.178874969482425"/><trkpt lat="69.21622808201779" lon="26.178874969482425"/><trkpt lat="69.21641081933869" lon="26.178874969482425"/><trkpt lat="69.21659355512399" lon="26.178874969482425"/><trkpt lat="69.21677628937375" lon="26.178874969482425"/><trkpt lat="69.21695902208793" lon="26.178874969482425"/><trkpt lat="69.21714175326656" lon="26.178874969482425"/><trkpt lat="69.21732448290962" lon="26.17904663085938"/><trkpt lat="69.21750721101716" lon="26.17904663085938"/><trkpt lat="69.2176899375892" lon="26.17921829223633"/><trkpt lat="69.21781175445082" lon="26.179561614990238"/><trkpt lat="69.21787266262572" lon="26.180076599121094"/><trkpt lat="69.21799447846367" lon="26.180419921875"/><trkpt lat="69.21805538612674" lon="26.180934906005863"/><trkpt lat="69.21811629361919" lon="26.181449890136722"/><trkpt lat="69.21817720094101" lon="26.18196487426758"/><trkpt lat="69.21823810809225" lon="26.18247985839844"/><trkpt lat="69.21835992188288" lon="26.1829948425293"/><trkpt lat="69.21842082852231" lon="26.18350982666016"/><trkpt lat="69.21848173499112" lon="26.18402481079102"/><trkpt lat="69.21854264128929" lon="26.18453979492188"/><trkpt lat="69.21866445337388" lon="26.184883117675785"/><trkpt lat="69.21866445337388" lon="26.18539810180664"/><trkpt lat="69.21872535916023" lon="26.1859130859375"/><trkpt lat="69.2188471702212" lon="26.186428070068363"/><trkpt lat="69.21890807549576" lon="26.186943054199222"/><trkpt lat="69.21890807549576" lon="26.18745803833008"/><trkpt lat="69.2189689805997" lon="26.18797302246094"/><trkpt lat="69.2189689805997" lon="26.1884880065918"/><trkpt lat="69.2189689805997" lon="26.18900299072266"/><trkpt lat="69.2189689805997" lon="26.18951797485352"/><trkpt lat="69.2189689805997" lon="26.19003295898438"/><trkpt lat="69.2189689805997" lon="26.190547943115234"/><trkpt lat="69.2189689805997" lon="26.191062927246094"/><trkpt lat="69.21902988553306" lon="26.191577911376957"/><trkpt lat="69.21902988553306" lon="26.192092895507816"/><trkpt lat="69.21902988553306" lon="26.192607879638675"/><trkpt lat="69.21902988553306" lon="26.193122863769535"/><trkpt lat="69.21902988553306" lon="26.193637847900394"/><trkpt lat="69.21902988553306" lon="26.194152832031254"/><trkpt lat="69.21902988553306" lon="26.194667816162113"/><trkpt lat="69.21902988553306" lon="26.195182800292972"/><trkpt lat="69.21902988553306" lon="26.195697784423828"/><trkpt lat="69.21909079029581" lon="26.196212768554688"/><trkpt lat="69.21915169488797" lon="26.196727752685547"/><trkpt lat="69.21921259930951" lon="26.19724273681641"/><trkpt lat="69.21927350356044" lon="26.19775772094727"/><trkpt lat="69.21933440764079" lon="26.19827270507813"/><trkpt lat="69.21939531155054" lon="26.198787689208988"/><trkpt lat="69.21945621528967" lon="26.199302673339847"/><trkpt lat="69.2195171188582" lon="26.199817657470707"/><trkpt lat="69.21957802225616" lon="26.200332641601566"/><trkpt lat="69.21957802225616" lon="26.200847625732425"/><trkpt lat="69.21963892548351" lon="26.20136260986328"/><trkpt lat="69.21969982854024" lon="26.20187759399414"/><trkpt lat="69.21976073142639" lon="26.202392578125004"/><trkpt lat="69.21982163414192" lon="26.202907562255863"/><trkpt lat="69.21988253668688" lon="26.203422546386722"/><trkpt lat="69.21988253668688" lon="26.203422546386722"/><trkpt lat="69.21988253668688" lon="26.203594207763675"/><trkpt lat="69.21994343906123" lon="26.204109191894535"/><trkpt lat="69.22006524329814" lon="26.204624176025394"/><trkpt lat="69.2201261451607" lon="26.205139160156254"/><trkpt lat="69.22018704685264" lon="26.205654144287113"/><trkpt lat="69.22024794837404" lon="26.206169128417972"/><trkpt lat="69.22030884972479" lon="26.206684112548828"/><trkpt lat="69.22036975090496" lon="26.207199096679688"/><trkpt lat="69.22043065191454" lon="26.20771408081055"/><trkpt lat="69.22049155275354" lon="26.20822906494141"/><trkpt lat="69.22049155275354" lon="26.20874404907227"/><trkpt lat="69.22055245342194" lon="26.20925903320313"/><trkpt lat="69.22061335391973" lon="26.209774017333988"/><trkpt lat="69.22067425424696" lon="26.210289001464847"/><trkpt lat="69.22073515440357" lon="26.210803985595707"/><trkpt lat="69.22085695420505" lon="26.211318969726566"/><trkpt lat="69.22091785384988" lon="26.211833953857422"/><trkpt lat="69.22097875332415" lon="26.21234893798828"/><trkpt lat="69.2210396526278" lon="26.212863922119144"/><trkpt lat="69.22110055176088" lon="26.213378906250004"/><trkpt lat="69.22122234951527" lon="26.21372222900391"/><trkpt lat="69.22128324813657" lon="26.21423721313477"/><trkpt lat="69.22134414658728" lon="26.21475219726563"/><trkpt lat="69.22146594297698" lon="26.215095520019535"/><trkpt lat="69.22152684091591" lon="26.215610504150394"/><trkpt lat="69.22158773868429" lon="26.216125488281254"/><trkpt lat="69.22164863628207" lon="26.216640472412113"/><trkpt lat="69.22170953370927" lon="26.21715545654297"/><trkpt lat="69.22177043096589" lon="26.217670440673828"/><trkpt lat="69.22189222496738" lon="26.21818542480469"/><trkpt lat="69.22195312171223" lon="26.21870040893555"/><trkpt lat="69.2220140182865" lon="26.21921539306641"/><trkpt lat="69.2220749146902" lon="26.21973037719727"/><trkpt lat="69.22219670698583" lon="26.220073699951175"/><trkpt lat="69.22225760287779" lon="26.220588684082035"/><trkpt lat="69.22231849859915" lon="26.221103668212894"/><trkpt lat="69.22244028953014" lon="26.2214469909668"/><trkpt lat="69.22250118473976" lon="26.22196197509766"/><trkpt lat="69.22262297464728" lon="26.222305297851562"/><trkpt lat="69.22274476387247" lon="26.222820281982422"/><trkpt lat="69.22280565822919" lon="26.223335266113285"/><trkpt lat="69.22292744643092" lon="26.22367858886719"/><trkpt lat="69.22298834027592" lon="26.22419357299805"/><trkpt lat="69.22311012745419" lon="26.224536895751957"/><trkpt lat="69.22317102078743" lon="26.225051879882816"/><trkpt lat="69.22323191395014" lon="26.225566864013675"/><trkpt lat="69.22329280694225" lon="26.226081848144535"/><trkpt lat="69.2233536997638" lon="26.226596832275394"/><trkpt lat="69.22341459241476" lon="26.227111816406254"/><trkpt lat="69.22347548489518" lon="26.22762680053711"/><trkpt lat="69.22347548489518" lon="26.22814178466797"/><trkpt lat="69.223536377205" lon="26.22865676879883"/><trkpt lat="69.223536377205" lon="26.22917175292969"/><trkpt lat="69.223536377205" lon="26.22968673706055"/><trkpt lat="69.223536377205" lon="26.23020172119141"/><trkpt lat="69.223536377205" lon="26.23071670532227"/><trkpt lat="69.223536377205" lon="26.23123168945313"/><trkpt lat="69.223536377205" lon="26.231746673583988"/><trkpt lat="69.223536377205" lon="26.232261657714847"/><trkpt lat="69.22341459241476" lon="26.232604980468754"/><trkpt lat="69.22329280694225" lon="26.232948303222656"/><trkpt lat="69.22317102078743" lon="26.233291625976562"/><trkpt lat="69.22298834027592" lon="26.233463287353516"/><trkpt lat="69.22286655241535" lon="26.233806610107422"/><trkpt lat="69.22274476387247" lon="26.23397827148438"/><trkpt lat="69.22256207977881" lon="26.234321594238285"/><trkpt lat="69.22256207977881" lon="26.234321594238285"/><trkpt lat="69.22250118473976" lon="26.234493255615238"/></trkseg></trk></gpx>