<?xml version="1.0"?>
<gpx xmlns="http://www.topografix.com/GPX/1/1" xmlns:gpxx="http://www.garmin.com/xmlschemas/GpxExtensions/v3" creator="CALTOPO" version="1.1"><metadata><name><![CDATA[Urroaivi]]></name></metadata><trk><name>Urroaivi</name><extensions><gpxx:TrackExtension><gpxx:DisplayColor>Red</gpxx:DisplayColor></gpxx:TrackExtension></extensions><trkseg><trkpt lat="69.1475551473368" lon="26.30538940429688"/><trkpt lat="69.14724962014022" lon="26.304016113281254"/><trkpt lat="69.14718851418766" lon="26.304016113281254"/><trkpt lat="69.14706630176924" lon="26.303672790527347"/><trkpt lat="69.14688298185851" lon="26.303501129150394"/><trkpt lat="69.14669966040798" lon="26.30332946777344"/><trkpt lat="69.14651633741765" lon="26.30332946777344"/><trkpt lat="69.14633301288751" lon="26.303157806396488"/><trkpt lat="69.14614968681757" lon="26.303157806396488"/><trkpt lat="69.1459663592078" lon="26.302986145019535"/><trkpt lat="69.14578303005817" lon="26.30281448364258"/><trkpt lat="69.14559969936872" lon="26.302642822265625"/><trkpt lat="69.14541636713936" lon="26.302471160888672"/><trkpt lat="69.14529414479765" lon="26.302127838134766"/><trkpt lat="69.14517192177155" lon="26.30178451538086"/><trkpt lat="69.14504969806106" lon="26.301441192626957"/><trkpt lat="69.14492747366616" lon="26.30109786987305"/><trkpt lat="69.14474413579057" lon="26.300926208496097"/><trkpt lat="69.14462190968467" lon="26.30058288574219"/><trkpt lat="69.14443856924257" lon="26.300411224365238"/><trkpt lat="69.14425522726049" lon="26.300239562988285"/><trkpt lat="69.1440718837385" lon="26.300239562988285"/><trkpt lat="69.14388853867655" lon="26.300239562988285"/><trkpt lat="69.14370519207463" lon="26.300239562988285"/><trkpt lat="69.14352184393273" lon="26.300239562988285"/><trkpt lat="69.14333849425086" lon="26.300239562988285"/><trkpt lat="69.14315514302896" lon="26.300239562988285"/><trkpt lat="69.14297179026707" lon="26.300239562988285"/><trkpt lat="69.14278843596514" lon="26.300239562988285"/><trkpt lat="69.1426050801232" lon="26.300411224365238"/><trkpt lat="69.14242172274123" lon="26.300411224365238"/><trkpt lat="69.14223836381919" lon="26.300411224365238"/><trkpt lat="69.14205500335707" lon="26.30058288574219"/><trkpt lat="69.1418716413549" lon="26.300754547119144"/><trkpt lat="69.1416882778126" lon="26.300926208496097"/><trkpt lat="69.14156603459548" lon="26.301269531250004"/><trkpt lat="69.14138266848639" lon="26.301441192626957"/><trkpt lat="69.14126042355802" lon="26.30178451538086"/><trkpt lat="69.14107705488203" lon="26.302127838134766"/><trkpt lat="69.14089368466591" lon="26.302471160888672"/><trkpt lat="69.14071031290968" lon="26.302642822265625"/><trkpt lat="69.14058806421653" lon="26.302986145019535"/><trkpt lat="69.14040468989332" lon="26.303157806396488"/><trkpt lat="69.14028243948886" lon="26.303501129150394"/><trkpt lat="69.14009906259872" lon="26.3038444519043"/><trkpt lat="69.13991568416834" lon="26.304187774658207"/><trkpt lat="69.1397323041978" lon="26.30435943603516"/><trkpt lat="69.13961005002842" lon="26.304702758789066"/><trkpt lat="69.13942666749082" lon="26.30487442016602"/><trkpt lat="69.13930441161008" lon="26.305217742919925"/><trkpt lat="69.13912102650544" lon="26.30538940429688"/><trkpt lat="69.1389376398605" lon="26.30556106567383"/><trkpt lat="69.13881538124153" lon="26.305904388427738"/><trkpt lat="69.13863199202952" lon="26.30607604980469"/><trkpt lat="69.1385097316991" lon="26.306419372558597"/><trkpt lat="69.13838747068414" lon="26.306762695312504"/><trkpt lat="69.13832633991994" lon="26.30727767944336"/><trkpt lat="69.13820407787809" lon="26.30779266357422"/><trkpt lat="69.13814294660048" lon="26.30830764770508"/><trkpt lat="69.13808181515168" lon="26.30882263183594"/><trkpt lat="69.13795955174069" lon="26.309165954589847"/><trkpt lat="69.13789841977847" lon="26.309680938720707"/><trkpt lat="69.13777615534059" lon="26.310024261474613"/><trkpt lat="69.1376538902181" lon="26.31036758422852"/><trkpt lat="69.13753162441103" lon="26.310710906982425"/><trkpt lat="69.13734822441681" lon="26.31088256835938"/><trkpt lat="69.13722595689822" lon="26.311225891113285"/><trkpt lat="69.1370425543367" lon="26.311397552490238"/><trkpt lat="69.13685915023483" lon="26.311397552490238"/><trkpt lat="69.13667574459254" lon="26.311397552490238"/><trkpt lat="69.13649233740985" lon="26.311397552490238"/><trkpt lat="69.13649233740985" lon="26.311397552490238"/><trkpt lat="69.13649233740985" lon="26.311397552490238"/><trkpt lat="69.13630892868676" lon="26.31156921386719"/><trkpt lat="69.13612551842323" lon="26.311740875244144"/><trkpt lat="69.13600324405843" lon="26.31208419799805"/><trkpt lat="69.13588096900901" lon="26.312427520751953"/><trkpt lat="69.13575869327491" lon="26.31277084350586"/><trkpt lat="69.13569755515113" lon="26.31328582763672"/><trkpt lat="69.13563641685616" lon="26.31380081176758"/><trkpt lat="69.13557527839004" lon="26.31431579589844"/><trkpt lat="69.13551413975279" lon="26.3148307800293"/><trkpt lat="69.13539186196473" lon="26.315174102783207"/><trkpt lat="69.13526958349203" lon="26.315517425537113"/><trkpt lat="69.13514730433468" lon="26.31586074829102"/><trkpt lat="69.13496388431489" lon="26.316032409667972"/><trkpt lat="69.13484160344588" lon="26.31637573242188"/><trkpt lat="69.13471932189219" lon="26.316719055175785"/><trkpt lat="69.13453589827787" lon="26.31706237792969"/><trkpt lat="69.13435247312304" lon="26.317234039306644"/><trkpt lat="69.13423018883061" lon="26.31757736206055"/><trkpt lat="69.13404676110821" lon="26.31757736206055"/><trkpt lat="69.13392447510408" lon="26.317920684814453"/><trkpt lat="69.13374104481404" lon="26.318092346191406"/><trkpt lat="69.13355761298347" lon="26.31826400756836"/><trkpt lat="69.13337417961226" lon="26.31826400756836"/><trkpt lat="69.13319074470049" lon="26.31826400756836"/><trkpt lat="69.1330073082481" lon="26.31826400756836"/><trkpt lat="69.13282387025507" lon="26.318435668945312"/><trkpt lat="69.13264043072144" lon="26.318435668945312"/><trkpt lat="69.13245698964711" lon="26.318607330322266"/><trkpt lat="69.13233469474169" lon="26.318950653076175"/><trkpt lat="69.13215125109961" lon="26.31912231445313"/><trkpt lat="69.13196780591687" lon="26.31912231445313"/><trkpt lat="69.13184550827245" lon="26.319465637207035"/><trkpt lat="69.13166206052192" lon="26.319637298583988"/><trkpt lat="69.13147861123068" lon="26.31980895996094"/><trkpt lat="69.13129516039871" lon="26.320152282714847"/><trkpt lat="69.13117285898811" lon="26.320495605468754"/><trkpt lat="69.13098940558824" lon="26.320667266845707"/><trkpt lat="69.13080595064767" lon="26.32083892822266"/><trkpt lat="69.13062249416633" lon="26.321182250976566"/><trkpt lat="69.13043903614421" lon="26.32135391235352"/><trkpt lat="69.13031672994015" lon="26.321697235107425"/><trkpt lat="69.13019442305131" lon="26.32204055786133"/><trkpt lat="69.13001096143404" lon="26.322212219238285"/><trkpt lat="69.12988865283319" lon="26.32255554199219"/><trkpt lat="69.12970518864792" lon="26.322727203369144"/><trkpt lat="69.1295217229218" lon="26.322727203369144"/><trkpt lat="69.12933825565487" lon="26.322898864746097"/><trkpt lat="69.12915478684708" lon="26.323070526123047"/><trkpt lat="69.12897131649845" lon="26.3232421875"/><trkpt lat="69.12878784460895" lon="26.323585510253906"/><trkpt lat="69.12860437117857" lon="26.32375717163086"/><trkpt lat="69.12848205470229" lon="26.32410049438477"/><trkpt lat="69.12829857870376" lon="26.324272155761722"/><trkpt lat="69.12811510116431" lon="26.32461547851563"/><trkpt lat="69.12793162208399" lon="26.32478713989258"/><trkpt lat="69.12780930184101" lon="26.325130462646488"/><trkpt lat="69.12762582019243" lon="26.325473785400394"/><trkpt lat="69.1275034982373" lon="26.3258171081543"/><trkpt lat="69.12732001402048" lon="26.325988769531254"/><trkpt lat="69.1271976903532" lon="26.32633209228516"/><trkpt lat="69.12707536600102" lon="26.326675415039066"/><trkpt lat="69.12695304096395" lon="26.327018737792972"/><trkpt lat="69.12683071524201" lon="26.32736206054688"/><trkpt lat="69.12670838883518" lon="26.327705383300785"/><trkpt lat="69.12658606174345" lon="26.32804870605469"/><trkpt lat="69.1264025698217" lon="26.328392028808594"/><trkpt lat="69.12628024101775" lon="26.3287353515625"/><trkpt lat="69.1261579115289" lon="26.329078674316406"/><trkpt lat="69.12603558135514" lon="26.329421997070316"/><trkpt lat="69.12591325049647" lon="26.329765319824222"/><trkpt lat="69.12572975292424" lon="26.33010864257813"/><trkpt lat="69.1256685867244" lon="26.330623626708988"/><trkpt lat="69.12554625381098" lon="26.330966949462894"/><trkpt lat="69.12548508709742" lon="26.331481933593754"/><trkpt lat="69.12536275315662" lon="26.33182525634766"/><trkpt lat="69.12524041853091" lon="26.33234024047852"/><trkpt lat="69.12511808322027" lon="26.332683563232425"/><trkpt lat="69.12499574722469" lon="26.33302688598633"/><trkpt lat="69.12481224194705" lon="26.333198547363285"/><trkpt lat="69.1246287351283" lon="26.333541870117188"/><trkpt lat="69.12444522676843" lon="26.33371353149414"/><trkpt lat="69.12432288700568" lon="26.334056854248047"/><trkpt lat="69.12413937607724" lon="26.334228515625"/><trkpt lat="69.12395586360763" lon="26.334571838378906"/><trkpt lat="69.12383352110504" lon="26.334915161132816"/><trkpt lat="69.12371117791747" lon="26.335258483886722"/><trkpt lat="69.12358883404494" lon="26.33560180664063"/><trkpt lat="69.12346648948741" lon="26.335945129394535"/><trkpt lat="69.12340531695179" lon="26.336460113525394"/><trkpt lat="69.12328297136682" lon="26.3368034362793"/><trkpt lat="69.12316062509686" lon="26.33731842041016"/><trkpt lat="69.12303827814193" lon="26.337661743164066"/><trkpt lat="69.12297710440758" lon="26.338176727294925"/><trkpt lat="69.12218183027747" lon="26.339893341064453"/><trkpt lat="69.12212065414563" lon="26.339893341064453"/><trkpt lat="69.12193712472258" lon="26.34006500244141"/><trkpt lat="69.12175359375824" lon="26.34006500244141"/><trkpt lat="69.1215700612526" lon="26.340236663818363"/><trkpt lat="69.12138652720564" lon="26.340408325195316"/><trkpt lat="69.12120299161738" lon="26.34057998657227"/><trkpt lat="69.12108063370223" lon="26.340923309326175"/><trkpt lat="69.12089709554508" lon="26.34109497070313"/><trkpt lat="69.12077473591734" lon="26.341438293457035"/><trkpt lat="69.12059119519125" lon="26.34178161621094"/><trkpt lat="69.12046883385085" lon="26.342124938964847"/><trkpt lat="69.12034647182543" lon="26.342468261718754"/><trkpt lat="69.12022410911493" lon="26.342983245849613"/><trkpt lat="69.12010174571938" lon="26.34332656860352"/><trkpt lat="69.11997938163874" lon="26.343669891357425"/><trkpt lat="69.11979583423332" lon="26.34384155273438"/><trkpt lat="69.11967346844001" lon="26.34418487548828"/><trkpt lat="69.11948991846553" lon="26.344356536865234"/><trkpt lat="69.1193063669496" lon="26.34469985961914"/><trkpt lat="69.11912281389225" lon="26.345043182373047"/><trkpt lat="69.11900044433096" lon="26.345386505126957"/><trkpt lat="69.1188780740846" lon="26.345901489257816"/><trkpt lat="69.11875570315313" lon="26.346244812011722"/><trkpt lat="69.11863333153656" lon="26.34658813476563"/><trkpt lat="69.11851095923487" lon="26.346931457519535"/><trkpt lat="69.11838858624807" lon="26.34727478027344"/><trkpt lat="69.11820502548329" lon="26.347446441650394"/><trkpt lat="69.11808265078372" lon="26.3477897644043"/><trkpt lat="69.11796027539904" lon="26.348133087158207"/><trkpt lat="69.11783789932922" lon="26.348476409912113"/><trkpt lat="69.11771552257427" lon="26.34881973266602"/><trkpt lat="69.11759314513421" lon="26.349163055419925"/><trkpt lat="69.11753195615724" lon="26.34967803955078"/><trkpt lat="69.11740957768944" lon="26.350021362304688"/><trkpt lat="69.11728719853652" lon="26.350364685058594"/><trkpt lat="69.11716481869847" lon="26.350708007812504"/><trkpt lat="69.11698124765674" lon="26.35105133056641"/><trkpt lat="69.1168588661058" lon="26.351394653320316"/><trkpt lat="69.11673648386972" lon="26.351737976074222"/><trkpt lat="69.11667529249473" lon="26.35225296020508"/><trkpt lat="69.11655290923092" lon="26.352596282958988"/><trkpt lat="69.11643052528194" lon="26.352939605712894"/><trkpt lat="69.11636933305053" lon="26.353454589843754"/><trkpt lat="69.11636933305053" lon="26.353969573974613"/><trkpt lat="69.11636933305053" lon="26.354484558105472"/><trkpt lat="69.11636933305053" lon="26.354999542236328"/><trkpt lat="69.11636933305053" lon="26.355514526367188"/><trkpt lat="69.11636933305053" lon="26.35602951049805"/><trkpt lat="69.11636933305053" lon="26.35654449462891"/><trkpt lat="69.11636933305053" lon="26.35705947875977"/><trkpt lat="69.11636933305053" lon="26.35757446289063"/><trkpt lat="69.11636933305053" lon="26.358089447021488"/><trkpt lat="69.11636933305053" lon="26.358604431152347"/><trkpt lat="69.11636933305053" lon="26.359119415283207"/><trkpt lat="69.1163081406478" lon="26.359634399414066"/><trkpt lat="69.11624694807378" lon="26.360149383544922"/><trkpt lat="69.11618575532849" lon="26.36066436767578"/><trkpt lat="69.1161245624119" lon="26.361179351806644"/><trkpt lat="69.11606336932401" lon="26.361694335937504"/><trkpt lat="69.11600217606481" lon="26.362209320068363"/><trkpt lat="69.11587978903256" lon="26.362724304199222"/><trkpt lat="69.11581859525948" lon="26.36323928833008"/><trkpt lat="69.11575740131514" lon="26.36375427246094"/><trkpt lat="69.11569620719948" lon="26.3642692565918"/><trkpt lat="69.11569620719948" lon="26.36478424072266"/><trkpt lat="69.11569620719948" lon="26.36478424072266"/><trkpt lat="69.11575740131514" lon="26.364955902099613"/><trkpt lat="69.11575740131514" lon="26.36547088623047"/><trkpt lat="69.11581859525948" lon="26.365985870361328"/><trkpt lat="69.11581859525948" lon="26.36650085449219"/><trkpt lat="69.11581859525948" lon="26.36701583862305"/><trkpt lat="69.11587978903256" lon="26.36753082275391"/><trkpt lat="69.11587978903256" lon="26.36804580688477"/><trkpt lat="69.11594098263433" lon="26.36856079101563"/><trkpt lat="69.11594098263433" lon="26.369075775146488"/><trkpt lat="69.11600217606481" lon="26.369590759277347"/><trkpt lat="69.11600217606481" lon="26.370105743408207"/><trkpt lat="69.11600217606481" lon="26.370620727539066"/><trkpt lat="69.11600217606481" lon="26.371135711669922"/><trkpt lat="69.11600217606481" lon="26.37165069580078"/><trkpt lat="69.11600217606481" lon="26.372165679931644"/><trkpt lat="69.11600217606481" lon="26.372680664062504"/><trkpt lat="69.11600217606481" lon="26.373195648193363"/><trkpt lat="69.11594098263433" lon="26.373710632324222"/><trkpt lat="69.11587978903256" lon="26.37422561645508"/><trkpt lat="69.11575740131514" lon="26.374568939208988"/><trkpt lat="69.11569620719948" lon="26.375083923339847"/><trkpt lat="69.11563501291253" lon="26.375598907470707"/><trkpt lat="69.11557381845428" lon="26.376113891601562"/><trkpt lat="69.11557381845428" lon="26.376628875732422"/><trkpt lat="69.11551262382473" lon="26.377143859863285"/><trkpt lat="69.11539023405174" lon="26.377830505371097"/><trkpt lat="69.11532903890829" lon="26.378345489501957"/><trkpt lat="69.11520664810753" lon="26.378688812255863"/><trkpt lat="69.11514545245018" lon="26.379203796386722"/><trkpt lat="69.11502306062161" lon="26.37954711914063"/><trkpt lat="69.11496186445036" lon="26.380062103271488"/><trkpt lat="69.11490066810784" lon="26.380577087402347"/><trkpt lat="69.11483947159397" lon="26.381092071533207"/><trkpt lat="69.11477827490887" lon="26.381607055664062"/><trkpt lat="69.1147170780524" lon="26.382122039794922"/><trkpt lat="69.11459468382559" lon="26.38246536254883"/><trkpt lat="69.11459468382559" lon="26.38298034667969"/><trkpt lat="69.1144722889136" lon="26.383323669433597"/><trkpt lat="69.11441109120061" lon="26.383838653564457"/><trkpt lat="69.1142886952608" lon="26.384181976318363"/><trkpt lat="69.11422749703391" lon="26.384696960449222"/><trkpt lat="69.11410510006623" lon="26.38504028320313"/><trkpt lat="69.11404390132545" lon="26.385555267333988"/><trkpt lat="69.11398270241334" lon="26.386070251464847"/><trkpt lat="69.1138603040752" lon="26.386585235595703"/><trkpt lat="69.11373790505183" lon="26.38692855834961"/><trkpt lat="69.11361550534322" lon="26.387271881103516"/><trkpt lat="69.11343190449549" lon="26.38744354248047"/><trkpt lat="69.11330950307378" lon="26.38778686523438"/><trkpt lat="69.11312589965637" lon="26.38795852661133"/><trkpt lat="69.11300349652154" lon="26.388301849365238"/><trkpt lat="69.11288109270146" lon="26.388645172119144"/><trkpt lat="69.11269748568643" lon="26.388816833496097"/><trkpt lat="69.11257508015319" lon="26.389160156250004"/><trkpt lat="69.11245267393468" lon="26.38950347900391"/><trkpt lat="69.11233026703087" lon="26.389846801757816"/><trkpt lat="69.11220785944182" lon="26.390190124511722"/><trkpt lat="69.11208545116749" lon="26.39053344726563"/><trkpt lat="69.11196304220785" lon="26.390876770019535"/><trkpt lat="69.11184063256295" lon="26.39122009277344"/><trkpt lat="69.11171822223274" lon="26.3917350769043"/><trkpt lat="69.11159581121726" lon="26.392250061035156"/><trkpt lat="69.11147339951647" lon="26.392765045166016"/><trkpt lat="69.11135098713041" lon="26.393108367919925"/><trkpt lat="69.11122857405903" lon="26.39345169067383"/><trkpt lat="69.11116736726635" lon="26.39396667480469"/><trkpt lat="69.11104495316701" lon="26.394309997558597"/><trkpt lat="69.11098374586035" lon="26.394824981689457"/><trkpt lat="69.11086133073306" lon="26.395168304443363"/><trkpt lat="69.1108001229124" lon="26.395683288574222"/><trkpt lat="69.11067770675712" lon="26.39602661132813"/><trkpt lat="69.1106164984225" lon="26.396541595458988"/><trkpt lat="69.11055528991652" lon="26.397056579589847"/><trkpt lat="69.11049408123925" lon="26.397571563720703"/><trkpt lat="69.11037166337067" lon="26.39791488647461"/><trkpt lat="69.11031045417937" lon="26.398429870605472"/><trkpt lat="69.11024924481676" lon="26.39894485473633"/><trkpt lat="69.11012682557751" lon="26.399288177490238"/><trkpt lat="69.11000440565294" lon="26.399631500244144"/><trkpt lat="69.10994319543367" lon="26.400146484375004"/><trkpt lat="69.10982077448107" lon="26.40048980712891"/><trkpt lat="69.10969835284315" lon="26.40100479125977"/><trkpt lat="69.1095759305199" lon="26.40151977539063"/><trkpt lat="69.10945350751129" lon="26.401863098144535"/><trkpt lat="69.10925789427131" lon="26.401605606079105"/><trkpt lat="69.1092272881383" lon="26.40169143676758"/><trkpt lat="69.10913546948225" lon="26.40177726745606"/><trkpt lat="69.10904365044071" lon="26.401863098144535"/><trkpt lat="69.10898243753216" lon="26.402034759521488"/><trkpt lat="69.10889061784808" lon="26.402120590209964"/><trkpt lat="69.10879879777849" lon="26.40220642089844"/><trkpt lat="69.10870697732337" lon="26.402292251586918"/><trkpt lat="69.1086151564827" lon="26.402378082275394"/><trkpt lat="69.10855394237477" lon="26.402549743652344"/><trkpt lat="69.10846212089159" lon="26.40263557434082"/><trkpt lat="69.10840090635527" lon="26.402807235717773"/><trkpt lat="69.10830908422957" lon="26.402978897094727"/><trkpt lat="69.1082478692649" lon="26.40315055847168"/><trkpt lat="69.10818665412889" lon="26.403322219848633"/><trkpt lat="69.10809483110359" lon="26.40340805053711"/><trkpt lat="69.10800300769276" lon="26.403493881225586"/><trkpt lat="69.1079111838964" lon="26.403665542602543"/><trkpt lat="69.10781935971453" lon="26.40375137329102"/><trkpt lat="69.10775814337906" lon="26.403923034667972"/><trkpt lat="69.10766631855462" lon="26.40400886535645"/><trkpt lat="69.10757449334464" lon="26.404094696044925"/><trkpt lat="69.10748266774911" lon="26.404180526733402"/><trkpt lat="69.10739084176805" lon="26.40426635742188"/><trkpt lat="69.10729901540145" lon="26.404352188110355"/><trkpt lat="69.10723779760951" lon="26.40452384948731"/><trkpt lat="69.10714597060034" lon="26.404609680175785"/><trkpt lat="69.10708475238003" lon="26.404781341552738"/><trkpt lat="69.10699292472827" lon="26.404867172241214"/><trkpt lat="69.10690109669096" lon="26.40495300292969"/><trkpt lat="69.10680926826814" lon="26.405038833618168"/><trkpt lat="69.10671743945973" lon="26.405124664306644"/><trkpt lat="69.10662561026577" lon="26.40521049499512"/><trkpt lat="69.10653378068626" lon="26.405382156372074"/><trkpt lat="69.10644195072123" lon="26.40546798706055"/><trkpt lat="69.1063501203706" lon="26.405553817749027"/><trkpt lat="69.10628889992266" lon="26.40572547912598"/><trkpt lat="69.10619706892945" lon="26.405811309814457"/><trkpt lat="69.10613584805311" lon="26.40598297119141"/><trkpt lat="69.10604401641729" lon="26.406068801879886"/><trkpt lat="69.10598279511255" lon="26.40624046325684"/><trkpt lat="69.10589096283414" lon="26.406412124633793"/><trkpt lat="69.10582974110099" lon="26.406583786010746"/><trkpt lat="69.10573790817998" lon="26.4067554473877"/><trkpt lat="69.10567668601843" lon="26.406927108764652"/><trkpt lat="69.1056154636855" lon="26.407098770141605"/><trkpt lat="69.10552362986485" lon="26.40718460083008"/><trkpt lat="69.10546240710352" lon="26.407356262207035"/><trkpt lat="69.10537057264021" lon="26.407527923583988"/><trkpt lat="69.10530934945047" lon="26.40769958496094"/><trkpt lat="69.10524812608936" lon="26.40787124633789"/><trkpt lat="69.10518690255692" lon="26.408042907714844"/><trkpt lat="69.10512567885307" lon="26.408300399780273"/><trkpt lat="69.10506445497789" lon="26.408472061157227"/><trkpt lat="69.10500323093132" lon="26.40864372253418"/><trkpt lat="69.10491139454012" lon="26.408729553222656"/><trkpt lat="69.10485017006515" lon="26.408901214599613"/><trkpt lat="69.10475833303137" lon="26.408901214599613"/><trkpt lat="69.10466649561198" lon="26.40898704528809"/><trkpt lat="69.10457465780702" lon="26.40898704528809"/><trkpt lat="69.10448281961646" lon="26.40898704528809"/><trkpt lat="69.10439098104034" lon="26.409072875976566"/><trkpt lat="69.10429914207862" lon="26.409158706665043"/><trkpt lat="69.1042073027313" lon="26.40924453735352"/><trkpt lat="69.1041154629984" lon="26.409330368041996"/><trkpt lat="69.10402362287991" lon="26.409416198730472"/><trkpt lat="69.10393178237584" lon="26.409416198730472"/><trkpt lat="69.10383994148619" lon="26.40950202941895"/><trkpt lat="69.1037481002109" lon="26.409587860107425"/><trkpt lat="69.10365625855005" lon="26.409673690795902"/><trkpt lat="69.10356441650359" lon="26.40975952148438"/><trkpt lat="69.10347257407152" lon="26.409845352172855"/><trkpt lat="69.10338073125385" lon="26.40993118286133"/><trkpt lat="69.10328888805059" lon="26.40993118286133"/><trkpt lat="69.10319704446174" lon="26.41001701354981"/><trkpt lat="69.10310520048728" lon="26.410102844238285"/><trkpt lat="69.10301335612718" lon="26.41018867492676"/><trkpt lat="69.1029215113815" lon="26.410274505615238"/><trkpt lat="69.10282966625022" lon="26.410360336303714"/><trkpt lat="69.10273782073331" lon="26.410531997680668"/><trkpt lat="69.10264597483078" lon="26.410617828369144"/><trkpt lat="69.10255412854265" lon="26.410617828369144"/><trkpt lat="69.10246228186891" lon="26.41070365905762"/><trkpt lat="69.10237043480957" lon="26.410789489746097"/><trkpt lat="69.10227858736458" lon="26.410875320434574"/><trkpt lat="69.10218673953399" lon="26.41096115112305"/><trkpt lat="69.10209489131779" lon="26.411046981811527"/><trkpt lat="69.10200304271595" lon="26.411132812500004"/><trkpt lat="69.1019111937285" lon="26.411132812500004"/><trkpt lat="69.10181934435542" lon="26.41121864318848"/><trkpt lat="69.10172749459672" lon="26.411304473876957"/><trkpt lat="69.10163564445239" lon="26.411304473876957"/><trkpt lat="69.10154379392242" lon="26.411390304565433"/><trkpt lat="69.10145194300685" lon="26.411561965942386"/><trkpt lat="69.10132947451952" lon="26.411561965942386"/><trkpt lat="69.10132947451952" lon="26.411561965942386"/><trkpt lat="69.10129885729057" lon="26.411647796630863"/>

<trkpt lat="69.10120700534664" lon="26.41173362731934"/>
</trkseg>
<trkseg>
  <extensions>
    <line xmlns="http://www.topografix.com/GPX/gpx_style/0/2">
      <color>FF0000</color>
      <opacity>0.5</opacity>
      <weight>10</weight>
      <linecap>square</linecap>
      <linejoin>square</linejoin>
      <dasharray>0,10</dasharray>
      <dashoffset>3</dashoffset>
    </line>
  </extensions>
<trkpt lat="69.1005134838187" lon="26.41272068023682"/><trkpt lat="69.1004981746386" lon="26.412591934204105"/><trkpt lat="69.10048286544779" lon="26.41246318817139"/><trkpt lat="69.10046755624626" lon="26.412334442138675"/><trkpt lat="69.10045224703403" lon="26.41220569610596"/><trkpt lat="69.10043693781107" lon="26.412076950073246"/><trkpt lat="69.10042162857741" lon="26.41194820404053"/><trkpt lat="69.10040631933303" lon="26.411819458007816"/><trkpt lat="69.10039101007796" lon="26.4116907119751"/><trkpt lat="69.10039101007796" lon="26.411561965942386"/><trkpt lat="69.10037570081215" lon="26.411433219909668"/><trkpt lat="69.10036039153565" lon="26.411304473876957"/><trkpt lat="69.10034508224842" lon="26.41117572784424"/><trkpt lat="69.10032977295049" lon="26.411046981811527"/><trkpt lat="69.10031446364185" lon="26.41091823577881"/><trkpt lat="69.10029915432249" lon="26.410789489746097"/><trkpt lat="69.10028384499242" lon="26.41066074371338"/><trkpt lat="69.10025322630014" lon="26.410531997680668"/><trkpt lat="69.10023791693793" lon="26.410403251647953"/><trkpt lat="69.10022260756502" lon="26.410274505615238"/><trkpt lat="69.10020729818139" lon="26.410145759582523"/><trkpt lat="69.10019198878702" lon="26.41001701354981"/><trkpt lat="69.10017667938196" lon="26.409888267517093"/><trkpt lat="69.10016136996619" lon="26.40975952148438"/><trkpt lat="69.10014606053971" lon="26.409630775451664"/><trkpt lat="69.10013075110253" lon="26.40950202941895"/><trkpt lat="69.1001154416546" lon="26.409330368041996"/><trkpt lat="69.10010013219598" lon="26.409158706665043"/><trkpt lat="69.10006951324658" lon="26.40898704528809"/><trkpt lat="69.10005420375583" lon="26.408815383911133"/><trkpt lat="69.10003889425437" lon="26.40868663787842"/><trkpt lat="69.10002358474219" lon="26.408557891845703"/><trkpt lat="69.10000827521928" lon="26.408429145812992"/><trkpt lat="69.09997765614138" lon="26.408214569091797"/><trkpt lat="69.09996234658632" lon="26.407957077026367"/><trkpt lat="69.09993172744412" lon="26.407785415649418"/><trkpt lat="69.09990110825905" lon="26.40744209289551"/><trkpt lat="69.09988579865046" lon="26.407313346862797"/><trkpt lat="69.09987048903115" lon="26.40718460083008"/><trkpt lat="69.09985517940113" lon="26.40701293945313"/><trkpt lat="69.09983986976039" lon="26.406884193420414"/><trkpt lat="69.09982456010896" lon="26.4067554473877"/><trkpt lat="69.09980925044678" lon="26.406583786010746"/><trkpt lat="69.0997939407739" lon="26.40645503997803"/><trkpt lat="69.09977863109033" lon="26.406326293945316"/><trkpt lat="69.09976332139603" lon="26.406154632568363"/><trkpt lat="69.099748011691" lon="26.406025886535645"/><trkpt lat="69.09971739224885" lon="26.405811309814457"/><trkpt lat="69.0997020825117" lon="26.40568256378174"/><trkpt lat="69.09967146300528" lon="26.405553817749027"/><trkpt lat="69.09965615323596" lon="26.40542507171631"/><trkpt lat="69.09964084345599" lon="26.405296325683597"/><trkpt lat="69.09961022386383" lon="26.40516757965088"/><trkpt lat="69.09959491405169" lon="26.405038833618168"/><trkpt lat="69.09957960422885" lon="26.404910087585453"/><trkpt lat="69.09956429439528" lon="26.404781341552738"/><trkpt lat="69.09953367469602" lon="26.404652595520023"/><trkpt lat="69.09951836483032" lon="26.40452384948731"/><trkpt lat="69.09948774506678" lon="26.404395103454593"/><trkpt lat="69.09945712526036" lon="26.40426635742188"/><trkpt lat="69.09942650541113" lon="26.404094696044925"/><trkpt lat="69.09941119547044" lon="26.40396595001221"/><trkpt lat="69.0993805755569" lon="26.403880119323734"/><trkpt lat="69.09936526558408" lon="26.40375137329102"/><trkpt lat="69.09933464560628" lon="26.403665542602543"/><trkpt lat="69.09931933560132" lon="26.403536796569828"/><trkpt lat="69.09928871555924" lon="26.40345096588135"/><trkpt lat="69.09927340552213" lon="26.403322219848633"/><trkpt lat="69.09924278541577" lon="26.40319347381592"/><trkpt lat="69.09921216526658" lon="26.40302181243897"/><trkpt lat="69.09918154507453" lon="26.402850151062015"/><trkpt lat="69.09916623496242" lon="26.402721405029297"/><trkpt lat="69.0991509248396" lon="26.402592658996586"/><trkpt lat="69.09912030456186" lon="26.40246391296387"/><trkpt lat="69.09908968424124" lon="26.402292251586918"/><trkpt lat="69.09907437406487" lon="26.402120590209964"/><trkpt lat="69.09905906387777" lon="26.40199184417725"/><trkpt lat="69.09904375367996" lon="26.401863098144535"/><trkpt lat="69.09902844347145" lon="26.40173435211182"/><trkpt lat="69.09899782302229" lon="26.401605606079105"/><trkpt lat="69.09898251278165" lon="26.40147686004639"/><trkpt lat="69.09895189226818" lon="26.401391029357914"/><trkpt lat="69.09893658199539" lon="26.4012622833252"/><trkpt lat="69.09890596141766" lon="26.401176452636722"/><trkpt lat="69.09887534079711" lon="26.401047706604007"/><trkpt lat="69.09884472013367" lon="26.400918960571293"/><trkpt lat="69.09882940978588" lon="26.400790214538574"/><trkpt lat="69.09879878905816" lon="26.400704383850098"/><trkpt lat="69.09876816828762" lon="26.400575637817386"/><trkpt lat="69.09872223705143" lon="26.400403976440433"/><trkpt lat="69.09869161617374" lon="26.400275230407715"/><trkpt lat="69.09866099525318" lon="26.400146484375004"/><trkpt lat="69.09863037428981" lon="26.400060653686527"/><trkpt lat="69.09859975328355" lon="26.39993190765381"/><trkpt lat="69.09856913223446" lon="26.399803161621097"/><trkpt lat="69.09852320058044" lon="26.399674415588382"/><trkpt lat="69.09849257942423" lon="26.399588584899906"/><trkpt lat="69.09844664760952" lon="26.399416923522953"/><trkpt lat="69.09841602634616" lon="26.399288177490238"/><trkpt lat="69.09838540503995" lon="26.39920234680176"/><trkpt lat="69.09835478369087" lon="26.399116516113285"/><trkpt lat="69.09832416229897" lon="26.39898777008057"/><trkpt lat="69.09830885158694" lon="26.398859024047855"/><trkpt lat="69.09827823013073" lon="26.39877319335938"/><trkpt lat="69.09824760863167" lon="26.398687362670902"/><trkpt lat="69.09821698708974" lon="26.398558616638187"/><trkpt lat="69.098186365505" lon="26.39847278594971"/><trkpt lat="69.09815574387737" lon="26.398386955261234"/><trkpt lat="69.09812512220691" lon="26.398301124572757"/><trkpt lat="69.09809450049359" lon="26.39821529388428"/><trkpt lat="69.09806387873742" lon="26.398129463195804"/><trkpt lat="69.09803325693838" lon="26.398043632507328"/><trkpt lat="69.09800263509648" lon="26.39795780181885"/><trkpt lat="69.09797201321177" lon="26.397871971130375"/><trkpt lat="69.09794139128415" lon="26.397786140441898"/><trkpt lat="69.09791076931371" lon="26.39765739440918"/><trkpt lat="69.09788014730043" lon="26.397571563720703"/><trkpt lat="69.09784952524427" lon="26.397442817687992"/><trkpt lat="69.09781890314527" lon="26.397356986999515"/><trkpt lat="69.09780359207969" lon="26.397228240966797"/><trkpt lat="69.0977729699164" lon="26.397142410278324"/><trkpt lat="69.09774234771025" lon="26.397056579589847"/><trkpt lat="69.09769641432071" lon="26.397056579589847"/><trkpt lat="69.09769641432071" lon="26.397056579589847"/><trkpt lat="69.09769641432071" lon="26.39701366424561"/><trkpt lat="69.09765048083473" lon="26.396927833557132"/><trkpt lat="69.09761985845715" lon="26.396842002868656"/><trkpt lat="69.0975586135735" lon="26.396799087524418"/><trkpt lat="69.09751267979823" lon="26.39675617218018"/><trkpt lat="69.09746674592657" lon="26.396670341491703"/><trkpt lat="69.09742081195847" lon="26.396627426147464"/><trkpt lat="69.09737487789393" lon="26.396584510803226"/><trkpt lat="69.09732894373299" lon="26.396541595458988"/><trkpt lat="69.09728300947563" lon="26.39649868011475"/><trkpt lat="69.09723707512184" lon="26.39645576477051"/><trkpt lat="69.09719114067163" lon="26.396369934082035"/><trkpt lat="69.09714520612499" lon="26.396369934082035"/><trkpt lat="69.09709927148192" lon="26.396327018737797"/><trkpt lat="69.09705333674245" lon="26.39628410339356"/><trkpt lat="69.09700740190654" lon="26.39628410339356"/><trkpt lat="69.0969614669742" lon="26.39628410339356"/><trkpt lat="69.09691553194544" lon="26.39628410339356"/><trkpt lat="69.09686959682028" lon="26.39628410339356"/><trkpt lat="69.09682366159866" lon="26.39628410339356"/><trkpt lat="69.09677772628064" lon="26.39628410339356"/><trkpt lat="69.09673179086617" lon="26.39628410339356"/><trkpt lat="69.09668585535529" lon="26.39628410339356"/><trkpt lat="69.09663991974799" lon="26.396327018737797"/><trkpt lat="69.09659398404425" lon="26.396369934082035"/><trkpt lat="69.09654804824409" lon="26.396369934082035"/><trkpt lat="69.09650211234748" lon="26.396412849426273"/><trkpt lat="69.0964561763545" lon="26.39645576477051"/><trkpt lat="69.09641024026503" lon="26.39649868011475"/><trkpt lat="69.09636430407917" lon="26.396541595458988"/><trkpt lat="69.09631836779687" lon="26.396541595458988"/><trkpt lat="69.09627243141817" lon="26.396584510803226"/><trkpt lat="69.09622649494302" lon="26.396627426147464"/><trkpt lat="69.09618055837144" lon="26.396670341491703"/><trkpt lat="69.09613462170344" lon="26.39671325683594"/><trkpt lat="69.09608868493899" lon="26.39675617218018"/><trkpt lat="69.09604274807813" lon="26.396799087524418"/><trkpt lat="69.09599681112086" lon="26.396884918212894"/><trkpt lat="69.09595087406716" lon="26.396927833557132"/><trkpt lat="69.095904936917" lon="26.39697074890137"/><trkpt lat="69.09584368723347" lon="26.39701366424561"/><trkpt lat="69.09579774985833" lon="26.397099494934086"/><trkpt lat="69.09575181238677" lon="26.397142410278324"/><trkpt lat="69.09570587481876" lon="26.397185325622562"/><trkpt lat="69.09567524971985" lon="26.39727115631104"/><trkpt lat="69.09562931199113" lon="26.397314071655273"/><trkpt lat="69.095583374166" lon="26.397356986999515"/><trkpt lat="69.09553743624444" lon="26.397442817687992"/><trkpt lat="69.09549149822642" lon="26.397485733032227"/><trkpt lat="69.09544556011197" lon="26.39752864837647"/><trkpt lat="69.09539962190111" lon="26.397571563720703"/><trkpt lat="69.09535368359381" lon="26.397614479064945"/><trkpt lat="69.09530774519008" lon="26.39765739440918"/><trkpt lat="69.09526180668993" lon="26.39770030975342"/><trkpt lat="69.09521586809333" lon="26.397786140441898"/><trkpt lat="69.0951699294003" lon="26.397786140441898"/><trkpt lat="69.09513930355139" lon="26.397871971130375"/><trkpt lat="69.09509336469766" lon="26.39795780181885"/><trkpt lat="69.09506273874158" lon="26.398043632507328"/><trkpt lat="69.09501679972713" lon="26.398129463195804"/><trkpt lat="69.09498617366391" lon="26.39821529388428"/><trkpt lat="69.09495554755783" lon="26.398301124572757"/><trkpt lat="69.09492492140892" lon="26.398386955261234"/><trkpt lat="69.09489429521712" lon="26.39847278594971"/><trkpt lat="69.09486366898247" lon="26.398558616638187"/><trkpt lat="69.09483304270495" lon="26.398644447326664"/><trkpt lat="69.0948024163846" lon="26.39873027801514"/><trkpt lat="69.09477179002137" lon="26.398816108703617"/><trkpt lat="69.09474116361528" lon="26.398901939392093"/><trkpt lat="69.09471053716635" lon="26.39903068542481"/><trkpt lat="69.09467991067454" lon="26.399116516113285"/><trkpt lat="69.09464928413988" lon="26.39920234680176"/><trkpt lat="69.09461865756236" lon="26.399288177490238"/><trkpt lat="69.09458803094199" lon="26.399416923522953"/><trkpt lat="69.09455740427873" lon="26.39950275421143"/><trkpt lat="69.09452677757265" lon="26.399588584899906"/><trkpt lat="69.09448083743314" lon="26.399674415588382"/><trkpt lat="69.09445021061988" lon="26.39976024627686"/><trkpt lat="69.09441958376378" lon="26.399846076965332"/><trkpt lat="69.09438895686482" lon="26.39993190765381"/><trkpt lat="69.094358329923" lon="26.400017738342285"/><trkpt lat="69.09434301643601" lon="26.400146484375004"/><trkpt lat="69.09431238942989" lon="26.40023231506348"/><trkpt lat="69.0942817623809" lon="26.400318145751957"/><trkpt lat="69.09425113528906" lon="26.400403976440433"/><trkpt lat="69.09422050815436" lon="26.40048980712891"/><trkpt lat="69.09418988097683" lon="26.40061855316162"/><trkpt lat="69.09415925375642" lon="26.400704383850098"/><trkpt lat="69.09412862649313" lon="26.400833129882816"/><trkpt lat="69.09408268551786" lon="26.400918960571293"/><trkpt lat="69.09403674444616" lon="26.401047706604007"/><trkpt lat="69.09400611701143" lon="26.401133537292484"/><trkpt lat="69.09397548953385" lon="26.40121936798096"/><trkpt lat="69.09394486201342" lon="26.401305198669437"/><trkpt lat="69.09389892065239" lon="26.401391029357914"/><trkpt lat="69.09386829302481" lon="26.40147686004639"/><trkpt lat="69.09383766535434" lon="26.401562690734867"/><trkpt lat="69.09380703764104" lon="26.401648521423343"/><trkpt lat="69.09377640988487" lon="26.40173435211182"/><trkpt lat="69.09374578208585" lon="26.401820182800297"/><trkpt lat="69.09371515424397" lon="26.401906013488773"/><trkpt lat="69.0936845263592" lon="26.40199184417725"/><trkpt lat="69.09365389843158" lon="26.402077674865726"/><trkpt lat="69.09362327046112" lon="26.40220642089844"/><trkpt lat="69.09357732842504" lon="26.402292251586918"/><trkpt lat="69.0935467003474" lon="26.402378082275394"/><trkpt lat="69.0935007581506" lon="26.40246391296387"/><trkpt lat="69.09345481585736" lon="26.40250682830811"/><trkpt lat="69.09342418760828" lon="26.402592658996586"/><trkpt lat="69.09337824515433" lon="26.40263557434082"/><trkpt lat="69.0933323026039" lon="26.402721405029297"/><trkpt lat="69.09328635995706" lon="26.402807235717773"/><trkpt lat="69.09324041721378" lon="26.402850151062015"/><trkpt lat="69.09320978866465" lon="26.402935981750492"/><trkpt lat="69.09316384576064" lon="26.40302181243897"/><trkpt lat="69.0931179027602" lon="26.403064727783203"/><trkpt lat="69.0930719596633" lon="26.40315055847168"/><trkpt lat="69.09302601646996" lon="26.40319347381592"/><trkpt lat="69.09301070205075" lon="26.403236389160156"/><trkpt lat="69.09301070205075" lon="26.403236389160156"/><trkpt lat="69.09296475872884" lon="26.403279304504398"/><trkpt lat="69.09291881531047" lon="26.403322219848633"/><trkpt lat="69.09288818631131" lon="26.40340805053711"/><trkpt lat="69.09284224273222" lon="26.40345096588135"/><trkpt lat="69.0927962990567" lon="26.403493881225586"/><trkpt lat="69.0927656698861" lon="26.403579711914066"/><trkpt lat="69.09271972604981" lon="26.403622627258304"/><trkpt lat="69.0926737821171" lon="26.403665542602543"/><trkpt lat="69.09262783808798" lon="26.40370845794678"/><trkpt lat="69.09258189396238" lon="26.40375137329102"/><trkpt lat="69.09253594974035" lon="26.403794288635257"/><trkpt lat="69.09247469062761" lon="26.403794288635257"/><trkpt lat="69.09242874618056" lon="26.403794288635257"/><trkpt lat="69.09238280163706" lon="26.403794288635257"/><trkpt lat="69.09233685699711" lon="26.403837203979496"/><trkpt lat="69.09229091226071" lon="26.403837203979496"/><trkpt lat="69.09224496742789" lon="26.403837203979496"/><trkpt lat="69.09219902249863" lon="26.403837203979496"/><trkpt lat="69.09215307747291" lon="26.403837203979496"/><trkpt lat="69.09210713235076" lon="26.403837203979496"/><trkpt lat="69.09206118713215" lon="26.403837203979496"/><trkpt lat="69.0920152418171" lon="26.403837203979496"/><trkpt lat="69.09196929640561" lon="26.403837203979496"/><trkpt lat="69.09190803570696" lon="26.403837203979496"/><trkpt lat="69.09186209007042" lon="26.403837203979496"/><trkpt lat="69.09181614433747" lon="26.403837203979496"/><trkpt lat="69.09177019850806" lon="26.403837203979496"/><trkpt lat="69.0917242525822" lon="26.403837203979496"/><trkpt lat="69.09167830655993" lon="26.403837203979496"/><trkpt lat="69.09163236044117" lon="26.403837203979496"/><trkpt lat="69.09158641422597" lon="26.403837203979496"/><trkpt lat="69.09154046791436" lon="26.403794288635257"/><trkpt lat="69.09149452150628" lon="26.403794288635257"/><trkpt lat="69.09144857500175" lon="26.40375137329102"/><trkpt lat="69.09140262840079" lon="26.40375137329102"/><trkpt lat="69.09134136611613" lon="26.40370845794678"/><trkpt lat="69.09128010366003" lon="26.403665542602543"/><trkpt lat="69.09123415670541" lon="26.403622627258304"/><trkpt lat="69.09118820965438" lon="26.403622627258304"/><trkpt lat="69.09114226250689" lon="26.403579711914066"/><trkpt lat="69.09109631526294" lon="26.403579711914066"/><trkpt lat="69.09105036792255" lon="26.403536796569828"/><trkpt lat="69.09100442048572" lon="26.403493881225586"/><trkpt lat="69.09095847295245" lon="26.403493881225586"/><trkpt lat="69.09091252532272" lon="26.40345096588135"/><trkpt lat="69.09086657759653" lon="26.40345096588135"/><trkpt lat="69.09082062977392" lon="26.40340805053711"/><trkpt lat="69.09077468185485" lon="26.403365135192875"/><trkpt lat="69.09072873383934" lon="26.403322219848633"/><trkpt lat="69.09068278572737" lon="26.403322219848633"/><trkpt lat="69.09063683751894" lon="26.403279304504398"/><trkpt lat="69.09059088921408" lon="26.403236389160156"/><trkpt lat="69.09054494081278" lon="26.403236389160156"/><trkpt lat="69.090498992315" lon="26.40319347381592"/><trkpt lat="69.09045304372081" lon="26.40315055847168"/><trkpt lat="69.09042241127108" lon="26.403064727783203"/><trkpt lat="69.09039177877848" lon="26.40302181243897"/><trkpt lat="69.09039177877848" lon="26.40302181243897"/><trkpt lat="69.09037646251612" lon="26.40289306640625"/><trkpt lat="69.09036114624303" lon="26.40276432037354"/><trkpt lat="69.09036114624303" lon="26.40263557434082"/><trkpt lat="69.09034582995922" lon="26.40250682830811"/><trkpt lat="69.09034582995922" lon="26.402378082275394"/><trkpt lat="69.09034582995922" lon="26.40224933624268"/><trkpt lat="69.09033051366471" lon="26.402120590209964"/><trkpt lat="69.09031519735947" lon="26.40199184417725"/><trkpt lat="69.09031519735947" lon="26.401863098144535"/><trkpt lat="69.09031519735947" lon="26.40173435211182"/><trkpt lat="69.09031519735947" lon="26.401605606079105"/><trkpt lat="69.09033051366471" lon="26.40147686004639"/><trkpt lat="69.09034582995922" lon="26.401348114013675"/><trkpt lat="69.09036114624303" lon="26.40121936798096"/><trkpt lat="69.09037646251612" lon="26.401047706604007"/><trkpt lat="69.09039177877848" lon="26.400918960571293"/><trkpt lat="69.09042241127108" lon="26.400790214538574"/><trkpt lat="69.0904377275013" lon="26.400661468505863"/><trkpt lat="69.09046835992957" lon="26.400532722473145"/><trkpt lat="69.090498992315" lon="26.40036106109619"/><trkpt lat="69.09052962465756" lon="26.40023231506348"/><trkpt lat="69.09056025695727" lon="26.40010356903076"/><trkpt lat="69.09057557309103" lon="26.39997482299805"/><trkpt lat="69.09060620532641" lon="26.399846076965332"/><trkpt lat="69.09063683751894" lon="26.39976024627686"/><trkpt lat="69.09065215359915" lon="26.399631500244144"/><trkpt lat="69.09068278572737" lon="26.399545669555668"/><trkpt lat="69.09068278572737" lon="26.399545669555668"/><trkpt lat="69.09066746966862" lon="26.399545669555668"/><trkpt lat="69.0906981017754" lon="26.39945983886719"/><trkpt lat="69.09072873383934" lon="26.399374008178714"/><trkpt lat="69.09075936586041" lon="26.399288177490238"/><trkpt lat="69.0907899978386" lon="26.399159431457523"/><trkpt lat="69.09082062977392" lon="26.39903068542481"/><trkpt lat="69.09085126166637" lon="26.39894485473633"/><trkpt lat="69.09088189351597" lon="26.398859024047855"/><trkpt lat="69.09089720942471" lon="26.39873027801514"/><trkpt lat="69.09092784121" lon="26.398644447326664"/><trkpt lat="69.09095847295245" lon="26.398558616638187"/><trkpt lat="69.09097378880759" lon="26.398429870605472"/><trkpt lat="69.09100442048572" lon="26.398344039916996"/><trkpt lat="69.091035052121" lon="26.39821529388428"/><trkpt lat="69.0910656837134" lon="26.398086547851562"/><trkpt lat="69.09109631526294" lon="26.398000717163086"/><trkpt lat="69.09112694676963" lon="26.39791488647461"/><trkpt lat="69.09115757823344" lon="26.397829055786133"/><trkpt lat="69.09118820965438" lon="26.39770030975342"/><trkpt lat="69.09121884103246" lon="26.397614479064945"/><trkpt lat="69.09124947236766" lon="26.39752864837647"/><trkpt lat="69.09128010366003" lon="26.397442817687992"/><trkpt lat="69.09131073490951" lon="26.397356986999515"/><trkpt lat="69.09134136611613" lon="26.39727115631104"/><trkpt lat="69.0913719972799" lon="26.397185325622562"/><trkpt lat="69.09140262840079" lon="26.397099494934086"/><trkpt lat="69.0914332594788" lon="26.39701366424561"/><trkpt lat="69.09146389051398" lon="26.396927833557132"/><trkpt lat="69.09149452150628" lon="26.396842002868656"/><trkpt lat="69.09152515245572" lon="26.39675617218018"/><trkpt lat="69.09157109879949" lon="26.396670341491703"/><trkpt lat="69.09160172964177" lon="26.396541595458988"/><trkpt lat="69.09163236044117" lon="26.39645576477051"/><trkpt lat="69.09166299119771" lon="26.396369934082035"/><trkpt lat="69.09169362191139" lon="26.39624118804932"/><trkpt lat="69.0917242525822" lon="26.396155357360843"/><trkpt lat="69.09175488321016" lon="26.39602661132813"/><trkpt lat="69.09178551379524" lon="26.395940780639652"/><trkpt lat="69.09181614433747" lon="26.395854949951175"/><trkpt lat="69.09184677483684" lon="26.3957691192627"/><trkpt lat="69.09187740529332" lon="26.395683288574222"/><trkpt lat="69.09190803570696" lon="26.395597457885746"/><trkpt lat="69.09193866607772" lon="26.395468711853027"/><trkpt lat="69.09196929640561" lon="26.39538288116455"/><trkpt lat="69.09199992669066" lon="26.395297050476074"/><trkpt lat="69.09203055693285" lon="26.395211219787598"/><trkpt lat="69.09207650221573" lon="26.39512538909912"/><trkpt lat="69.09210713235076" lon="26.395039558410645"/><trkpt lat="69.0921377624429" lon="26.394953727722168"/><trkpt lat="69.0921683924922" lon="26.39486789703369"/><trkpt lat="69.09219902249863" lon="26.394782066345215"/><trkpt lat="69.09222965246218" lon="26.39469623565674"/><trkpt lat="69.09226028238288" lon="26.39461040496826"/><trkpt lat="69.09229091226071" lon="26.39452457427979"/><trkpt lat="69.09232154209569" lon="26.394395828247074"/><trkpt lat="69.0923521718878" lon="26.394309997558597"/><trkpt lat="69.09238280163706" lon="26.394181251525882"/><trkpt lat="69.09241343134345" lon="26.394095420837406"/><trkpt lat="69.09244406100696" lon="26.39400959014893"/><trkpt lat="69.09245937582264" lon="26.393880844116214"/><trkpt lat="69.09249000542188" lon="26.393795013427738"/><trkpt lat="69.09252063497824" lon="26.39370918273926"/><trkpt lat="69.09255126449173" lon="26.393623352050785"/><trkpt lat="69.09256657923241" lon="26.39349460601807"/><trkpt lat="69.09259720868162" lon="26.393408775329593"/><trkpt lat="69.09262783808798" lon="26.39328002929688"/><trkpt lat="69.09265846745144" lon="26.393151283264164"/><trkpt lat="69.09268909677206" lon="26.393065452575687"/><trkpt lat="69.09271972604981" lon="26.392936706542972"/><trkpt lat="69.0927503552847" lon="26.392850875854492"/><trkpt lat="69.09278098447676" lon="26.392765045166016"/><trkpt lat="69.0927962990567" lon="26.392636299133304"/><trkpt lat="69.09282692818444" lon="26.392550468444828"/><trkpt lat="69.09285755726931" lon="26.39246463775635"/><trkpt lat="69.09287287179568" lon="26.392335891723633"/><trkpt lat="69.09290350081625" lon="26.392250061035156"/><trkpt lat="69.09293412979399" lon="26.39216423034668"/><trkpt lat="69.09296475872884" lon="26.392078399658203"/><trkpt lat="69.09299538762083" lon="26.391992568969727"/><trkpt lat="69.09302601646996" lon="26.39190673828125"/><trkpt lat="69.09305664527622" lon="26.391820907592777"/><trkpt lat="69.09308727403965" lon="26.3917350769043"/><trkpt lat="69.09313321710441" lon="26.391649246215824"/><trkpt lat="69.09316384576064" lon="26.391563415527347"/><trkpt lat="69.09319447437404" lon="26.39147758483887"/><trkpt lat="69.09322510294459" lon="26.391391754150394"/><trkpt lat="69.09325573147225" lon="26.391305923461918"/><trkpt lat="69.09328635995706" lon="26.39122009277344"/><trkpt lat="69.0933323026039" lon="26.391134262084964"/><trkpt lat="69.09336293098157" lon="26.391048431396488"/><trkpt lat="69.09340887346768" lon="26.39096260070801"/><trkpt lat="69.09345481585736" lon="26.390876770019535"/><trkpt lat="69.09348544406356" lon="26.39079093933106"/><trkpt lat="69.09353138629254" lon="26.39074802398682"/><trkpt lat="69.0935620143916" lon="26.390662193298343"/><trkpt lat="69.0936079564598" lon="26.390576362609867"/><trkpt lat="69.09365389843158" lon="26.39053344726563"/><trkpt lat="69.0936845263592" lon="26.390447616577152"/><trkpt lat="69.09373046817026" lon="26.390447616577152"/><trkpt lat="69.09377640988487" lon="26.390404701232914"/><trkpt lat="69.09382235150305" lon="26.390318870544437"/><trkpt lat="69.09386829302481" lon="26.3902759552002"/><trkpt lat="69.09391423445012" lon="26.390233039855957"/><trkpt lat="69.09396017577899" lon="26.390190124511722"/><trkpt lat="69.09400611701143" lon="26.390190124511722"/><trkpt lat="69.09405205814743" lon="26.39014720916748"/><trkpt lat="69.094097999187" lon="26.39014720916748"/><trkpt lat="69.09414394013014" lon="26.39014720916748"/><trkpt lat="69.09418988097683" lon="26.39014720916748"/><trkpt lat="69.0942358217271" lon="26.39014720916748"/><trkpt lat="69.0942817623809" lon="26.39014720916748"/><trkpt lat="69.0943277029383" lon="26.390104293823246"/><trkpt lat="69.09437364339925" lon="26.390104293823246"/><trkpt lat="69.09441958376378" lon="26.390104293823246"/><trkpt lat="69.09446552403188" lon="26.390104293823246"/><trkpt lat="69.0945114642035" lon="26.390104293823246"/><trkpt lat="69.09455740427873" lon="26.390104293823246"/><trkpt lat="69.09460334425752" lon="26.390104293823246"/><trkpt lat="69.09464928413988" lon="26.390104293823246"/><trkpt lat="69.09466459741256" lon="26.390104293823246"/><trkpt lat="69.09466459741256" lon="26.390104293823246"/><trkpt lat="69.09471053716635" lon="26.390104293823246"/><trkpt lat="69.0947564768237" lon="26.390104293823246"/><trkpt lat="69.0948024163846" lon="26.390104293823246"/><trkpt lat="69.09484835584907" lon="26.39014720916748"/><trkpt lat="69.09489429521712" lon="26.39014720916748"/><trkpt lat="69.09494023448873" lon="26.390190124511722"/><trkpt lat="69.09498617366391" lon="26.390190124511722"/><trkpt lat="69.09503211274264" lon="26.390233039855957"/><trkpt lat="69.09507805172498" lon="26.3902759552002"/><trkpt lat="69.09512399061086" lon="26.390318870544437"/><trkpt lat="69.0951699294003" lon="26.390361785888675"/><trkpt lat="69.09521586809333" lon="26.390404701232914"/><trkpt lat="69.09526180668993" lon="26.390447616577152"/><trkpt lat="69.09530774519008" lon="26.39049053192139"/><trkpt lat="69.09535368359381" lon="26.39053344726563"/><trkpt lat="69.09539962190111" lon="26.390576362609867"/><trkpt lat="69.09544556011197" lon="26.390662193298343"/><trkpt lat="69.09549149822642" lon="26.39070510864258"/><trkpt lat="69.09553743624444" lon="26.39074802398682"/><trkpt lat="69.095583374166" lon="26.39079093933106"/><trkpt lat="69.09562931199113" lon="26.390876770019535"/><trkpt lat="69.09567524971985" lon="26.390919685363773"/><trkpt lat="69.09572118735213" lon="26.39096260070801"/><trkpt lat="69.095767124888" lon="26.39100551605225"/><trkpt lat="69.09581306232744" lon="26.391091346740726"/><trkpt lat="69.09584368723347" lon="26.391177177429203"/><trkpt lat="69.0958896245122" lon="26.39122009277344"/><trkpt lat="69.09593556169446" lon="26.39126300811768"/><trkpt lat="69.09598149878035" lon="26.391305923461918"/><trkpt lat="69.09602743576977" lon="26.391391754150394"/><trkpt lat="69.09607337266276" lon="26.391434669494632"/><trkpt lat="69.09613462170344" lon="26.39152050018311"/><trkpt lat="69.09618055837144" lon="26.391563415527347"/><trkpt lat="69.09622649494302" lon="26.391649246215824"/><trkpt lat="69.09627243141817" lon="26.391692161560062"/><trkpt lat="69.09630305568135" lon="26.39177799224854"/><trkpt lat="69.09634899199578" lon="26.391820907592777"/><trkpt lat="69.09639492821381" lon="26.391863822937015"/><trkpt lat="69.09644086433538" lon="26.39190673828125"/><trkpt lat="69.09648680036054" lon="26.391992568969727"/><trkpt lat="69.09653273628928" lon="26.392078399658203"/><trkpt lat="69.09657867212157" lon="26.39216423034668"/><trkpt lat="69.09662460785745" lon="26.39220714569092"/><trkpt lat="69.09667054349688" lon="26.392335891723633"/><trkpt lat="69.09671647903993" lon="26.39242172241211"/><trkpt lat="69.09676241448652" lon="26.392507553100586"/><trkpt lat="69.09680834983669" lon="26.392593383789062"/><trkpt lat="69.0968389733499" lon="26.39267921447754"/><trkpt lat="69.09688490853938" lon="26.392765045166016"/><trkpt lat="69.0969308436324" lon="26.392850875854492"/><trkpt lat="69.0969614669742" lon="26.392936706542972"/><trkpt lat="69.09699209027313" lon="26.39302253723145"/><trkpt lat="69.09702271352923" lon="26.393108367919925"/><trkpt lat="69.09705333674245" lon="26.393194198608402"/><trkpt lat="69.09708395991282" lon="26.39328002929688"/><trkpt lat="69.09711458304034" lon="26.393365859985355"/><trkpt lat="69.09714520612499" lon="26.39345169067383"/><trkpt lat="69.09717582916679" lon="26.39353752136231"/><trkpt lat="69.09720645216574" lon="26.393623352050785"/><trkpt lat="69.09725238658383" lon="26.39370918273926"/><trkpt lat="69.09728300947563" lon="26.393795013427738"/><trkpt lat="69.09731363232459" lon="26.393880844116214"/><trkpt lat="69.09735956651767" lon="26.39396667480469"/><trkpt lat="69.0973901892595" lon="26.394052505493168"/><trkpt lat="69.09742081195847" lon="26.394181251525882"/><trkpt lat="69.09746674592657" lon="26.39426708221436"/><trkpt lat="69.09749736851838" lon="26.394395828247074"/><trkpt lat="69.09752799106737" lon="26.39448165893555"/><trkpt lat="69.0975586135735" lon="26.394567489624027"/><trkpt lat="69.09758923603674" lon="26.394653320312504"/><trkpt lat="69.09761985845715" lon="26.39473915100098"/><trkpt lat="69.09765048083473" lon="26.39486789703369"/><trkpt lat="69.09768110316942" lon="26.394953727722168"/><trkpt lat="69.09771172546128" lon="26.395039558410645"/><trkpt lat="69.09774234771025" lon="26.39512538909912"/><trkpt lat="69.09774234771025" lon="26.39512538909912"/><trkpt lat="69.09774234771025" lon="26.39512538909912"/><trkpt lat="69.0977729699164" lon="26.395211219787598"/><trkpt lat="69.09781890314527" lon="26.395297050476074"/><trkpt lat="69.09784952524427" lon="26.39538288116455"/><trkpt lat="69.09788014730043" lon="26.395468711853027"/><trkpt lat="69.09792608030429" lon="26.395554542541504"/><trkpt lat="69.0979567022533" lon="26.395640373229984"/><trkpt lat="69.09798732415949" lon="26.39572620391846"/><trkpt lat="69.09803325693838" lon="26.395812034606937"/><trkpt lat="69.09806387873742" lon="26.395897865295414"/><trkpt lat="69.09809450049359" lon="26.39598369598389"/><trkpt lat="69.09812512220691" lon="26.396069526672367"/><trkpt lat="69.09815574387737" lon="26.396155357360843"/><trkpt lat="69.098186365505" lon="26.39624118804932"/><trkpt lat="69.09821698708974" lon="26.396327018737797"/><trkpt lat="69.09824760863167" lon="26.396412849426273"/><trkpt lat="69.09827823013073" lon="26.39649868011475"/><trkpt lat="69.09830885158694" lon="26.396584510803226"/><trkpt lat="69.09835478369087" lon="26.396670341491703"/><trkpt lat="69.09838540503995" lon="26.396799087524418"/><trkpt lat="69.09841602634616" lon="26.396884918212894"/><trkpt lat="69.09844664760952" lon="26.39697074890137"/><trkpt lat="69.09847726883004" lon="26.397099494934086"/><trkpt lat="69.0985078900077" lon="26.397228240966797"/><trkpt lat="69.09853851114251" lon="26.397356986999515"/><trkpt lat="69.09856913223446" lon="26.397442817687992"/><trkpt lat="69.09859975328355" lon="26.39752864837647"/><trkpt lat="69.09863037428981" lon="26.39765739440918"/><trkpt lat="69.09866099525318" lon="26.397743225097656"/><trkpt lat="69.09869161617374" lon="26.397871971130375"/><trkpt lat="69.09872223705143" lon="26.39795780181885"/><trkpt lat="69.09875285788625" lon="26.398043632507328"/><trkpt lat="69.09878347867824" lon="26.39817237854004"/><trkpt lat="69.09881409942739" lon="26.398301124572757"/><trkpt lat="69.09884472013367" lon="26.398429870605472"/><trkpt lat="69.09887534079711" lon="26.39851570129395"/><trkpt lat="69.09889065111274" lon="26.398644447326664"/><trkpt lat="69.0989212717119" lon="26.39873027801514"/><trkpt lat="69.09893658199539" lon="26.398859024047855"/><trkpt lat="69.09896720253028" lon="26.39894485473633"/><trkpt lat="69.09899782302229" lon="26.399073600769047"/><trkpt lat="69.09901313325223" lon="26.39920234680176"/><trkpt lat="69.09904375367996" lon="26.399288177490238"/><trkpt lat="69.09907437406487" lon="26.399374008178714"/><trkpt lat="69.0991049944069" lon="26.39950275421143"/><trkpt lat="69.0991356147061" lon="26.399588584899906"/><trkpt lat="69.09916623496242" lon="26.399674415588382"/><trkpt lat="69.09919685517589" lon="26.399803161621097"/><trkpt lat="69.09922747534654" lon="26.39993190765381"/><trkpt lat="69.09925809547431" lon="26.400060653686527"/><trkpt lat="69.09928871555924" lon="26.400146484375004"/><trkpt lat="69.09931933560132" lon="26.400275230407715"/><trkpt lat="69.09934995560056" lon="26.40036106109619"/><trkpt lat="69.0993805755569" lon="26.400446891784668"/><trkpt lat="69.09941119547044" lon="26.400575637817386"/><trkpt lat="69.0994418153411" lon="26.400704383850098"/><trkpt lat="69.09947243516893" lon="26.400790214538574"/><trkpt lat="69.09948774506678" lon="26.400918960571293"/><trkpt lat="69.09951836483032" lon="26.401047706604007"/><trkpt lat="69.099548984551" lon="26.401176452636722"/><trkpt lat="69.09956429439528" lon="26.401305198669437"/><trkpt lat="69.09959491405169" lon="26.401391029357914"/><trkpt lat="69.09961022386383" lon="26.40151977539063"/><trkpt lat="69.09964084345599" lon="26.401648521423343"/><trkpt lat="69.09967146300528" lon="26.40177726745606"/><trkpt lat="69.09968677276383" lon="26.401906013488773"/><trkpt lat="69.09971739224885" lon="26.402034759521488"/><trkpt lat="69.0997327019753" lon="26.402163505554203"/><trkpt lat="69.09976332139603" lon="26.402292251586918"/><trkpt lat="69.0997939407739" lon="26.402420997619632"/><trkpt lat="69.09982456010896" lon="26.40250682830811"/><trkpt lat="69.09983986976039" lon="26.40263557434082"/><trkpt lat="69.09987048903115" lon="26.402721405029297"/><trkpt lat="69.09988579865046" lon="26.402850151062015"/><trkpt lat="69.09991641785695" lon="26.402935981750492"/><trkpt lat="69.09994703702058" lon="26.403064727783203"/><trkpt lat="69.09997765614138" lon="26.40319347381592"/><trkpt lat="69.10000827521928" lon="26.403279304504398"/><trkpt lat="69.10003889425437" lon="26.40340805053711"/><trkpt lat="69.10006951324658" lon="26.403536796569828"/><trkpt lat="69.10008482272666" lon="26.403665542602543"/><trkpt lat="69.1001154416546" lon="26.403794288635257"/><trkpt lat="69.10013075110253" lon="26.403923034667972"/><trkpt lat="69.10014606053971" lon="26.404051780700687"/><trkpt lat="69.10016136996619" lon="26.404180526733402"/><trkpt lat="69.10017667938196" lon="26.404309272766117"/><trkpt lat="69.10020729818139" lon="26.40443801879883"/><trkpt lat="69.10022260756502" lon="26.404566764831547"/><trkpt lat="69.10025322630014" lon="26.404652595520023"/><trkpt lat="69.10026853565164" lon="26.404781341552738"/><trkpt lat="69.10029915432249" lon="26.404910087585453"/><trkpt lat="69.10031446364185" lon="26.405038833618168"/><trkpt lat="69.10032977295049" lon="26.40516757965088"/><trkpt lat="69.10036039153565" lon="26.405253410339355"/><trkpt lat="69.10037570081215" lon="26.405382156372074"/><trkpt lat="69.10040631933303" lon="26.405553817749027"/><trkpt lat="69.10043693781107" lon="26.40568256378174"/><trkpt lat="69.10045224703403" lon="26.405811309814457"/><trkpt lat="69.10046755624626" lon="26.405940055847168"/><trkpt lat="69.10048286544779" lon="26.406068801879886"/><trkpt lat="69.1005134838187" lon="26.4061975479126"/><trkpt lat="69.10054410214674" lon="26.406326293945316"/><trkpt lat="69.1005594112947" lon="26.40645503997803"/><trkpt lat="69.10057472043195" lon="26.406583786010746"/><trkpt lat="69.10060533867431" lon="26.40671253204346"/><trkpt lat="69.10062064777944" lon="26.406841278076175"/><trkpt lat="69.10063595687384" lon="26.40697002410889"/><trkpt lat="69.10065126595751" lon="26.407098770141605"/><trkpt lat="69.10066657503049" lon="26.40722751617432"/><trkpt lat="69.10068188409275" lon="26.407356262207035"/><trkpt lat="69.10069719314431" lon="26.40748500823975"/><trkpt lat="69.10072781121525" lon="26.407613754272464"/><trkpt lat="69.10074312023467" lon="26.40774250030518"/><trkpt lat="69.10075842924338" lon="26.40787124633789"/><trkpt lat="69.10077373824137" lon="26.40799999237061"/><trkpt lat="69.10078904722866" lon="26.40812873840332"/><trkpt lat="69.1008043562052" lon="26.40825748443604"/><trkpt lat="69.10081966517106" lon="26.40838623046875"/><trkpt lat="69.10083497412622" lon="26.40851497650147"/><trkpt lat="69.10083497412622" lon="26.40864372253418"/><trkpt lat="69.10086559200434" lon="26.408772468566898"/><trkpt lat="69.10088090092735" lon="26.408901214599613"/><trkpt lat="69.10089620983965" lon="26.409029960632328"/><trkpt lat="69.10091151874121" lon="26.409158706665043"/><trkpt lat="69.10092682763208" lon="26.409287452697757"/><trkpt lat="69.10094213651224" lon="26.409416198730472"/><trkpt lat="69.1009574453817" lon="26.409544944763187"/><trkpt lat="69.1009727542404" lon="26.409673690795902"/><trkpt lat="69.10098806308842" lon="26.409802436828617"/><trkpt lat="69.10100337192574" lon="26.40993118286133"/><trkpt lat="69.10100337192574" lon="26.410059928894047"/><trkpt lat="69.10101868075232" lon="26.41018867492676"/><trkpt lat="69.10101868075232" lon="26.410317420959476"/><trkpt lat="69.10104929837338" lon="26.41044616699219"/><trkpt lat="69.10106460716784" lon="26.410574913024902"/><trkpt lat="69.10107991595157" lon="26.410746574401855"/><trkpt lat="69.10109522472462" lon="26.410875320434574"/><trkpt lat="69.10111053348695" lon="26.411004066467285"/><trkpt lat="69.10112584223853" lon="26.411132812500004"/><trkpt lat="69.10112584223853" lon="26.411261558532715"/><trkpt lat="69.10114115097944" lon="26.411390304565433"/><trkpt lat="69.10115645970963" lon="26.411519050598148"/><trkpt lat="69.10115645970963" lon="26.411604881286625"/>
</trkseg>
<trkseg>

<trkpt lat="69.10111515301705" lon="26.411819458007816"/><trkpt lat="69.10102330030185" lon="26.411905288696293"/><trkpt lat="69.10093144720099" lon="26.412076950073246"/><trkpt lat="69.10083959371451" lon="26.412162780761722"/><trkpt lat="69.10074773984236" lon="26.4122486114502"/><trkpt lat="69.10068650371336" lon="26.412420272827152"/><trkpt lat="69.10059464919853" lon="26.41250610351563"/><trkpt lat="69.10053341264101" lon="26.41267776489258"/><trkpt lat="69.10044155748342" lon="26.41276359558106"/><trkpt lat="69.10034970194016" lon="26.412849426269535"/><trkpt lat="69.10025784601126" lon="26.413021087646488"/><trkpt lat="69.10016598969673" lon="26.41310691833496"/><trkpt lat="69.10007413299651" lon="26.413192749023438"/><trkpt lat="69.10001289498213" lon="26.41336441040039"/><trkpt lat="69.09992103763919" lon="26.413450241088867"/><trkpt lat="69.09982917991059" lon="26.413536071777344"/><trkpt lat="69.09973732179634" lon="26.413707733154297"/><trkpt lat="69.09964546329641" lon="26.413793563842773"/><trkpt lat="69.0995842240822" lon="26.413965225219727"/><trkpt lat="69.09949236493955" lon="26.414051055908203"/><trkpt lat="69.09943112529682" lon="26.41422271728516"/><trkpt lat="69.09933926551136" lon="26.414308547973636"/><trkpt lat="69.09927802544016" lon="26.41448020935059"/><trkpt lat="69.09918616501193" lon="26.414651870727543"/><trkpt lat="69.09912492451221" lon="26.414823532104496"/><trkpt lat="69.09906368384105" lon="26.41499519348145"/><trkpt lat="69.0990024429985" lon="26.415166854858402"/><trkpt lat="69.09894120198454" lon="26.41542434692383"/><trkpt lat="69.09887996079915" lon="26.415596008300785"/><trkpt lat="69.09881871944239" lon="26.415767669677738"/><trkpt lat="69.09875747791422" lon="26.41593933105469"/><trkpt lat="69.09869623621462" lon="26.416110992431644"/><trkpt lat="69.0986349943436" lon="26.416282653808597"/><trkpt lat="69.09854313121568" lon="26.41645431518555"/><trkpt lat="69.09848188891615" lon="26.416625976562504"/><trkpt lat="69.0984206464452" lon="26.416797637939457"/><trkpt lat="69.09839002514546" lon="26.417055130004886"/><trkpt lat="69.0983287824174" lon="26.417312622070316"/><trkpt lat="69.09829816098909" lon="26.417570114135746"/><trkpt lat="69.0982369180039" lon="26.417827606201175"/><trkpt lat="69.09817567484731" lon="26.41799926757813"/><trkpt lat="69.09811443151932" lon="26.41817092895508"/><trkpt lat="69.09805318801988" lon="26.418428421020508"/><trkpt lat="69.09799194434908" lon="26.41860008239746"/><trkpt lat="69.0979307005068" lon="26.41885757446289"/><trkpt lat="69.09786945649313" lon="26.41911506652832"/><trkpt lat="69.09780821230807" lon="26.419286727905273"/><trkpt lat="69.09774696795157" lon="26.419544219970707"/><trkpt lat="69.09765510109543" lon="26.41971588134766"/><trkpt lat="69.09759385631038" lon="26.419887542724613"/><trkpt lat="69.09753261135393" lon="26.420059204101566"/><trkpt lat="69.09747136622605" lon="26.42023086547852"/><trkpt lat="69.09737949821285" lon="26.420402526855472"/><trkpt lat="69.0972876298139" lon="26.420574188232425"/><trkpt lat="69.09722638400038" lon="26.42074584960938"/><trkpt lat="69.0971651380154" lon="26.42091751098633"/><trkpt lat="69.097103891859" lon="26.421089172363285"/><trkpt lat="69.09704264553122" lon="26.421260833740238"/><trkpt lat="69.09698139903198" lon="26.42143249511719"/><trkpt lat="69.09692015236133" lon="26.421604156494144"/><trkpt lat="69.09682828203394" lon="26.42168998718262"/><trkpt lat="69.09676703493474" lon="26.421861648559574"/><trkpt lat="69.0966751639645" lon="26.42194747924805"/><trkpt lat="69.09658329260857" lon="26.422033309936527"/><trkpt lat="69.09649142086694" lon="26.422119140625004"/><trkpt lat="69.09639954873958" lon="26.42220497131348"/><trkpt lat="69.09630767622656" lon="26.422290802001957"/><trkpt lat="69.09621580332781" lon="26.422376632690433"/><trkpt lat="69.09612393004333" lon="26.42246246337891"/><trkpt lat="69.09603205637316" lon="26.42246246337891"/><trkpt lat="69.09597080704542" lon="26.422634124755863"/><trkpt lat="69.0958789327324" lon="26.42271995544434"/><trkpt lat="69.09578705803365" lon="26.422805786132816"/><trkpt lat="69.0956951829492" lon="26.422891616821293"/><trkpt lat="69.095603307479" lon="26.42297744750977"/><trkpt lat="69.09551143162311" lon="26.423063278198246"/><trkpt lat="69.0954195553815" lon="26.423063278198246"/><trkpt lat="69.09535830433946" lon="26.4232349395752"/><trkpt lat="69.09526642745499" lon="26.423320770263675"/><trkpt lat="69.09520517598436" lon="26.42349243164063"/><trkpt lat="69.09511329845701" lon="26.423578262329105"/><trkpt lat="69.09502142054392" lon="26.42366409301758"/><trkpt lat="69.09492954224508" lon="26.423749923706055"/><trkpt lat="69.09483766356054" lon="26.42383575439453"/><trkpt lat="69.09474578449026" lon="26.423921585083008"/><trkpt lat="69.09437826435183" lon="26.424694061279297"/><trkpt lat="69.09437826435183" lon="26.424694061279297"/><trkpt lat="69.09437826435183" lon="26.42495155334473"/><trkpt lat="69.09437826435183" lon="26.42520904541016"/><trkpt lat="69.09434763739506" lon="26.42546653747559"/><trkpt lat="69.09434763739506" lon="26.42572402954102"/><trkpt lat="69.0942863833529" lon="26.425895690917972"/><trkpt lat="69.09425575626751" lon="26.426153182983402"/><trkpt lat="69.09425575626751" lon="26.42641067504883"/><trkpt lat="69.09422512913929" lon="26.42666816711426"/><trkpt lat="69.09422512913929" lon="26.42692565917969"/><trkpt lat="69.09419450196819" lon="26.42718315124512"/><trkpt lat="69.09419450196819" lon="26.42744064331055"/><trkpt lat="69.09416387475424" lon="26.42769813537598"/><trkpt lat="69.09413324749744" lon="26.42795562744141"/><trkpt lat="69.09410262019777" lon="26.42821311950684"/><trkpt lat="69.09410262019777" lon="26.42847061157227"/><trkpt lat="69.09410262019777" lon="26.4287281036377"/><trkpt lat="69.09407199285525" lon="26.42898559570313"/><trkpt lat="69.09407199285525" lon="26.429243087768555"/><trkpt lat="69.09404136546985" lon="26.429500579833984"/><trkpt lat="69.09404136546985" lon="26.429758071899414"/><trkpt lat="69.09404136546985" lon="26.430015563964844"/><trkpt lat="69.09404136546985" lon="26.430273056030277"/><trkpt lat="69.09404136546985" lon="26.430530548095707"/><trkpt lat="69.09404136546985" lon="26.430788040161136"/><trkpt lat="69.09404136546985" lon="26.431045532226566"/><trkpt lat="69.09404136546985" lon="26.431303024291996"/><trkpt lat="69.09404136546985" lon="26.431560516357425"/><trkpt lat="69.09404136546985" lon="26.431818008422855"/><trkpt lat="69.09401073804162" lon="26.432075500488285"/><trkpt lat="69.09401073804162" lon="26.432332992553714"/><trkpt lat="69.09401073804162" lon="26.432590484619144"/><trkpt lat="69.09401073804162" lon="26.432847976684574"/><trkpt lat="69.09401073804162" lon="26.433105468750004"/><trkpt lat="69.09401073804162" lon="26.433362960815433"/><trkpt lat="69.09404136546985" lon="26.433620452880863"/><trkpt lat="69.09404136546985" lon="26.433877944946293"/><trkpt lat="69.09404136546985" lon="26.434135437011722"/><trkpt lat="69.09407199285525" lon="26.43439292907715"/><trkpt lat="69.09410262019777" lon="26.434650421142578"/><trkpt lat="69.09410262019777" lon="26.434907913208008"/><trkpt lat="69.09416387475424" lon="26.435165405273438"/><trkpt lat="69.09419450196819" lon="26.43542289733887"/><trkpt lat="69.09422512913929" lon="26.4356803894043"/><trkpt lat="69.09425575626751" lon="26.43593788146973"/><trkpt lat="69.0942863833529" lon="26.43619537353516"/><trkpt lat="69.0942863833529" lon="26.43645286560059"/><trkpt lat="69.0943170103954" lon="26.43671035766602"/><trkpt lat="69.09434763739506" lon="26.43696784973145"/><trkpt lat="69.09437826435183" lon="26.43722534179688"/><trkpt lat="69.09440889126577" lon="26.43748283386231"/><trkpt lat="69.09443951813684" lon="26.437740325927738"/><trkpt lat="69.09443951813684" lon="26.437997817993168"/><trkpt lat="69.09447014496504" lon="26.438255310058597"/><trkpt lat="69.0945007717504" lon="26.438512802124027"/><trkpt lat="69.09453139849288" lon="26.438770294189457"/><trkpt lat="69.09459265184931" lon="26.43894195556641"/><trkpt lat="69.0946232784632" lon="26.43919944763184"/><trkpt lat="69.09465390503425" lon="26.43945693969727"/><trkpt lat="69.09471515804779" lon="26.43962860107422"/><trkpt lat="69.09474578449026" lon="26.43988609313965"/><trkpt lat="69.09480703724664" lon="26.440143585205078"/><trkpt lat="69.0948682898316" lon="26.440401077270508"/><trkpt lat="69.09489891605978" lon="26.44065856933594"/><trkpt lat="69.09492954224508" lon="26.44091606140137"/><trkpt lat="69.09496016838757" lon="26.4411735534668"/><trkpt lat="69.09502142054392" lon="26.44143104553223"/><trkpt lat="69.09508267252882" lon="26.441602706909183"/><trkpt lat="69.09508267252882" lon="26.441602706909183"/><trkpt lat="69.09508267252882" lon="26.44168853759766"/><trkpt lat="69.09511329845701" lon="26.44194602966309"/><trkpt lat="69.0951439243423" lon="26.44220352172852"/><trkpt lat="69.09517455018474" lon="26.44246101379395"/><trkpt lat="69.09517455018474" lon="26.44271850585938"/><trkpt lat="69.09520517598436" lon="26.44297599792481"/><trkpt lat="69.09523580174108" lon="26.443233489990238"/><trkpt lat="69.09526642745499" lon="26.443490982055668"/><trkpt lat="69.09532767875416" lon="26.443748474121097"/><trkpt lat="69.09532767875416" lon="26.444005966186527"/><trkpt lat="69.09535830433946" lon="26.444263458251957"/><trkpt lat="69.0954195553815" lon="26.444520950317386"/><trkpt lat="69.09545018083823" lon="26.444778442382816"/><trkpt lat="69.09545018083823" lon="26.445035934448242"/><trkpt lat="69.09551143162311" lon="26.445293426513672"/><trkpt lat="69.09554205695127" lon="26.4455509185791"/><trkpt lat="69.09557268223656" lon="26.44580841064453"/><trkpt lat="69.095603307479" lon="26.446065902709964"/><trkpt lat="69.0956339326786" lon="26.446323394775394"/><trkpt lat="69.0956951829492" lon="26.446495056152347"/><trkpt lat="69.09572580802019" lon="26.446752548217777"/><trkpt lat="69.09578705803365" lon="26.447010040283207"/><trkpt lat="69.09581768297608" lon="26.447267532348636"/><trkpt lat="69.0958789327324" lon="26.44743919372559"/><trkpt lat="69.09590955754626" lon="26.44769668579102"/><trkpt lat="69.09597080704542" lon="26.44795417785645"/><trkpt lat="69.09603205637316" lon="26.44821166992188"/><trkpt lat="69.09609330552945" lon="26.44846916198731"/><trkpt lat="69.09615455451436" lon="26.448726654052738"/><trkpt lat="69.09621580332781" lon="26.44889831542969"/><trkpt lat="69.09627705196982" lon="26.44915580749512"/><trkpt lat="69.09633830044044" lon="26.449327468872074"/><trkpt lat="69.09639954873958" lon="26.449499130249027"/><trkpt lat="69.09646079686733" lon="26.44967079162598"/><trkpt lat="69.09652204482367" lon="26.450014114379886"/><trkpt lat="69.09658329260857" lon="26.45018577575684"/><trkpt lat="69.09664454022206" lon="26.45035743713379"/><trkpt lat="69.0967057876641" lon="26.450529098510742"/><trkpt lat="69.09676703493474" lon="26.450786590576172"/><trkpt lat="69.09682828203394" lon="26.450958251953125"/><trkpt lat="69.09688952896173" lon="26.451129913330078"/><trkpt lat="69.09695077571808" lon="26.451301574707035"/><trkpt lat="69.09701202230303" lon="26.451473236083988"/><trkpt lat="69.09707326871654" lon="26.45164489746094"/><trkpt lat="69.09713451495864" lon="26.451816558837894"/><trkpt lat="69.09719576102931" lon="26.451988220214847"/><trkpt lat="69.09725700692857" lon="26.4521598815918"/><trkpt lat="69.09731825265641" lon="26.452331542968754"/><trkpt lat="69.09737949821285" lon="26.452503204345707"/><trkpt lat="69.09744074359784" lon="26.45267486572266"/><trkpt lat="69.09750198881142" lon="26.452846527099613"/><trkpt lat="69.09753261135393" lon="26.453104019165043"/><trkpt lat="69.09759385631038" lon="26.453275680541996"/><trkpt lat="69.09765510109543" lon="26.453533172607425"/><trkpt lat="69.09771634570905" lon="26.45370483398438"/><trkpt lat="69.09774696795157" lon="26.45396232604981"/><trkpt lat="69.09780821230807" lon="26.454219818115238"/><trkpt lat="69.09786945649313" lon="26.45439147949219"/><trkpt lat="69.0979307005068" lon="26.454563140869144"/><trkpt lat="69.09796132244935" lon="26.454820632934574"/><trkpt lat="69.0980225662059" lon="26.454992294311527"/><trkpt lat="69.09808380979104" lon="26.455249786376957"/><trkpt lat="69.09814505320475" lon="26.455507278442386"/><trkpt lat="69.09820629644705" lon="26.455764770507812"/><trkpt lat="69.09826753951792" lon="26.455936431884766"/><trkpt lat="69.0983287824174" lon="26.45610809326172"/><trkpt lat="69.0984206464452" lon="26.456279754638672"/><trkpt lat="69.09848188891615" lon="26.4565372467041"/><trkpt lat="69.09854313121568" lon="26.456794738769535"/><trkpt lat="69.09860437334382" lon="26.456966400146488"/><trkpt lat="69.09866561530053" lon="26.45713806152344"/><trkpt lat="69.09872685708582" lon="26.457309722900394"/><trkpt lat="69.09875747791422" lon="26.457567214965824"/><trkpt lat="69.09881871944239" lon="26.457738876342777"/><trkpt lat="69.09887996079915" lon="26.45791053771973"/><trkpt lat="69.09894120198454" lon="26.458082199096683"/><trkpt lat="69.0990330634412" lon="26.458253860473636"/><trkpt lat="69.09909430419805" lon="26.45842552185059"/><trkpt lat="69.09915554478349" lon="26.458597183227543"/><trkpt lat="69.09924740534026" lon="26.45868301391602"/><trkpt lat="69.09933926551136" lon="26.458854675292972"/><trkpt lat="69.09943112529682" lon="26.459026336669925"/><trkpt lat="69.09952298469662" lon="26.45919799804688"/><trkpt lat="69.09961484371075" lon="26.45936965942383"/><trkpt lat="69.09967608283922" lon="26.459541320800785"/><trkpt lat="69.09973732179634" lon="26.459712982177738"/><trkpt lat="69.09979856058202" lon="26.45988464355469"/><trkpt lat="69.0998597991963" lon="26.460056304931644"/><trkpt lat="69.09992103763919" lon="26.460227966308597"/><trkpt lat="69.10001289498213" lon="26.46039962768555"/><trkpt lat="69.10007413299651" lon="26.460571289062504"/><trkpt lat="69.1001353708395" lon="26.460742950439457"/><trkpt lat="69.1002272272826" lon="26.460914611816406"/><trkpt lat="69.10028846469707" lon="26.46108627319336"/><trkpt lat="69.10034970194016" lon="26.461257934570312"/><trkpt lat="69.10044155748342" lon="26.461429595947266"/><trkpt lat="69.10050279429801" lon="26.46160125732422"/><trkpt lat="69.10059464919853" lon="26.461772918701172"/><trkpt lat="69.10065588558462" lon="26.46194458007813"/><trkpt lat="69.1007171217993" lon="26.46211624145508"/><trkpt lat="69.10080897579996" lon="26.46220207214356"/><trkpt lat="69.100900829415" lon="26.46237373352051"/><trkpt lat="69.10099268264442" lon="26.462545394897464"/><trkpt lat="69.10108453548816" lon="26.46263122558594"/><trkpt lat="69.10114577050308" lon="26.462802886962894"/><trkpt lat="69.10123762270412" lon="26.462974548339847"/><trkpt lat="69.10129885729057" lon="26.4631462097168"/><trkpt lat="69.10139070884888" lon="26.463232040405277"/><trkpt lat="69.10148256002154" lon="26.463317871093754"/><trkpt lat="69.10157441080858" lon="26.46340370178223"/><trkpt lat="69.10166626121" lon="26.463489532470707"/><trkpt lat="69.10175811122579" lon="26.463575363159183"/><trkpt lat="69.10184996085596" lon="26.46366119384766"/><trkpt lat="69.1019418101005" lon="26.463747024536136"/><trkpt lat="69.10206427516003" lon="26.463832855224613"/><trkpt lat="69.10215612350478" lon="26.46391868591309"/><trkpt lat="69.1022479714639" lon="26.46391868591309"/><trkpt lat="69.10233981903743" lon="26.464004516601566"/><trkpt lat="69.10243166622531" lon="26.464090347290043"/><trkpt lat="69.10252351302759" lon="26.46417617797852"/><trkpt lat="69.10261535944427" lon="26.46417617797852"/><trkpt lat="69.1027072054753" lon="26.464262008666996"/><trkpt lat="69.10279905112075" lon="26.46443367004395"/><trkpt lat="69.10289089638059" lon="26.464519500732425"/><trkpt lat="69.10298274125479" lon="26.464605331420902"/><trkpt lat="69.10307458574341" lon="26.46469116210938"/><trkpt lat="69.10316642984642" lon="26.464776992797855"/><trkpt lat="69.10325827356382" lon="26.46494865417481"/><trkpt lat="69.10335011689563" lon="26.465034484863285"/><trkpt lat="69.1034419598418" lon="26.46512031555176"/><trkpt lat="69.1035338024024" lon="26.465206146240238"/><trkpt lat="69.1036256445774" lon="26.465291976928714"/><trkpt lat="69.1037174863668" lon="26.465291976928714"/><trkpt lat="69.1037174863668" lon="26.465291976928714"/><trkpt lat="69.1037174863668" lon="26.465291976928714"/><trkpt lat="69.10380932777059" lon="26.465291976928714"/><trkpt lat="69.10390116878878" lon="26.465291976928714"/><trkpt lat="69.1039930094214" lon="26.465463638305668"/><trkpt lat="69.10408484966844" lon="26.465549468994144"/><trkpt lat="69.10417668952985" lon="26.465549468994144"/><trkpt lat="69.1042685290057" lon="26.465721130371097"/><trkpt lat="69.10436036809594" lon="26.465806961059574"/><trkpt lat="69.1044522068006" lon="26.465978622436527"/><trkpt lat="69.10454404511965" lon="26.466064453125004"/><trkpt lat="69.10463588305315" lon="26.466236114501953"/><trkpt lat="69.10472772060106" lon="26.46632194519043"/><trkpt lat="69.10481955776339" lon="26.466407775878906"/><trkpt lat="69.10491139454012" lon="26.466493606567383"/><trkpt lat="69.10500323093132" lon="26.466665267944336"/><trkpt lat="69.10506445497789" lon="26.46683692932129"/><trkpt lat="69.10512567885307" lon="26.467008590698242"/><trkpt lat="69.10521751434456" lon="26.4671802520752"/><trkpt lat="69.10527873779134" lon="26.467351913452152"/><trkpt lat="69.10533996106678" lon="26.467523574829105"/><trkpt lat="69.10540118417082" lon="26.46769523620606"/><trkpt lat="69.10546240710352" lon="26.467952728271488"/><trkpt lat="69.10552362986485" lon="26.46812438964844"/><trkpt lat="69.10558485245481" lon="26.468296051025394"/><trkpt lat="69.1056460748734" lon="26.468553543090824"/><trkpt lat="69.10570729712062" lon="26.468725204467777"/><trkpt lat="69.10576851919647" lon="26.46889686584473"/><trkpt lat="69.10582974110099" lon="26.469068527221683"/><trkpt lat="69.10589096283414" lon="26.469240188598636"/><trkpt lat="69.10595218439595" lon="26.46941184997559"/><trkpt lat="69.10601340578634" lon="26.469583511352543"/><trkpt lat="69.10607462700541" lon="26.469755172729496"/><trkpt lat="69.10613584805311" lon="26.470012664794925"/><trkpt lat="69.10619706892945" lon="26.47018432617188"/><trkpt lat="69.10625828963443" lon="26.47044181823731"/><trkpt lat="69.10631951016805" lon="26.470699310302738"/><trkpt lat="69.10638073053032" lon="26.47087097167969"/><trkpt lat="69.10644195072123" lon="26.47112846374512"/><trkpt lat="69.10650317074077" lon="26.471300125122074"/><trkpt lat="69.10653378068626" lon="26.4715576171875"/><trkpt lat="69.10659500044879" lon="26.471900939941406"/><trkpt lat="69.10662561026577" lon="26.472158432006836"/><trkpt lat="69.10665622003992" lon="26.472415924072266"/><trkpt lat="69.10668682977125" lon="26.4726734161377"/><trkpt lat="69.10671743945973" lon="26.47293090820313"/><trkpt lat="69.10671743945973" lon="26.47318840026856"/><trkpt lat="69.10674804910536" lon="26.473445892333988"/><trkpt lat="69.10677865870818" lon="26.473703384399418"/><trkpt lat="69.10680926826814" lon="26.473960876464847"/><trkpt lat="69.10680926826814" lon="26.474218368530277"/><trkpt lat="69.10680926826814" lon="26.474475860595707"/><trkpt lat="69.10683987778525" lon="26.474733352661136"/><trkpt lat="69.10683987778525" lon="26.474990844726566"/><trkpt lat="69.10687048725951" lon="26.475248336791996"/><trkpt lat="69.10687048725951" lon="26.475505828857425"/><trkpt lat="69.10690109669096" lon="26.475763320922855"/><trkpt lat="69.10690109669096" lon="26.476020812988285"/><trkpt lat="69.10693170607958" lon="26.476278305053714"/><trkpt lat="69.10696231542535" lon="26.47662162780762"/><trkpt lat="69.10696231542535" lon="26.476879119873047"/><trkpt lat="69.10696231542535" lon="26.477136611938477"/><trkpt lat="69.10696231542535" lon="26.477394104003906"/><trkpt lat="69.10699292472827" lon="26.477651596069336"/><trkpt lat="69.10699292472827" lon="26.47790908813477"/><trkpt lat="69.10702353398837" lon="26.4781665802002"/><trkpt lat="69.10702353398837" lon="26.47842407226563"/><trkpt lat="69.10705414320563" lon="26.47868156433106"/><trkpt lat="69.10705414320563" lon="26.478939056396488"/><trkpt lat="69.10705414320563" lon="26.479196548461918"/><trkpt lat="69.10705414320563" lon="26.479454040527347"/><trkpt lat="69.10705414320563" lon="26.479711532592777"/><trkpt lat="69.10705414320563" lon="26.479969024658207"/><trkpt lat="69.10705414320563" lon="26.480312347412113"/><trkpt lat="69.10705414320563" lon="26.480569839477543"/><trkpt lat="69.10705414320563" lon="26.480827331542972"/><trkpt lat="69.10705414320563" lon="26.481084823608402"/><trkpt lat="69.10705414320563" lon="26.48134231567383"/><trkpt lat="69.10705414320563" lon="26.48159980773926"/><trkpt lat="69.10705414320563" lon="26.48185729980469"/><trkpt lat="69.10705414320563" lon="26.482114791870117"/><trkpt lat="69.10705414320563" lon="26.482372283935547"/><trkpt lat="69.10705414320563" lon="26.482715606689453"/><trkpt lat="69.10702353398837" lon="26.482973098754883"/><trkpt lat="69.10702353398837" lon="26.483230590820316"/><trkpt lat="69.10699292472827" lon="26.483488082885746"/><trkpt lat="69.10699292472827" lon="26.483745574951175"/><trkpt lat="69.10696231542535" lon="26.48408889770508"/><trkpt lat="69.10693170607958" lon="26.48434638977051"/><trkpt lat="69.10690109669096" lon="26.48460388183594"/><trkpt lat="69.10687048725951" lon="26.48486137390137"/><trkpt lat="69.10683987778525" lon="26.485204696655277"/><trkpt lat="69.10680926826814" lon="26.485462188720707"/><trkpt lat="69.10677865870818" lon="26.485719680786136"/><trkpt lat="69.10674804910536" lon="26.485977172851566"/><trkpt lat="69.10671743945973" lon="26.486234664916996"/><trkpt lat="69.10668682977125" lon="26.486492156982425"/><trkpt lat="69.10665622003992" lon="26.486749649047855"/><trkpt lat="69.10662561026577" lon="26.487007141113285"/><trkpt lat="69.10659500044879" lon="26.487264633178714"/><trkpt lat="69.10656439058894" lon="26.48752212524414"/><trkpt lat="69.10650317074077" lon="26.487693786621094"/><trkpt lat="69.1064725607524" lon="26.487951278686523"/><trkpt lat="69.10641134064718" lon="26.488122940063477"/><trkpt lat="69.10638073053032" lon="26.48838043212891"/><trkpt lat="69.10631951016805" lon="26.488552093505863"/><trkpt lat="69.10628889992266" lon="26.488809585571293"/><trkpt lat="69.10622767930337" lon="26.489067077636722"/><trkpt lat="69.10619706892945" lon="26.489324569702152"/><trkpt lat="69.10613584805311" lon="26.489496231079105"/><trkpt lat="69.1061052375507" lon="26.489753723144535"/><trkpt lat="69.10604401641729" lon="26.489925384521488"/><trkpt lat="69.10601340578634" lon="26.490182876586918"/><trkpt lat="69.10592157363645" lon="26.49035453796387"/><trkpt lat="69.10586035198901" lon="26.490526199340824"/><trkpt lat="69.10579913017015" lon="26.490697860717777"/><trkpt lat="69.10573790817998" lon="26.49086952209473"/><trkpt lat="69.1056460748734" lon="26.491041183471683"/><trkpt lat="69.10558485245481" lon="26.491212844848636"/><trkpt lat="69.10549301850558" lon="26.49138450622559"/><trkpt lat="69.1054317956586" lon="26.491556167602543"/><trkpt lat="69.10533996106678" lon="26.49164199829102"/><trkpt lat="69.10527873779134" lon="26.491813659667972"/><trkpt lat="69.10518690255692" lon="26.491985321044925"/><trkpt lat="69.10509506693691" lon="26.49215698242188"/><trkpt lat="69.10500323093132" lon="26.492242813110355"/><trkpt lat="69.10494200671336" lon="26.49241447448731"/><trkpt lat="69.10485017006515" lon="26.492500305175785"/><trkpt lat="69.10478894541879" lon="26.492671966552734"/><trkpt lat="69.10469710812794" lon="26.49275779724121"/><trkpt lat="69.10460527045151" lon="26.492929458618164"/><trkpt lat="69.10451343238947" lon="26.493101119995117"/><trkpt lat="69.1044522068006" lon="26.49327278137207"/><trkpt lat="69.10436036809594" lon="26.493358612060547"/><trkpt lat="69.1042685290057" lon="26.4935302734375"/><trkpt lat="69.10417668952985" lon="26.493616104125977"/><trkpt lat="69.10417668952985" lon="26.493616104125977"/><trkpt lat="69.10417668952985" lon="26.493701934814457"/><trkpt lat="69.1041154629984" lon="26.49387359619141"/><trkpt lat="69.10408484966844" lon="26.49413108825684"/><trkpt lat="69.10402362287991" lon="26.494302749633793"/><trkpt lat="69.10396239592005" lon="26.494474411010746"/><trkpt lat="69.1038705551589" lon="26.494560241699222"/><trkpt lat="69.10380932777059" lon="26.494731903076175"/><trkpt lat="69.1037174863668" lon="26.49490356445313"/><trkpt lat="69.10365625855005" lon="26.49507522583008"/><trkpt lat="69.10359503056192" lon="26.49533271789551"/><trkpt lat="69.1035338024024" lon="26.495504379272464"/><trkpt lat="69.10347257407152" lon="26.495676040649418"/><trkpt lat="69.10341134556926" lon="26.495933532714847"/><trkpt lat="69.10338073125385" lon="26.496191024780277"/><trkpt lat="69.10331950249453" lon="26.49636268615723"/><trkpt lat="69.10328888805059" lon="26.49662017822266"/><trkpt lat="69.10325827356382" lon="26.49687767028809"/><trkpt lat="69.1032276590342" lon="26.49713516235352"/><trkpt lat="69.10319704446174" lon="26.49739265441895"/><trkpt lat="69.10316642984642" lon="26.49765014648438"/><trkpt lat="69.10316642984642" lon="26.49790763854981"/><trkpt lat="69.10313581518825" lon="26.498165130615234"/><trkpt lat="69.10310520048728" lon="26.498422622680664"/><trkpt lat="69.10307458574341" lon="26.498680114746094"/><trkpt lat="69.10307458574341" lon="26.498937606811523"/><trkpt lat="69.10307458574341" lon="26.499195098876957"/><trkpt lat="69.10310520048728" lon="26.499452590942386"/><trkpt lat="69.10310520048728" lon="26.499710083007816"/><trkpt lat="69.10313581518825" lon="26.499967575073246"/><trkpt lat="69.10313581518825" lon="26.500225067138675"/><trkpt lat="69.10319704446174" lon="26.500482559204105"/><trkpt lat="69.1032276590342" lon="26.500740051269535"/><trkpt lat="69.1032276590342" lon="26.501426696777347"/><trkpt lat="69.1032276590342" lon="26.501426696777347"/><trkpt lat="69.1032276590342" lon="26.501684188842777"/><trkpt lat="69.10325827356382" lon="26.501941680908207"/><trkpt lat="69.10325827356382" lon="26.502199172973636"/><trkpt lat="69.10328888805059" lon="26.502456665039066"/><trkpt lat="69.10328888805059" lon="26.502714157104496"/><trkpt lat="69.10331950249453" lon="26.502971649169925"/><trkpt lat="69.10331950249453" lon="26.503229141235355"/><trkpt lat="69.10335011689563" lon="26.50348663330078"/><trkpt lat="69.10338073125385" lon="26.50374412536621"/><trkpt lat="69.10338073125385" lon="26.50400161743164"/><trkpt lat="69.10338073125385" lon="26.50425910949707"/><trkpt lat="69.10341134556926" lon="26.504516601562504"/><trkpt lat="69.10341134556926" lon="26.504774093627933"/><trkpt lat="69.10341134556926" lon="26.505031585693363"/><trkpt lat="69.1034419598418" lon="26.505289077758793"/><trkpt lat="69.1034419598418" lon="26.505546569824222"/><trkpt lat="69.10347257407152" lon="26.505804061889652"/><trkpt lat="69.10347257407152" lon="26.50606155395508"/><trkpt lat="69.10350318825839" lon="26.50631904602051"/><trkpt lat="69.1035338024024" lon="26.50657653808594"/><trkpt lat="69.1035338024024" lon="26.50683403015137"/><trkpt lat="69.10356441650359" lon="26.5070915222168"/><trkpt lat="69.10359503056192" lon="26.50734901428223"/><trkpt lat="69.10359503056192" lon="26.50760650634766"/><trkpt lat="69.1036256445774" lon="26.50786399841309"/><trkpt lat="69.10365625855005" lon="26.50812149047852"/><trkpt lat="69.10368687247983" lon="26.50837898254395"/><trkpt lat="69.10368687247983" lon="26.508636474609375"/><trkpt lat="69.1037174863668" lon="26.508893966674805"/><trkpt lat="69.1037174863668" lon="26.509151458740234"/><trkpt lat="69.1037174863668" lon="26.509408950805664"/><trkpt lat="69.1037174863668" lon="26.509666442871097"/><trkpt lat="69.1037174863668" lon="26.509923934936527"/><trkpt lat="69.1037481002109" lon="26.510181427001957"/><trkpt lat="69.1037481002109" lon="26.510438919067386"/><trkpt lat="69.1037481002109" lon="26.510696411132816"/><trkpt lat="69.1037481002109" lon="26.510953903198246"/><trkpt lat="69.1037481002109" lon="26.511211395263675"/><trkpt lat="69.10377871401217" lon="26.511468887329105"/><trkpt lat="69.10377871401217" lon="26.511726379394535"/><trkpt lat="69.10383994148619" lon="26.511983871459964"/><trkpt lat="69.1038705551589" lon="26.512241363525394"/><trkpt lat="69.1038705551589" lon="26.512498855590824"/><trkpt lat="69.10390116878878" lon="26.512756347656254"/><trkpt lat="69.10393178237584" lon="26.513013839721683"/><trkpt lat="69.1039930094214" lon="26.513185501098636"/><trkpt lat="69.10402362287991" lon="26.513442993164066"/><trkpt lat="69.10408484966844" lon="26.513700485229496"/><trkpt lat="69.10414607628556" lon="26.513957977294922"/><trkpt lat="69.1042073027313" lon="26.51421546936035"/><trkpt lat="69.10423791588991" lon="26.51447296142578"/><trkpt lat="69.1042685290057" lon="26.51473045349121"/><trkpt lat="69.10429914207862" lon="26.514987945556644"/><trkpt lat="69.10436036809594" lon="26.515159606933597"/><trkpt lat="69.10439098104034" lon="26.515417098999027"/><trkpt lat="69.10442159394188" lon="26.515674591064457"/><trkpt lat="69.10448281961646" lon="26.51584625244141"/><trkpt lat="69.10451343238947" lon="26.51610374450684"/><trkpt lat="69.10454404511965" lon="26.51636123657227"/><trkpt lat="69.10460527045151" lon="26.516532897949222"/><trkpt lat="69.10463588305315" lon="26.516790390014652"/><trkpt lat="69.10469710812794" lon="26.51704788208008"/><trkpt lat="69.10475833303137" lon="26.51730537414551"/><trkpt lat="69.10481955776339" lon="26.51756286621094"/><trkpt lat="69.10488078232407" lon="26.51782035827637"/><trkpt lat="69.10494200671336" lon="26.517992019653324"/><trkpt lat="69.10500323093132" lon="26.518163681030277"/><trkpt lat="69.10509506693691" lon="26.518249511718754"/><trkpt lat="69.10515629072643" lon="26.518421173095707"/><trkpt lat="69.10524812608936" lon="26.51859283447266"/><trkpt lat="69.10533996106678" lon="26.518678665161136"/><trkpt lat="69.1054317956586" lon="26.51885032653809"/><trkpt lat="69.10552362986485" lon="26.519021987915043"/><trkpt lat="69.10558485245481" lon="26.519193649291992"/><trkpt lat="69.10567668601843" lon="26.51927947998047"/><trkpt lat="69.10573790817998" lon="26.519451141357422"/><trkpt lat="69.10582974110099" lon="26.519622802734375"/><trkpt lat="69.10589096283414" lon="26.519794464111328"/><trkpt lat="69.10598279511255" lon="26.519880294799805"/><trkpt lat="69.10607462700541" lon="26.520051956176758"/><trkpt lat="69.10613584805311" lon="26.520223617553714"/><trkpt lat="69.10622767930337" lon="26.52030944824219"/><trkpt lat="69.10631951016805" lon="26.520481109619144"/><trkpt lat="69.10638073053032" lon="26.520652770996097"/><trkpt lat="69.1064725607524" lon="26.520738601684574"/><trkpt lat="69.10656439058894" lon="26.52082443237305"/><trkpt lat="69.10662561026577" lon="26.520996093750004"/><trkpt lat="69.10671743945973" lon="26.52108192443848"/><trkpt lat="69.10677865870818" lon="26.521253585815433"/><trkpt lat="69.10687048725951" lon="26.52133941650391"/><trkpt lat="69.10696231542535" lon="26.521511077880863"/><trkpt lat="69.10702353398837" lon="26.521682739257816"/><trkpt lat="69.10708475238003" lon="26.52185440063477"/><trkpt lat="69.10714597060034" lon="26.522026062011722"/><trkpt lat="69.10723779760951" lon="26.522197723388675"/><trkpt lat="69.10732962423317" lon="26.52236938476563"/><trkpt lat="69.10742145047125" lon="26.522455215454105"/><trkpt lat="69.10751327632379" lon="26.52254104614258"/><trkpt lat="69.1076051017908" lon="26.52262687683106"/><trkpt lat="69.10769692687228" lon="26.522712707519535"/><trkpt lat="69.10778875156821" lon="26.52279853820801"/><trkpt lat="69.10788057587862" lon="26.522884368896488"/><trkpt lat="69.10797239980349" lon="26.522884368896488"/><trkpt lat="69.10806422334284" lon="26.52305603027344"/><trkpt lat="69.10815604649662" lon="26.523227691650394"/><trkpt lat="69.1082478692649" lon="26.52331352233887"/><trkpt lat="69.10830908422957" lon="26.523485183715824"/><trkpt lat="69.10840090635527" lon="26.5235710144043"/><trkpt lat="69.10849272809547" lon="26.523742675781254"/><trkpt lat="69.10858454945016" lon="26.523914337158207"/><trkpt lat="69.10867637041932" lon="26.52408599853516"/><trkpt lat="69.10873758418455" lon="26.524257659912113"/><trkpt lat="69.10879879777849" lon="26.524429321289066"/><trkpt lat="69.10886001120105" lon="26.524600982666016"/><trkpt lat="69.10892122445226" lon="26.52477264404297"/><trkpt lat="69.10901304400785" lon="26.524944305419922"/><trkpt lat="69.10907425683074" lon="26.525115966796875"/><trkpt lat="69.10913546948225" lon="26.525287628173828"/><trkpt lat="69.1092272881383" lon="26.52545928955078"/><trkpt lat="69.10928850036149" lon="26.525630950927738"/><trkpt lat="69.10938031837499" lon="26.52580261230469"/><trkpt lat="69.10944153016985" lon="26.525974273681644"/><trkpt lat="69.10950274179334" lon="26.526145935058597"/><trkpt lat="69.10959455890732" lon="26.52631759643555"/><trkpt lat="69.1096557701025" lon="26.526489257812504"/><trkpt lat="69.10974758657397" lon="26.526660919189457"/><trkpt lat="69.10980879734079" lon="26.52683258056641"/><trkpt lat="69.10990061316976" lon="26.526918411254886"/><trkpt lat="69.10996182350826" lon="26.52709007263184"/><trkpt lat="69.1100536386947" lon="26.527261734008793"/><trkpt lat="69.11014545349566" lon="26.527433395385746"/><trkpt lat="69.11023726791115" lon="26.5276050567627"/><trkpt lat="69.11029847730728" lon="26.527776718139652"/><trkpt lat="69.11032908194109" lon="26.52803421020508"/><trkpt lat="69.11039029108024" lon="26.528205871582035"/><trkpt lat="69.11045150004806" lon="26.528377532958988"/><trkpt lat="69.11051270884454" lon="26.528635025024418"/><trkpt lat="69.11057391746971" lon="26.528892517089847"/><trkpt lat="69.11063512592352" lon="26.529150009155277"/><trkpt lat="69.110696334206" lon="26.529407501220707"/><trkpt lat="69.11075754231716" lon="26.52957916259766"/><trkpt lat="69.11078814630851" lon="26.529836654663086"/><trkpt lat="69.11084935416268" lon="26.530094146728516"/><trkpt lat="69.1109105618455" lon="26.53026580810547"/><trkpt lat="69.11094116562269" lon="26.5305233001709"/><trkpt lat="69.11100237304852" lon="26.530780792236328"/><trkpt lat="69.11103297669722" lon="26.53103828430176"/><trkpt lat="69.11106358030305" lon="26.53129577636719"/><trkpt lat="69.11109418386606" lon="26.531639099121097"/><trkpt lat="69.11112478738623" lon="26.531896591186527"/><trkpt lat="69.1111553908636" lon="26.532154083251957"/><trkpt lat="69.1111553908636" lon="26.532497406005863"/><trkpt lat="69.11118599429811" lon="26.532754898071293"/><trkpt lat="69.11121659768979" lon="26.533012390136722"/><trkpt lat="69.11124720103864" lon="26.533269882202152"/><trkpt lat="69.11127780434465" lon="26.53352737426758"/><trkpt lat="69.11130840760786" lon="26.53378486633301"/><trkpt lat="69.11133901082822" lon="26.53404235839844"/><trkpt lat="69.11140021714046" lon="26.53429985046387"/><trkpt lat="69.11143082023231" lon="26.5345573425293"/><trkpt lat="69.11146142328136" lon="26.53481483459473"/><trkpt lat="69.11149202628754" lon="26.535072326660156"/><trkpt lat="69.11152262925093" lon="26.535329818725586"/><trkpt lat="69.11155323217147" lon="26.535587310791016"/><trkpt lat="69.11158383504916" lon="26.535844802856445"/><trkpt lat="69.11161443788406" lon="26.53610229492188"/><trkpt lat="69.11164504067611" lon="26.53635978698731"/><trkpt lat="69.11167564342533" lon="26.536617279052738"/><trkpt lat="69.1117062461317" lon="26.536874771118168"/><trkpt lat="69.1117062461317" lon="26.537132263183597"/><trkpt lat="69.11173684879526" lon="26.537389755249027"/><trkpt lat="69.11173684879526" lon="26.537647247314457"/><trkpt lat="69.11176745141599" lon="26.537904739379886"/><trkpt lat="69.11176745141599" lon="26.538162231445316"/><trkpt lat="69.11179805399387" lon="26.538419723510746"/><trkpt lat="69.11179805399387" lon="26.538677215576175"/><trkpt lat="69.11182865652896" lon="26.538934707641605"/><trkpt lat="69.11185925902116" lon="26.539192199707035"/><trkpt lat="69.11188986147057" lon="26.539449691772464"/><trkpt lat="69.1119510662409" lon="26.539621353149418"/><trkpt lat="69.1119816685618" lon="26.539878845214847"/><trkpt lat="69.1120122708399" lon="26.540136337280277"/><trkpt lat="69.11207347526756" lon="26.540393829345703"/><trkpt lat="69.11210407741714" lon="26.540651321411133"/><trkpt lat="69.11213467952392" lon="26.540908813476562"/><trkpt lat="69.11216528158785" lon="26.541166305541992"/><trkpt lat="69.11222648558721" lon="26.541337966918945"/></trkseg></trk></gpx>