<?xml version="1.0"?>
<gpx xmlns="http://www.topografix.com/GPX/1/1" xmlns:gpxx="http://www.garmin.com/xmlschemas/GpxExtensions/v3" creator="CALTOPO" version="1.1"><metadata><name><![CDATA[Goldahytta]]></name></metadata><trk><name>Goldahytta</name><extensions><gpxx:TrackExtension><gpxx:DisplayColor>Red</gpxx:DisplayColor></gpxx:TrackExtension></extensions><trkseg><trkpt lat="69.04667731550622" lon="20.609107017517093"/><trkpt lat="69.04671102469663" lon="20.609164010933892"/><trkpt lat="69.04674" lon="20.60903"/><trkpt lat="69.04686" lon="20.60863"/><trkpt lat="69.04686" lon="20.60863"/><trkpt lat="69.04686" lon="20.60863"/><trkpt lat="69.04702" lon="20.60757"/><trkpt lat="69.0472" lon="20.60656"/><trkpt lat="69.04736" lon="20.60543"/><trkpt lat="69.04761" lon="20.60387"/><trkpt lat="69.04774" lon="20.60337"/><trkpt lat="69.04792" lon="20.6028"/><trkpt lat="69.04808" lon="20.60202"/><trkpt lat="69.04814" lon="20.60144"/><trkpt lat="69.04822" lon="20.60108"/><trkpt lat="69.04835" lon="20.6006"/><trkpt lat="69.04844" lon="20.60012"/><trkpt lat="69.04849" lon="20.59993"/><trkpt lat="69.04849" lon="20.59993"/><trkpt lat="69.04854" lon="20.59973"/><trkpt lat="69.04854" lon="20.59973"/><trkpt lat="69.04868" lon="20.59923"/><trkpt lat="69.04889" lon="20.59803"/><trkpt lat="69.04904" lon="20.59734"/><trkpt lat="69.04907" lon="20.5971"/><trkpt lat="69.0491" lon="20.59623"/><trkpt lat="69.04908" lon="20.59531"/><trkpt lat="69.04909" lon="20.59497"/><trkpt lat="69.04918" lon="20.59433"/><trkpt lat="69.04933" lon="20.59366"/><trkpt lat="69.04951" lon="20.59316"/><trkpt lat="69.0496" lon="20.59267"/><trkpt lat="69.04962" lon="20.59232"/><trkpt lat="69.04955" lon="20.59192"/><trkpt lat="69.04956" lon="20.59163"/><trkpt lat="69.04964" lon="20.59129"/><trkpt lat="69.04969" lon="20.59102"/><trkpt lat="69.0497" lon="20.59059"/><trkpt lat="69.04965" lon="20.58975"/><trkpt lat="69.04968" lon="20.58941"/><trkpt lat="69.04967" lon="20.58917"/><trkpt lat="69.04972" lon="20.58892"/><trkpt lat="69.0498" lon="20.58868"/><trkpt lat="69.04986" lon="20.58838"/><trkpt lat="69.04986" lon="20.58838"/><trkpt lat="69.04993" lon="20.5877"/><trkpt lat="69.04991" lon="20.5875"/><trkpt lat="69.04991" lon="20.58727"/><trkpt lat="69.05" lon="20.58681"/><trkpt lat="69.05011" lon="20.58641"/><trkpt lat="69.05012" lon="20.58586"/><trkpt lat="69.05015" lon="20.58565"/><trkpt lat="69.05034" lon="20.58485"/><trkpt lat="69.05065" lon="20.58389"/><trkpt lat="69.05079" lon="20.58317"/><trkpt lat="69.05101" lon="20.5828"/><trkpt lat="69.05113" lon="20.58268"/><trkpt lat="69.05127" lon="20.58266"/><trkpt lat="69.05137" lon="20.58259"/><trkpt lat="69.05144" lon="20.5824"/><trkpt lat="69.05149" lon="20.58209"/><trkpt lat="69.05161" lon="20.58152"/><trkpt lat="69.05172" lon="20.581"/><trkpt lat="69.0518" lon="20.58045"/><trkpt lat="69.05186" lon="20.58021"/><trkpt lat="69.05201" lon="20.57954"/><trkpt lat="69.05207" lon="20.57909"/><trkpt lat="69.05213" lon="20.57887"/><trkpt lat="69.05226" lon="20.57854"/><trkpt lat="69.05241" lon="20.57789"/><trkpt lat="69.05255" lon="20.57711"/><trkpt lat="69.05258" lon="20.57661"/><trkpt lat="69.05258" lon="20.57621"/><trkpt lat="69.05262" lon="20.57586"/><trkpt lat="69.05271" lon="20.57556"/><trkpt lat="69.05286" lon="20.57491"/><trkpt lat="69.05286" lon="20.57491"/><trkpt lat="69.053" lon="20.57442"/><trkpt lat="69.05311" lon="20.57381"/><trkpt lat="69.05317" lon="20.57326"/><trkpt lat="69.05323" lon="20.57285"/><trkpt lat="69.05326" lon="20.57217"/><trkpt lat="69.05334" lon="20.57173"/><trkpt lat="69.05336" lon="20.5715"/><trkpt lat="69.05346" lon="20.571"/><trkpt lat="69.05349" lon="20.57062"/><trkpt lat="69.05354" lon="20.57014"/><trkpt lat="69.05366" lon="20.56955"/><trkpt lat="69.05371" lon="20.56902"/><trkpt lat="69.05383" lon="20.56835"/><trkpt lat="69.05384" lon="20.56798"/><trkpt lat="69.05379" lon="20.56766"/><trkpt lat="69.05379" lon="20.56744"/><trkpt lat="69.05383" lon="20.56711"/><trkpt lat="69.05392" lon="20.56677"/><trkpt lat="69.05395" lon="20.56641"/><trkpt lat="69.05395" lon="20.56641"/><trkpt lat="69.05411" lon="20.56564"/><trkpt lat="69.05426" lon="20.56465"/><trkpt lat="69.05429" lon="20.5642"/><trkpt lat="69.05426" lon="20.56366"/><trkpt lat="69.05428" lon="20.56335"/><trkpt lat="69.05436" lon="20.56298"/><trkpt lat="69.05444" lon="20.56209"/><trkpt lat="69.05444" lon="20.56209"/><trkpt lat="69.05444" lon="20.56209"/><trkpt lat="69.05448" lon="20.56125"/><trkpt lat="69.05455" lon="20.56074"/><trkpt lat="69.05458" lon="20.56039"/><trkpt lat="69.05469" lon="20.55975"/><trkpt lat="69.05475" lon="20.55932"/><trkpt lat="69.05484" lon="20.5588"/><trkpt lat="69.05496" lon="20.55831"/><trkpt lat="69.05534" lon="20.55745"/><trkpt lat="69.05542" lon="20.55704"/><trkpt lat="69.05544" lon="20.5566"/><trkpt lat="69.05542" lon="20.55607"/><trkpt lat="69.05543" lon="20.55577"/><trkpt lat="69.05555" lon="20.55535"/><trkpt lat="69.05563" lon="20.55475"/><trkpt lat="69.05569" lon="20.55448"/><trkpt lat="69.0558" lon="20.55426"/><trkpt lat="69.05599" lon="20.55401"/><trkpt lat="69.0562" lon="20.5539"/><trkpt lat="69.05629" lon="20.55371"/><trkpt lat="69.05635" lon="20.55364"/><trkpt lat="69.05654" lon="20.55353"/><trkpt lat="69.05695" lon="20.55309"/><trkpt lat="69.05737" lon="20.55234"/><trkpt lat="69.05746" lon="20.55223"/><trkpt lat="69.05753" lon="20.55211"/><trkpt lat="69.05762" lon="20.55191"/><trkpt lat="69.05769" lon="20.5518"/><trkpt lat="69.05802" lon="20.55152"/><trkpt lat="69.05816" lon="20.55137"/><trkpt lat="69.05827" lon="20.55138"/><trkpt lat="69.05844" lon="20.55152"/><trkpt lat="69.05855" lon="20.55147"/><trkpt lat="69.05855" lon="20.55147"/><trkpt lat="69.05861" lon="20.5514"/><trkpt lat="69.05868" lon="20.55138"/><trkpt lat="69.05874681820328" lon="20.551389545918294"/><trkpt lat="69.05874681820328" lon="20.551389545918294"/><trkpt lat="69.05882" lon="20.5514"/><trkpt lat="69.05882" lon="20.5514"/><trkpt lat="69.05893" lon="20.5515"/><trkpt lat="69.05903" lon="20.55151"/><trkpt lat="69.0592" lon="20.55157"/><trkpt lat="69.05938" lon="20.55126"/><trkpt lat="69.05945" lon="20.55125"/><trkpt lat="69.05954" lon="20.5513"/><trkpt lat="69.05965" lon="20.55153"/><trkpt lat="69.0597" lon="20.55153"/><trkpt lat="69.0597" lon="20.55153"/><trkpt lat="69.0598" lon="20.55138"/><trkpt lat="69.05987" lon="20.55122"/><trkpt lat="69.05987" lon="20.55122"/><trkpt lat="69.05992" lon="20.55147"/><trkpt lat="69.06002" lon="20.55174"/><trkpt lat="69.06002" lon="20.55174"/><trkpt lat="69.06008" lon="20.55193"/><trkpt lat="69.06015" lon="20.55199"/><trkpt lat="69.06021" lon="20.552"/><trkpt lat="69.06024" lon="20.55204"/><trkpt lat="69.06037" lon="20.55257"/><trkpt lat="69.06046" lon="20.55279"/><trkpt lat="69.06052" lon="20.55289"/><trkpt lat="69.06071" lon="20.55309"/><trkpt lat="69.06071" lon="20.55309"/><trkpt lat="69.06081" lon="20.55314"/><trkpt lat="69.06087" lon="20.55314"/><trkpt lat="69.06093" lon="20.55309"/><trkpt lat="69.06107" lon="20.55287"/><trkpt lat="69.06111" lon="20.5527"/><trkpt lat="69.06115" lon="20.55218"/><trkpt lat="69.0612" lon="20.55181"/><trkpt lat="69.0612" lon="20.55145"/><trkpt lat="69.06128" lon="20.55056"/><trkpt lat="69.06132" lon="20.55022"/><trkpt lat="69.06138" lon="20.54993"/><trkpt lat="69.06153" lon="20.54945"/><trkpt lat="69.06157" lon="20.54924"/><trkpt lat="69.06161" lon="20.54883"/><trkpt lat="69.0616" lon="20.54845"/><trkpt lat="69.06164" lon="20.54813"/><trkpt lat="69.06167" lon="20.54777"/><trkpt lat="69.0617" lon="20.54753"/><trkpt lat="69.06178" lon="20.54727"/><trkpt lat="69.0619" lon="20.54675"/><trkpt lat="69.06207" lon="20.54615"/><trkpt lat="69.06211" lon="20.546"/><trkpt lat="69.06221" lon="20.54531"/><trkpt lat="69.06228" lon="20.54463"/><trkpt lat="69.06228" lon="20.54443"/><trkpt lat="69.06228" lon="20.54443"/><trkpt lat="69.06231" lon="20.54414"/><trkpt lat="69.06242" lon="20.54339"/><trkpt lat="69.06242" lon="20.54317"/><trkpt lat="69.06241" lon="20.54276"/><trkpt lat="69.06245" lon="20.54238"/><trkpt lat="69.06249" lon="20.54172"/><trkpt lat="69.06252" lon="20.54136"/><trkpt lat="69.06254" lon="20.54079"/><trkpt lat="69.06258" lon="20.54057"/><trkpt lat="69.06267" lon="20.5402"/><trkpt lat="69.06269" lon="20.53976"/><trkpt lat="69.06275" lon="20.53931"/><trkpt lat="69.06276" lon="20.53884"/><trkpt lat="69.06306" lon="20.53697"/><trkpt lat="69.06329" lon="20.53439"/><trkpt lat="69.06343" lon="20.53398"/><trkpt lat="69.06343" lon="20.53398"/><trkpt lat="69.06347" lon="20.53394"/><trkpt lat="69.06347" lon="20.53394"/><trkpt lat="69.06349" lon="20.5339"/><trkpt lat="69.06357" lon="20.53327"/><trkpt lat="69.0639" lon="20.53147"/><trkpt lat="69.0639" lon="20.5301"/><trkpt lat="69.06461" lon="20.52692"/><trkpt lat="69.06475" lon="20.52529"/><trkpt lat="69.06512" lon="20.52246"/><trkpt lat="69.06512" lon="20.52246"/><trkpt lat="69.06533" lon="20.52092"/><trkpt lat="69.06646" lon="20.51697"/><trkpt lat="69.06677" lon="20.51444"/><trkpt lat="69.06714" lon="20.51285"/><trkpt lat="69.06772" lon="20.51092"/><trkpt lat="69.06856" lon="20.51052"/><trkpt lat="69.06856" lon="20.51052"/><trkpt lat="69.06935" lon="20.51014"/><trkpt lat="69.07023" lon="20.5086"/><trkpt lat="69.07171" lon="20.50517"/><trkpt lat="69.07198" lon="20.50487"/><trkpt lat="69.07281" lon="20.50246"/><trkpt lat="69.07365" lon="20.50258"/><trkpt lat="69.07365" lon="20.50258"/><trkpt lat="69.07367535011974" lon="20.501804286336135"/><trkpt lat="69.0737324435782" lon="20.50181865692139"/></trkseg></trk></gpx>