<?xml version="1.0" encoding="utf-8" standalone="yes"?>
<gpx version="1.1" creator="GPS Visualizer https://www.gpsvisualizer.com/" xmlns="http://www.topografix.com/GPX/1/1" xmlns:xsi="http://www.w3.org/2001/XMLSchema-instance" xsi:schemaLocation="http://www.topografix.com/GPX/1/1 http://www.topografix.com/GPX/1/1/gpx.xsd http://www.garmin.com/xmlschemas/TrackPointExtension/v2 http://www.garmin.com/xmlschemas/TrackPointExtensionv2.xsd http://www.garmin.com/xmlschemas/GpxExtensions/v3 http://www.garmin.com/xmlschemas/GpxExtensionsv3.xsd" xmlns:gpxtpx="http://www.garmin.com/xmlschemas/TrackPointExtension/v2" xmlns:gpxx="http://www.garmin.com/xmlschemas/GpxExtensions/v3">
<trk>
  <name>Isela_Måskohytta_Pältsastugan</name>
  <trkseg>
    <trkpt lat="68.941064803" lon="20.078544617">
      <ele>544.96</ele>
    </trkpt>
    <trkpt lat="68.939769428" lon="20.077943802">
      <ele>545.272</ele>
    </trkpt>
    <trkpt lat="68.938566511" lon="20.076656342">
      <ele>553.247</ele>
    </trkpt>
    <trkpt lat="68.937610299" lon="20.076055527">
      <ele>548.921</ele>
    </trkpt>
    <trkpt lat="68.93683913" lon="20.076313019">
      <ele>551.172</ele>
    </trkpt>
    <trkpt lat="68.93616048" lon="20.077257156">
      <ele>548.378</ele>
    </trkpt>
    <trkpt lat="68.935080765" lon="20.078372955">
      <ele>555.0</ele>
    </trkpt>
    <trkpt lat="68.933846741" lon="20.079059601">
      <ele>560.439</ele>
    </trkpt>
    <trkpt lat="68.933198851" lon="20.079145432">
      <ele>564.368</ele>
    </trkpt>
    <trkpt lat="68.932736061" lon="20.07897377">
      <ele>566.456</ele>
    </trkpt>
    <trkpt lat="68.932252914" lon="20.079312966">
      <ele>568.468</ele>
    </trkpt>
    <trkpt lat="68.93197" lon="20.08131">
      <ele>574.882</ele>
    </trkpt>
    <trkpt lat="68.93175" lon="20.08301">
      <ele>580.236</ele>
    </trkpt>
    <trkpt lat="68.93175" lon="20.08301">
      <ele>580.236</ele>
    </trkpt>
    <trkpt lat="68.93142" lon="20.08548">
      <ele>581.0</ele>
    </trkpt>
    <trkpt lat="68.93116" lon="20.08878">
      <ele>585.608</ele>
    </trkpt>
    <trkpt lat="68.93075" lon="20.09303">
      <ele>598.608</ele>
    </trkpt>
    <trkpt lat="68.93043" lon="20.09556">
      <ele>607.548</ele>
    </trkpt>
    <trkpt lat="68.92989" lon="20.09857">
      <ele>617.0</ele>
    </trkpt>
    <trkpt lat="68.9294" lon="20.10093">
      <ele>616.32</ele>
    </trkpt>
    <trkpt lat="68.9292" lon="20.10363">
      <ele>613.24</ele>
    </trkpt>
    <trkpt lat="68.92908" lon="20.10498">
      <ele>612.376</ele>
    </trkpt>
    <trkpt lat="68.92908" lon="20.10498">
      <ele>612.376</ele>
    </trkpt>
    <trkpt lat="68.92893" lon="20.10676">
      <ele>610.582</ele>
    </trkpt>
    <trkpt lat="68.92858" lon="20.10801">
      <ele>610.758</ele>
    </trkpt>
    <trkpt lat="68.92798" lon="20.11063">
      <ele>610.728</ele>
    </trkpt>
    <trkpt lat="68.92747" lon="20.11496">
      <ele>615.216</ele>
    </trkpt>
    <trkpt lat="68.92721" lon="20.11778">
      <ele>616.0</ele>
    </trkpt>
    <trkpt lat="68.92707" lon="20.11989">
      <ele>615.727</ele>
    </trkpt>
    <trkpt lat="68.92708" lon="20.12234">
      <ele>615.488</ele>
    </trkpt>
    <trkpt lat="68.926894747" lon="20.123777919">
      <ele>616.422</ele>
    </trkpt>
    <trkpt lat="68.926595456" lon="20.127210617">
      <ele>618.042</ele>
    </trkpt>
    <trkpt lat="68.9263177" lon="20.129356384">
      <ele>619.256</ele>
    </trkpt>
    <trkpt lat="68.926070803" lon="20.130901337">
      <ele>620.145</ele>
    </trkpt>
    <trkpt lat="68.925823903" lon="20.132360458">
      <ele>621.034</ele>
    </trkpt>
    <trkpt lat="68.925823903" lon="20.134677887">
      <ele>619.102</ele>
    </trkpt>
    <trkpt lat="68.92579304" lon="20.136480331">
      <ele>618.251</ele>
    </trkpt>
    <trkpt lat="68.925546137" lon="20.13879776">
      <ele>617.147</ele>
    </trkpt>
    <trkpt lat="68.925453547" lon="20.141458511">
      <ele>619.194</ele>
    </trkpt>
    <trkpt lat="68.925083186" lon="20.143604279">
      <ele>621.203</ele>
    </trkpt>
    <trkpt lat="68.924496767" lon="20.146694183">
      <ele>616.336</ele>
    </trkpt>
    <trkpt lat="68.923663409" lon="20.148925781">
      <ele>615.787</ele>
    </trkpt>
    <trkpt lat="68.92310782" lon="20.151758194">
      <ele>612.544</ele>
    </trkpt>
    <trkpt lat="68.92292262" lon="20.154418945">
      <ele>608.522</ele>
    </trkpt>
    <trkpt lat="68.922706552" lon="20.15622139">
      <ele>606.256</ele>
    </trkpt>
    <trkpt lat="68.922552216" lon="20.158023834">
      <ele>604.812</ele>
    </trkpt>
    <trkpt lat="68.922799153" lon="20.160512924">
      <ele>601.923</ele>
    </trkpt>
    <trkpt lat="68.92292262" lon="20.163259506">
      <ele>599.521</ele>
    </trkpt>
    <trkpt lat="68.923076953" lon="20.164804459">
      <ele>599.0</ele>
    </trkpt>
    <trkpt lat="68.923601678" lon="20.166091919">
      <ele>598.966</ele>
    </trkpt>
    <trkpt lat="68.923910334" lon="20.167121887">
      <ele>599.028</ele>
    </trkpt>
    <trkpt lat="68.924002929" lon="20.169525146">
      <ele>597.702</ele>
    </trkpt>
    <trkpt lat="68.924002929" lon="20.170726776">
      <ele>596.384</ele>
    </trkpt>
    <trkpt lat="68.923756006" lon="20.172700882">
      <ele>595.0</ele>
    </trkpt>
    <trkpt lat="68.924712818" lon="20.175790787">
      <ele>595.971</ele>
    </trkpt>
    <trkpt lat="68.92511405" lon="20.177335739">
      <ele>597.0</ele>
    </trkpt>
    <trkpt lat="68.925422684" lon="20.179224014">
      <ele>597.423</ele>
    </trkpt>
    <trkpt lat="68.926132527" lon="20.18119812">
      <ele>605.0</ele>
    </trkpt>
    <trkpt lat="68.927706446" lon="20.183515549">
      <ele>605.256</ele>
    </trkpt>
    <trkpt lat="68.928909955" lon="20.186004639">
      <ele>608.228</ele>
    </trkpt>
    <trkpt lat="68.930329394" lon="20.188922882">
      <ele>625.231</ele>
    </trkpt>
    <trkpt lat="68.931162501" lon="20.195016861">
      <ele>644.344</ele>
    </trkpt>
    <trkpt lat="68.930977369" lon="20.19990921">
      <ele>648.435</ele>
    </trkpt>
    <trkpt lat="68.930884802" lon="20.206604004">
      <ele>648.112</ele>
    </trkpt>
    <trkpt lat="68.931162501" lon="20.211753845">
      <ele>650.497</ele>
    </trkpt>
    <trkpt lat="68.931347631" lon="20.218963623">
      <ele>654.731</ele>
    </trkpt>
    <trkpt lat="68.931224211" lon="20.22600174">
      <ele>652.923</ele>
    </trkpt>
    <trkpt lat="68.931316776" lon="20.22986412">
      <ele>651.953</ele>
    </trkpt>
    <trkpt lat="68.931625324" lon="20.238704681">
      <ele>644.355</ele>
    </trkpt>
    <trkpt lat="68.931440196" lon="20.243425369">
      <ele>637.653</ele>
    </trkpt>
    <trkpt lat="68.931069935" lon="20.249090195">
      <ele>631.555</ele>
    </trkpt>
    <trkpt lat="68.9306071" lon="20.253210068">
      <ele>632.557</ele>
    </trkpt>
    <trkpt lat="68.930823091" lon="20.256900787">
      <ele>634.926</ele>
    </trkpt>
    <trkpt lat="68.931362055" lon="20.260117625">
      <ele>643.328</ele>
    </trkpt>
    <trkpt lat="68.93299" lon="20.26418">
      <ele>657.056</ele>
    </trkpt>
    <trkpt lat="68.9337" lon="20.26585">
      <ele>664.261</ele>
    </trkpt>
    <trkpt lat="68.9344" lon="20.26778">
      <ele>673.2</ele>
    </trkpt>
    <trkpt lat="68.93471" lon="20.26847">
      <ele>678.266</ele>
    </trkpt>
    <trkpt lat="68.93471" lon="20.26847">
      <ele>678.266</ele>
    </trkpt>
    <trkpt lat="68.93526" lon="20.26967">
      <ele>683.932</ele>
    </trkpt>
    <trkpt lat="68.93589" lon="20.27117">
      <ele>689.02</ele>
    </trkpt>
    <trkpt lat="68.93652" lon="20.27323">
      <ele>699.36</ele>
    </trkpt>
    <trkpt lat="68.93708" lon="20.2743">
      <ele>707.206</ele>
    </trkpt>
    <trkpt lat="68.93719" lon="20.27538">
      <ele>707.536</ele>
    </trkpt>
    <trkpt lat="68.93733" lon="20.27581">
      <ele>709.552</ele>
    </trkpt>
    <trkpt lat="68.93797" lon="20.27735">
      <ele>717.46</ele>
    </trkpt>
    <trkpt lat="68.93825" lon="20.27924">
      <ele>721.5</ele>
    </trkpt>
    <trkpt lat="68.93825" lon="20.27924">
      <ele>721.5</ele>
    </trkpt>
    <trkpt lat="68.93834" lon="20.28061">
      <ele>722.139</ele>
    </trkpt>
    <trkpt lat="68.93838" lon="20.28076">
      <ele>722.884</ele>
    </trkpt>
    <trkpt lat="68.93838" lon="20.28076">
      <ele>722.884</ele>
    </trkpt>
    <trkpt lat="68.93976" lon="20.28714">
      <ele>736.408</ele>
    </trkpt>
    <trkpt lat="68.94032" lon="20.28799">
      <ele>741.808</ele>
    </trkpt>
    <trkpt lat="68.94143" lon="20.29375">
      <ele>745.796</ele>
    </trkpt>
    <trkpt lat="68.94261" lon="20.29671">
      <ele>741.032</ele>
    </trkpt>
    <trkpt lat="68.94261" lon="20.29671">
      <ele>741.032</ele>
    </trkpt>
    <trkpt lat="68.94322" lon="20.29821">
      <ele>742.812</ele>
    </trkpt>
    <trkpt lat="68.94393" lon="20.30217">
      <ele>736.484</ele>
    </trkpt>
    <trkpt lat="68.94417" lon="20.30273">
      <ele>736.196</ele>
    </trkpt>
    <trkpt lat="68.94417" lon="20.30273">
      <ele>736.196</ele>
    </trkpt>
    <trkpt lat="68.94479" lon="20.30422">
      <ele>734.441</ele>
    </trkpt>
    <trkpt lat="68.94735" lon="20.30868">
      <ele>732.77</ele>
    </trkpt>
    <trkpt lat="68.94846" lon="20.30954">
      <ele>728.312</ele>
    </trkpt>
    <trkpt lat="68.9505" lon="20.31353">
      <ele>711.092</ele>
    </trkpt>
    <trkpt lat="68.9505" lon="20.31353">
      <ele>711.092</ele>
    </trkpt>
    <trkpt lat="68.95074" lon="20.314">
      <ele>709.264</ele>
    </trkpt>
    <trkpt lat="68.95089" lon="20.31598">
      <ele>705.204</ele>
    </trkpt>
    <trkpt lat="68.95163" lon="20.32087">
      <ele>698.604</ele>
    </trkpt>
    <trkpt lat="68.95214" lon="20.32233">
      <ele>693.339</ele>
    </trkpt>
    <trkpt lat="68.95228" lon="20.3228">
      <ele>690.504</ele>
    </trkpt>
    <trkpt lat="68.95308" lon="20.32434">
      <ele>682.857</ele>
    </trkpt>
    <trkpt lat="68.95339" lon="20.32471">
      <ele>679.645</ele>
    </trkpt>
    <trkpt lat="68.95339" lon="20.32471">
      <ele>679.645</ele>
    </trkpt>
    <trkpt lat="68.95421" lon="20.32567">
      <ele>670.368</ele>
    </trkpt>
    <trkpt lat="68.95526" lon="20.32726">
      <ele>660.055</ele>
    </trkpt>
    <trkpt lat="68.9558" lon="20.32855">
      <ele>657.22</ele>
    </trkpt>
    <trkpt lat="68.9568" lon="20.33082">
      <ele>647.52</ele>
    </trkpt>
    <trkpt lat="68.95726" lon="20.33215">
      <ele>646.0</ele>
    </trkpt>
    <trkpt lat="68.95808" lon="20.33464">
      <ele>645.912</ele>
    </trkpt>
    <trkpt lat="68.95839" lon="20.33518">
      <ele>643.868</ele>
    </trkpt>
    <trkpt lat="68.95839" lon="20.33518">
      <ele>643.868</ele>
    </trkpt>
    <trkpt lat="68.95891" lon="20.33606">
      <ele>643.184</ele>
    </trkpt>
    <trkpt lat="68.95928" lon="20.33679">
      <ele>641.556</ele>
    </trkpt>
    <trkpt lat="68.95985" lon="20.33902">
      <ele>630.608</ele>
    </trkpt>
    <trkpt lat="68.96026" lon="20.34005">
      <ele>624.884</ele>
    </trkpt>
    <trkpt lat="68.961" lon="20.34263">
      <ele>613.119</ele>
    </trkpt>
    <trkpt lat="68.96139" lon="20.34439">
      <ele>612.797</ele>
    </trkpt>
    <trkpt lat="68.96165" lon="20.34456">
      <ele>611.536</ele>
    </trkpt>
    <trkpt lat="68.96217" lon="20.34443">
      <ele>609.136</ele>
    </trkpt>
    <trkpt lat="68.96257" lon="20.34511">
      <ele>608.144</ele>
    </trkpt>
    <trkpt lat="68.96294" lon="20.34529">
      <ele>608.628</ele>
    </trkpt>
    <trkpt lat="68.9637" lon="20.34645">
      <ele>608.61</ele>
    </trkpt>
    <trkpt lat="68.96402" lon="20.34623">
      <ele>608.572</ele>
    </trkpt>
    <trkpt lat="68.96453" lon="20.34623">
      <ele>609.748</ele>
    </trkpt>
    <trkpt lat="68.96551" lon="20.34668">
      <ele>609.788</ele>
    </trkpt>
    <trkpt lat="68.96551" lon="20.34668">
      <ele>609.788</ele>
    </trkpt>
    <trkpt lat="68.96556" lon="20.3467">
      <ele>609.896</ele>
    </trkpt>
    <trkpt lat="68.96593" lon="20.34713">
      <ele>609.129</ele>
    </trkpt>
    <trkpt lat="68.96628" lon="20.34886">
      <ele>600.361</ele>
    </trkpt>
    <trkpt lat="68.96628" lon="20.34886">
      <ele>600.361</ele>
    </trkpt>
    <trkpt lat="68.966337003" lon="20.349126012">
      <ele>598.919</ele>
    </trkpt>
    <trkpt lat="68.966339145" lon="20.349136011">
      <ele>598.863</ele>
    </trkpt>
    <trkpt lat="68.96649" lon="20.34984">
      <ele>596.15</ele>
    </trkpt>
    <trkpt lat="68.96654" lon="20.3503">
      <ele>594.044</ele>
    </trkpt>
    <trkpt lat="68.96654" lon="20.35062">
      <ele>593.186</ele>
    </trkpt>
    <trkpt lat="68.96666" lon="20.35112">
      <ele>590.968</ele>
    </trkpt>
    <trkpt lat="68.96689" lon="20.35142">
      <ele>589.888</ele>
    </trkpt>
    <trkpt lat="68.96749" lon="20.35262">
      <ele>588.0</ele>
    </trkpt>
    <trkpt lat="68.96754" lon="20.3528">
      <ele>588.0</ele>
    </trkpt>
    <trkpt lat="68.96766" lon="20.35287">
      <ele>588.0</ele>
    </trkpt>
    <trkpt lat="68.96798" lon="20.35336">
      <ele>588.0</ele>
    </trkpt>
    <trkpt lat="68.96812" lon="20.35335">
      <ele>588.0</ele>
    </trkpt>
    <trkpt lat="68.9682" lon="20.35348">
      <ele>588.0</ele>
    </trkpt>
    <trkpt lat="68.96866" lon="20.3537">
      <ele>588.144</ele>
    </trkpt>
    <trkpt lat="68.96917" lon="20.35321">
      <ele>585.976</ele>
    </trkpt>
    <trkpt lat="68.96932" lon="20.35318">
      <ele>584.896</ele>
    </trkpt>
    <trkpt lat="68.96945" lon="20.35309">
      <ele>583.96</ele>
    </trkpt>
    <trkpt lat="68.96981" lon="20.35326">
      <ele>581.135</ele>
    </trkpt>
    <trkpt lat="68.96999" lon="20.35364">
      <ele>578.972</ele>
    </trkpt>
    <trkpt lat="68.96999" lon="20.35364">
      <ele>578.972</ele>
    </trkpt>
    <trkpt lat="68.9702" lon="20.35398">
      <ele>578.72</ele>
    </trkpt>
    <trkpt lat="68.9702" lon="20.35398">
      <ele>578.72</ele>
    </trkpt>
    <trkpt lat="68.97035" lon="20.3543">
      <ele>579.165</ele>
    </trkpt>
    <trkpt lat="68.97099" lon="20.35602">
      <ele>583.399</ele>
    </trkpt>
    <trkpt lat="68.97119" lon="20.358">
      <ele>582.625</ele>
    </trkpt>
    <trkpt lat="68.97134" lon="20.35856">
      <ele>582.656</ele>
    </trkpt>
    <trkpt lat="68.97169" lon="20.36133">
      <ele>583.89</ele>
    </trkpt>
    <trkpt lat="68.97214" lon="20.36297">
      <ele>584.704</ele>
    </trkpt>
    <trkpt lat="68.97251" lon="20.36447">
      <ele>583.872</ele>
    </trkpt>
    <trkpt lat="68.97294" lon="20.36503">
      <ele>581.955</ele>
    </trkpt>
    <trkpt lat="68.97313" lon="20.36571">
      <ele>582.804</ele>
    </trkpt>
    <trkpt lat="68.97351" lon="20.36593">
      <ele>585.636</ele>
    </trkpt>
    <trkpt lat="68.97372" lon="20.36674">
      <ele>586.945</ele>
    </trkpt>
    <trkpt lat="68.97372" lon="20.36674">
      <ele>586.945</ele>
    </trkpt>
    <trkpt lat="68.97372" lon="20.36674">
      <ele>586.945</ele>
    </trkpt>
    <trkpt lat="68.97382" lon="20.36729">
      <ele>587.752</ele>
    </trkpt>
    <trkpt lat="68.97391" lon="20.36757">
      <ele>588.152</ele>
    </trkpt>
    <trkpt lat="68.97402" lon="20.36839">
      <ele>589.364</ele>
    </trkpt>
    <trkpt lat="68.97402" lon="20.36839">
      <ele>589.364</ele>
    </trkpt>
    <trkpt lat="68.97415" lon="20.36865">
      <ele>589.74</ele>
    </trkpt>
    <trkpt lat="68.97415" lon="20.36865">
      <ele>589.74</ele>
    </trkpt>
    <trkpt lat="68.97416" lon="20.36869">
      <ele>589.668</ele>
    </trkpt>
    <trkpt lat="68.97416" lon="20.36869">
      <ele>589.668</ele>
    </trkpt>
    <trkpt lat="68.97422" lon="20.3688">
      <ele>589.451</ele>
    </trkpt>
    <trkpt lat="68.97422" lon="20.3688">
      <ele>589.451</ele>
    </trkpt>
    <trkpt lat="68.974401333" lon="20.368850773">
      <ele>589.866</ele>
    </trkpt>
  </trkseg>
</trk>
</gpx>
