<?xml version="1.0"?>
<gpx xmlns="http://www.topografix.com/GPX/1/1" xmlns:gpxx="http://www.garmin.com/xmlschemas/GpxExtensions/v3" creator="CALTOPO" version="1.1"><metadata><name><![CDATA[Kuohkimajärvi]]></name></metadata><trk><name>Kuohkimajärvi</name><extensions><gpxx:TrackExtension><gpxx:DisplayColor>Red</gpxx:DisplayColor></gpxx:TrackExtension></extensions><trkseg><trkpt lat="69.04794557322276" lon="20.796775817871097"/><trkpt lat="69.04797999999998" lon="20.79671"/><trkpt lat="69.04798" lon="20.79671"/><trkpt lat="69.04798" lon="20.79671"/><trkpt lat="69.04807" lon="20.79653"/><trkpt lat="69.04807" lon="20.79653"/><trkpt lat="69.04866914372562" lon="20.79525681958304"/><trkpt lat="69.04866914372562" lon="20.79525681958304"/><trkpt lat="69.04959" lon="20.7933"/><trkpt lat="69.04967881865423" lon="20.79311547752452"/><trkpt lat="69.04967881865423" lon="20.79311547752452"/><trkpt lat="69.04975937411804" lon="20.792948121842784"/><trkpt lat="69.04975937411804" lon="20.792948121842784"/><trkpt lat="69.05027125897986" lon="20.791884671266626"/><trkpt lat="69.05027125897986" lon="20.791884671266626"/><trkpt lat="69.05182937996555" lon="20.788647644722744"/><trkpt lat="69.05182937996555" lon="20.788647644722744"/><trkpt lat="69.05217" lon="20.78794"/><trkpt lat="69.05217" lon="20.78794"/><trkpt lat="69.05266" lon="20.78696"/><trkpt lat="69.05286" lon="20.78661"/><trkpt lat="69.05286" lon="20.78661"/><trkpt lat="69.05296" lon="20.78643"/><trkpt lat="69.05296" lon="20.78643"/><trkpt lat="69.05315" lon="20.78613"/><trkpt lat="69.05315" lon="20.78613"/><trkpt lat="69.05352" lon="20.78561"/><trkpt lat="69.05629" lon="20.78207"/><trkpt lat="69.05658" lon="20.78166"/><trkpt lat="69.05668016392546" lon="20.781490757505253"/><trkpt lat="69.05668016392546" lon="20.781490757505253"/><trkpt lat="69.05687" lon="20.78117"/><trkpt lat="69.05711" lon="20.78069"/><trkpt lat="69.05732" lon="20.7802"/><trkpt lat="69.05765" lon="20.77934"/><trkpt lat="69.05783" lon="20.7788"/><trkpt lat="69.05833" lon="20.77716"/><trkpt lat="69.05885" lon="20.77568"/><trkpt lat="69.05907" lon="20.77516"/><trkpt lat="69.05947" lon="20.77432"/><trkpt lat="69.0599" lon="20.77357"/><trkpt lat="69.06035" lon="20.7729"/><trkpt lat="69.06071" lon="20.77245"/><trkpt lat="69.06071" lon="20.77245"/><trkpt lat="69.06078056437563" lon="20.77237400759546"/><trkpt lat="69.06078056437563" lon="20.77237400759546"/><trkpt lat="69.06081233236785" lon="20.772339796127575"/><trkpt lat="69.0608082827317" lon="20.772319696390166"/><trkpt lat="69.06071" lon="20.77173"/><trkpt lat="69.06069491818765" lon="20.771678745543824"/><trkpt lat="69.0606940614012" lon="20.771665608151515"/><trkpt lat="69.0606940614012" lon="20.771665608151515"/><trkpt lat="69.06069322971645" lon="20.77165285565209"/><trkpt lat="69.06069035992735" lon="20.771608852219266"/><trkpt lat="69.06068916425342" lon="20.77159051855237"/><trkpt lat="69.06068810632033" lon="20.771574296911698"/><trkpt lat="69.06068717045976" lon="20.771559947049717"/><trkpt lat="69.06068634263015" lon="20.771547253662394"/><trkpt lat="69.06068" lon="20.77145"/><trkpt lat="69.06068" lon="20.77145"/><trkpt lat="69.06069985761968" lon="20.771251423803026"/><trkpt lat="69.06071" lon="20.77121"/><trkpt lat="69.06071642055015" lon="20.771174395267828"/><trkpt lat="69.060712329878" lon="20.77113291422794"/><trkpt lat="69.0607141754597" lon="20.77111937996223"/><trkpt lat="69.06072982199814" lon="20.771100078432802"/><trkpt lat="69.06073212871901" lon="20.771087286666244"/><trkpt lat="69.06074003820586" lon="20.7710434251351"/><trkpt lat="69.06074367459033" lon="20.771023259807848"/><trkpt lat="69.06074367459033" lon="20.771023259807848"/><trkpt lat="69.06074628181149" lon="20.771008801637006"/><trkpt lat="69.06075060972017" lon="20.77098480150837"/><trkpt lat="69.06075315002688" lon="20.77097071432128"/><trkpt lat="69.06073747765822" lon="20.77094849717306"/><trkpt lat="69.06074" lon="20.77093"/><trkpt lat="69.06077057915412" lon="20.770777104229392"/><trkpt lat="69.06078947716806" lon="20.770769263357977"/><trkpt lat="69.06079201540905" lon="20.770755187626257"/><trkpt lat="69.06079508185063" lon="20.77073818277558"/><trkpt lat="69.06082" lon="20.7706"/><trkpt lat="69.061" lon="20.76983"/><trkpt lat="69.06108" lon="20.76969"/><trkpt lat="69.06149" lon="20.7692"/><trkpt lat="69.06149" lon="20.7692"/><trkpt lat="69.06149" lon="20.7692"/><trkpt lat="69.06164" lon="20.7687"/><trkpt lat="69.0618" lon="20.76842"/><trkpt lat="69.06197" lon="20.76808"/><trkpt lat="69.06197" lon="20.76808"/><trkpt lat="69.06197" lon="20.76808"/><trkpt lat="69.06225" lon="20.76773"/><trkpt lat="69.06239" lon="20.76763"/><trkpt lat="69.06247" lon="20.76752"/><trkpt lat="69.06258" lon="20.76709"/><trkpt lat="69.06258" lon="20.76709"/><trkpt lat="69.06258" lon="20.76709"/><trkpt lat="69.06263" lon="20.76697"/><trkpt lat="69.06275" lon="20.76688"/><trkpt lat="69.06293" lon="20.76657"/><trkpt lat="69.063" lon="20.76628"/><trkpt lat="69.06302" lon="20.76612"/><trkpt lat="69.06297" lon="20.76587"/><trkpt lat="69.06297" lon="20.76587"/><trkpt lat="69.06296" lon="20.7653"/><trkpt lat="69.06296" lon="20.7653"/><trkpt lat="69.06294" lon="20.76496"/><trkpt lat="69.06291" lon="20.76484"/><trkpt lat="69.06286" lon="20.76482"/><trkpt lat="69.06272" lon="20.76488"/><trkpt lat="69.06262" lon="20.76483"/><trkpt lat="69.06256" lon="20.76471"/><trkpt lat="69.06251" lon="20.76446"/><trkpt lat="69.06249" lon="20.76416"/><trkpt lat="69.06249" lon="20.76416"/><trkpt lat="69.06243" lon="20.76353"/><trkpt lat="69.06242" lon="20.76327"/><trkpt lat="69.06249" lon="20.76263"/><trkpt lat="69.06254" lon="20.76233"/><trkpt lat="69.06263" lon="20.76116"/><trkpt lat="69.06263" lon="20.76084"/><trkpt lat="69.06265" lon="20.76051"/><trkpt lat="69.06275" lon="20.76019"/><trkpt lat="69.06282" lon="20.75977"/><trkpt lat="69.06294" lon="20.75926"/><trkpt lat="69.06296" lon="20.75902"/><trkpt lat="69.06304" lon="20.75867"/><trkpt lat="69.06306" lon="20.7584"/><trkpt lat="69.06311" lon="20.75808"/><trkpt lat="69.06317" lon="20.75788"/><trkpt lat="69.06333" lon="20.75757"/><trkpt lat="69.06332" lon="20.75735"/><trkpt lat="69.06336" lon="20.75717"/><trkpt lat="69.06348" lon="20.75686"/><trkpt lat="69.06364" lon="20.75661"/><trkpt lat="69.06371" lon="20.75637"/><trkpt lat="69.06378" lon="20.75624"/><trkpt lat="69.06389" lon="20.75617"/><trkpt lat="69.06398" lon="20.75601"/><trkpt lat="69.06416" lon="20.75551"/><trkpt lat="69.06429" lon="20.75528"/><trkpt lat="69.06439" lon="20.75497"/><trkpt lat="69.06447" lon="20.75463"/><trkpt lat="69.06454" lon="20.75409"/><trkpt lat="69.06456" lon="20.75379"/><trkpt lat="69.06463" lon="20.75341"/><trkpt lat="69.06473" lon="20.75304"/><trkpt lat="69.06479" lon="20.75275"/><trkpt lat="69.0649" lon="20.75257"/><trkpt lat="69.06509" lon="20.75215"/><trkpt lat="69.06521" lon="20.75178"/><trkpt lat="69.06526" lon="20.75153"/><trkpt lat="69.06531" lon="20.75137"/><trkpt lat="69.0655" lon="20.7498"/><trkpt lat="69.06564" lon="20.74934"/><trkpt lat="69.06577" lon="20.74912"/><trkpt lat="69.06581" lon="20.749"/><trkpt lat="69.06585" lon="20.74876"/><trkpt lat="69.066" lon="20.74828"/><trkpt lat="69.06612" lon="20.74808"/><trkpt lat="69.06618" lon="20.74785"/><trkpt lat="69.06631" lon="20.74762"/><trkpt lat="69.06635" lon="20.74746"/><trkpt lat="69.06638" lon="20.7472"/><trkpt lat="69.06641" lon="20.74703"/><trkpt lat="69.06649" lon="20.74684"/><trkpt lat="69.06654" lon="20.74651"/><trkpt lat="69.06653" lon="20.74614"/><trkpt lat="69.06657" lon="20.74586"/><trkpt lat="69.06656" lon="20.74539"/><trkpt lat="69.06653" lon="20.74506"/><trkpt lat="69.06655" lon="20.74488"/><trkpt lat="69.06655" lon="20.74417"/><trkpt lat="69.06658" lon="20.7439"/><trkpt lat="69.06659" lon="20.74362"/><trkpt lat="69.06662" lon="20.74339"/><trkpt lat="69.06672" lon="20.74294"/><trkpt lat="69.06673" lon="20.74268"/><trkpt lat="69.06675" lon="20.74238"/><trkpt lat="69.06673" lon="20.74219"/><trkpt lat="69.06673" lon="20.74219"/><trkpt lat="69.06669" lon="20.74171"/><trkpt lat="69.0667" lon="20.74131"/><trkpt lat="69.06667" lon="20.74045"/><trkpt lat="69.06668" lon="20.74021"/><trkpt lat="69.06673" lon="20.73985"/><trkpt lat="69.06673" lon="20.7396"/><trkpt lat="69.06666" lon="20.73895"/><trkpt lat="69.06665" lon="20.73846"/><trkpt lat="69.06657" lon="20.73769"/><trkpt lat="69.06647" lon="20.73716"/><trkpt lat="69.06645" lon="20.73675"/><trkpt lat="69.06649" lon="20.73631"/><trkpt lat="69.06649" lon="20.73609"/><trkpt lat="69.06646" lon="20.73591"/><trkpt lat="69.06643" lon="20.73562"/><trkpt lat="69.06644" lon="20.73528"/><trkpt lat="69.06643" lon="20.73495"/><trkpt lat="69.06644" lon="20.73476"/><trkpt lat="69.06643" lon="20.73446"/><trkpt lat="69.06636" lon="20.73393"/><trkpt lat="69.06635" lon="20.73352"/><trkpt lat="69.06632" lon="20.73322"/><trkpt lat="69.06591" lon="20.73178"/><trkpt lat="69.06582" lon="20.73123"/><trkpt lat="69.06576" lon="20.73075"/><trkpt lat="69.06555" lon="20.7297"/><trkpt lat="69.06551" lon="20.72917"/><trkpt lat="69.06541" lon="20.72871"/><trkpt lat="69.06537" lon="20.72847"/><trkpt lat="69.0653" lon="20.7281"/><trkpt lat="69.0652" lon="20.72775"/><trkpt lat="69.06519999920054" lon="20.72774999921712"/><trkpt lat="69.06519999920054" lon="20.72774999921712"/><trkpt lat="69.06515" lon="20.72746"/><trkpt lat="69.0651" lon="20.72694"/><trkpt lat="69.06506" lon="20.72664"/><trkpt lat="69.06498" lon="20.72625"/><trkpt lat="69.06492" lon="20.72559"/><trkpt lat="69.06491" lon="20.72524"/><trkpt lat="69.06483" lon="20.72399"/><trkpt lat="69.06481" lon="20.72388"/><trkpt lat="69.06482" lon="20.72376"/><trkpt lat="69.06486" lon="20.72364"/><trkpt lat="69.06488" lon="20.72349"/><trkpt lat="69.06488" lon="20.72321"/><trkpt lat="69.06489" lon="20.72304"/><trkpt lat="69.06495" lon="20.72275"/><trkpt lat="69.0651" lon="20.72208"/><trkpt lat="69.06532" lon="20.72125"/><trkpt lat="69.06534" lon="20.721"/><trkpt lat="69.06534" lon="20.72075"/><trkpt lat="69.06532" lon="20.72021"/><trkpt lat="69.06532" lon="20.72021"/><trkpt lat="69.06533" lon="20.71891"/><trkpt lat="69.06548" lon="20.71798"/><trkpt lat="69.06562" lon="20.71723"/><trkpt lat="69.06571" lon="20.71688"/><trkpt lat="69.06585" lon="20.71646"/><trkpt lat="69.06605" lon="20.71601"/><trkpt lat="69.06618" lon="20.71569"/><trkpt lat="69.06631" lon="20.71549"/><trkpt lat="69.06639" lon="20.71545"/><trkpt lat="69.06654" lon="20.71551"/><trkpt lat="69.06662" lon="20.71543"/><trkpt lat="69.06674" lon="20.71519"/><trkpt lat="69.06707" lon="20.71461"/><trkpt lat="69.06721" lon="20.71443"/><trkpt lat="69.06751" lon="20.7142"/><trkpt lat="69.06751" lon="20.7142"/><trkpt lat="69.06762" lon="20.7141"/><trkpt lat="69.06762" lon="20.7141"/><trkpt lat="69.06821" lon="20.71357"/><trkpt lat="69.06841" lon="20.71334"/><trkpt lat="69.06851" lon="20.71317"/><trkpt lat="69.06856" lon="20.71299"/><trkpt lat="69.06856" lon="20.71299"/><trkpt lat="69.06873" lon="20.71248"/><trkpt lat="69.0688" lon="20.7119"/><trkpt lat="69.06885912391876" lon="20.711668234238477"/><trkpt lat="69.06885912391876" lon="20.711668234238477"/><trkpt lat="69.06905" lon="20.71092"/><trkpt lat="69.06916" lon="20.71034"/><trkpt lat="69.06923" lon="20.71017"/><trkpt lat="69.06928" lon="20.71011"/><trkpt lat="69.06939" lon="20.7101"/><trkpt lat="69.06952" lon="20.71"/><trkpt lat="69.06981" lon="20.70961"/><trkpt lat="69.06981" lon="20.70961"/><trkpt lat="69.06981" lon="20.70961"/><trkpt lat="69.06984" lon="20.70948"/><trkpt lat="69.0699" lon="20.70907"/><trkpt lat="69.07003" lon="20.70843"/><trkpt lat="69.07018" lon="20.70778"/><trkpt lat="69.07024" lon="20.70743"/><trkpt lat="69.07046" lon="20.70669"/><trkpt lat="69.07058" lon="20.70638"/><trkpt lat="69.07068" lon="20.70601"/><trkpt lat="69.07079" lon="20.7057"/><trkpt lat="69.07092" lon="20.70519"/><trkpt lat="69.07101" lon="20.7046"/><trkpt lat="69.07117" lon="20.70391"/><trkpt lat="69.07136" lon="20.70294"/><trkpt lat="69.07145" lon="20.70235"/><trkpt lat="69.07147" lon="20.70205"/><trkpt lat="69.07146" lon="20.7018"/><trkpt lat="69.07138" lon="20.70161"/><trkpt lat="69.07127" lon="20.70148"/><trkpt lat="69.07111" lon="20.70141"/><trkpt lat="69.07102" lon="20.70125"/><trkpt lat="69.07102" lon="20.70125"/><trkpt lat="69.07088" lon="20.70087"/><trkpt lat="69.07072" lon="20.69966"/><trkpt lat="69.07059" lon="20.69905"/><trkpt lat="69.07047" lon="20.69824"/><trkpt lat="69.07047" lon="20.69824"/><trkpt lat="69.07029" lon="20.6969"/><trkpt lat="69.0702" lon="20.69665"/><trkpt lat="69.07002" lon="20.69587"/><trkpt lat="69.06996" lon="20.69543"/><trkpt lat="69.06976" lon="20.69463"/><trkpt lat="69.06971" lon="20.69432"/><trkpt lat="69.06966" lon="20.69408"/><trkpt lat="69.06963" lon="20.69381"/><trkpt lat="69.06963" lon="20.69356"/><trkpt lat="69.0696" lon="20.69322"/><trkpt lat="69.06957" lon="20.69306"/><trkpt lat="69.06953" lon="20.6925"/><trkpt lat="69.06954" lon="20.69225"/><trkpt lat="69.06951" lon="20.69201"/><trkpt lat="69.06947" lon="20.69185"/><trkpt lat="69.06943" lon="20.69154"/><trkpt lat="69.06933" lon="20.69125"/><trkpt lat="69.06929" lon="20.69106"/><trkpt lat="69.06925" lon="20.69075"/><trkpt lat="69.06917" lon="20.69044"/><trkpt lat="69.06916999986802" lon="20.690439999195394"/><trkpt lat="69.06916999986802" lon="20.690439999195394"/><trkpt lat="69.06903" lon="20.68968"/><trkpt lat="69.06889" lon="20.68931"/><trkpt lat="69.0687776125701" lon="20.68879561137852"/><trkpt lat="69.0687776125701" lon="20.68879561137852"/><trkpt lat="69.0687741795316" lon="20.688779898625413"/><trkpt lat="69.06877071293192" lon="20.68876403226532"/><trkpt lat="69.06863" lon="20.68812"/><trkpt lat="69.06856" lon="20.68795"/><trkpt lat="69.06856" lon="20.68795"/><trkpt lat="69.0684" lon="20.68754"/><trkpt lat="69.06819" lon="20.68689"/><trkpt lat="69.06815" lon="20.68672"/><trkpt lat="69.06813" lon="20.68558"/><trkpt lat="69.06805" lon="20.68511"/><trkpt lat="69.068" lon="20.68459"/><trkpt lat="69.06803" lon="20.68356"/><trkpt lat="69.06801" lon="20.68175"/><trkpt lat="69.06798" lon="20.68143"/><trkpt lat="69.06801" lon="20.68118"/><trkpt lat="69.06801" lon="20.68081"/><trkpt lat="69.06799" lon="20.68048"/><trkpt lat="69.06795" lon="20.68022"/><trkpt lat="69.06795" lon="20.68007"/><trkpt lat="69.06792" lon="20.67979"/><trkpt lat="69.06796" lon="20.67925"/><trkpt lat="69.06796" lon="20.67879"/><trkpt lat="69.06793" lon="20.67863"/><trkpt lat="69.06786" lon="20.67797"/><trkpt lat="69.06776" lon="20.67737"/><trkpt lat="69.06776" lon="20.67725"/><trkpt lat="69.0678" lon="20.67705"/><trkpt lat="69.06778" lon="20.67694"/><trkpt lat="69.06772" lon="20.67691"/><trkpt lat="69.06769" lon="20.67673"/><trkpt lat="69.06763" lon="20.67653"/><trkpt lat="69.06762" lon="20.67627"/><trkpt lat="69.06762" lon="20.67627"/><trkpt lat="69.06755" lon="20.67569"/><trkpt lat="69.06754" lon="20.67542"/><trkpt lat="69.06751" lon="20.67486"/><trkpt lat="69.06747" lon="20.67449"/><trkpt lat="69.06733" lon="20.67378"/><trkpt lat="69.06727" lon="20.6733"/><trkpt lat="69.06725" lon="20.67284"/><trkpt lat="69.06722" lon="20.67257"/><trkpt lat="69.06721" lon="20.67227"/><trkpt lat="69.06718" lon="20.67197"/><trkpt lat="69.0671" lon="20.6715"/><trkpt lat="69.06705" lon="20.67097"/><trkpt lat="69.06701" lon="20.67043"/><trkpt lat="69.067" lon="20.66999"/><trkpt lat="69.06701" lon="20.6696"/><trkpt lat="69.06703" lon="20.66925"/><trkpt lat="69.06702" lon="20.66893"/><trkpt lat="69.06702" lon="20.66821"/><trkpt lat="69.06699" lon="20.66749"/><trkpt lat="69.06702" lon="20.66651"/><trkpt lat="69.06705" lon="20.66614"/><trkpt lat="69.06705" lon="20.66589"/><trkpt lat="69.0671" lon="20.66528"/><trkpt lat="69.06714" lon="20.665"/><trkpt lat="69.0672" lon="20.66432"/><trkpt lat="69.06721" lon="20.66398"/><trkpt lat="69.06724" lon="20.66357"/><trkpt lat="69.06725" lon="20.6633"/><trkpt lat="69.06731" lon="20.66291"/><trkpt lat="69.06734" lon="20.66233"/><trkpt lat="69.06735" lon="20.66192"/><trkpt lat="69.06738" lon="20.66164"/><trkpt lat="69.06738" lon="20.6614"/><trkpt lat="69.0674" lon="20.66111"/><trkpt lat="69.0674" lon="20.66079"/><trkpt lat="69.06737" lon="20.66044"/><trkpt lat="69.06737" lon="20.66015"/><trkpt lat="69.06735" lon="20.65991"/><trkpt lat="69.06733" lon="20.65952"/><trkpt lat="69.06725" lon="20.65865"/><trkpt lat="69.06718" lon="20.65725"/><trkpt lat="69.0672" lon="20.65687"/><trkpt lat="69.0672" lon="20.65656"/><trkpt lat="69.06726" lon="20.65577"/><trkpt lat="69.06727" lon="20.65479"/><trkpt lat="69.06732" lon="20.6543"/><trkpt lat="69.06732" lon="20.6543"/><trkpt lat="69.06734" lon="20.65412"/><trkpt lat="69.06735" lon="20.65316"/><trkpt lat="69.06739" lon="20.6528"/><trkpt lat="69.0674" lon="20.65227"/><trkpt lat="69.06744" lon="20.65178"/><trkpt lat="69.0675" lon="20.65147"/><trkpt lat="69.06751" lon="20.65123"/><trkpt lat="69.06758" lon="20.65089"/><trkpt lat="69.06765" lon="20.6504"/><trkpt lat="69.06766" lon="20.64994"/><trkpt lat="69.06771" lon="20.64962"/><trkpt lat="69.06771" lon="20.649"/><trkpt lat="69.06767" lon="20.64829"/><trkpt lat="69.06768" lon="20.64772"/><trkpt lat="69.06773" lon="20.64714"/><trkpt lat="69.06781" lon="20.64659"/><trkpt lat="69.06784" lon="20.64587"/><trkpt lat="69.06797" lon="20.64451"/><trkpt lat="69.06796" lon="20.64407"/><trkpt lat="69.06799" lon="20.64363"/><trkpt lat="69.06799" lon="20.64308"/><trkpt lat="69.06804" lon="20.64265"/><trkpt lat="69.0681" lon="20.64158"/><trkpt lat="69.06809" lon="20.64119"/><trkpt lat="69.06812" lon="20.64082"/><trkpt lat="69.06813" lon="20.64052"/><trkpt lat="69.06814" lon="20.64032"/><trkpt lat="69.06823" lon="20.63986"/><trkpt lat="69.06826" lon="20.63945"/><trkpt lat="69.06826" lon="20.63924"/><trkpt lat="69.06823" lon="20.63895"/><trkpt lat="69.06822" lon="20.6387"/><trkpt lat="69.06825" lon="20.63832"/><trkpt lat="69.06827" lon="20.63775"/><trkpt lat="69.06837" lon="20.63721"/><trkpt lat="69.06842" lon="20.63655"/><trkpt lat="69.06849" lon="20.63616"/><trkpt lat="69.06852" lon="20.6358"/><trkpt lat="69.06856" lon="20.63552"/><trkpt lat="69.06856" lon="20.63552"/><trkpt lat="69.06859" lon="20.63531"/><trkpt lat="69.06863" lon="20.63462"/><trkpt lat="69.06868" lon="20.63396"/><trkpt lat="69.06876" lon="20.63333"/><trkpt lat="69.0688" lon="20.63295"/><trkpt lat="69.06891" lon="20.63232"/><trkpt lat="69.06891" lon="20.63232"/><trkpt lat="69.06895" lon="20.63165"/><trkpt lat="69.06895" lon="20.63123"/><trkpt lat="69.06897" lon="20.6307"/><trkpt lat="69.06897" lon="20.63019"/><trkpt lat="69.06898" lon="20.62978"/><trkpt lat="69.06901" lon="20.62955"/><trkpt lat="69.06903" lon="20.62915"/><trkpt lat="69.06909" lon="20.6288"/><trkpt lat="69.06917" lon="20.62818"/><trkpt lat="69.06925" lon="20.62727"/><trkpt lat="69.06931" lon="20.62685"/><trkpt lat="69.06936" lon="20.62639"/><trkpt lat="69.06935" lon="20.626"/><trkpt lat="69.0694" lon="20.62564"/><trkpt lat="69.06946" lon="20.62495"/><trkpt lat="69.06946" lon="20.62431"/><trkpt lat="69.06952" lon="20.62389"/><trkpt lat="69.06959" lon="20.62307"/><trkpt lat="69.06961" lon="20.62222"/><trkpt lat="69.06959" lon="20.62155"/><trkpt lat="69.06962" lon="20.62104"/><trkpt lat="69.06965" lon="20.62019"/><trkpt lat="69.0697" lon="20.61958"/><trkpt lat="69.06976" lon="20.61919"/><trkpt lat="69.06984" lon="20.61887"/><trkpt lat="69.06986" lon="20.61874"/><trkpt lat="69.06989" lon="20.61846"/><trkpt lat="69.06994" lon="20.6182"/><trkpt lat="69.06992" lon="20.61808"/><trkpt lat="69.06983" lon="20.6179"/><trkpt lat="69.0698" lon="20.61755"/><trkpt lat="69.06974" lon="20.61738"/><trkpt lat="69.06971" lon="20.61719"/><trkpt lat="69.0697" lon="20.61652"/><trkpt lat="69.06971" lon="20.61606"/><trkpt lat="69.06978" lon="20.61536"/><trkpt lat="69.06981" lon="20.615"/><trkpt lat="69.06989" lon="20.61446"/><trkpt lat="69.06995" lon="20.61386"/><trkpt lat="69.06995" lon="20.61386"/><trkpt lat="69.06998" lon="20.6126"/><trkpt lat="69.06997" lon="20.61226"/><trkpt lat="69.06998" lon="20.61175"/><trkpt lat="69.06997" lon="20.61132"/><trkpt lat="69.06998" lon="20.61035"/><trkpt lat="69.06998" lon="20.61035"/><trkpt lat="69.06997" lon="20.60991"/><trkpt lat="69.06997" lon="20.60915"/><trkpt lat="69.06994" lon="20.60871"/><trkpt lat="69.06992" lon="20.60816"/><trkpt lat="69.06988" lon="20.60769"/><trkpt lat="69.06987" lon="20.60727"/><trkpt lat="69.06983" lon="20.6065"/><trkpt lat="69.0698" lon="20.60615"/><trkpt lat="69.0698" lon="20.60548"/><trkpt lat="69.06975" lon="20.60508"/><trkpt lat="69.06961" lon="20.60444"/><trkpt lat="69.06956" lon="20.60358"/><trkpt lat="69.06955" lon="20.60321"/><trkpt lat="69.06951" lon="20.60281"/><trkpt lat="69.06948" lon="20.60241"/><trkpt lat="69.06937" lon="20.60178"/><trkpt lat="69.06941" lon="20.60093"/><trkpt lat="69.06939" lon="20.60038"/><trkpt lat="69.0694" lon="20.59948"/><trkpt lat="69.06947" lon="20.59866"/><trkpt lat="69.06945" lon="20.59844"/><trkpt lat="69.06928" lon="20.5981"/><trkpt lat="69.06924" lon="20.59773"/><trkpt lat="69.06916" lon="20.59729"/><trkpt lat="69.06908" lon="20.59695"/><trkpt lat="69.06903" lon="20.59643"/><trkpt lat="69.06895" lon="20.59628"/><trkpt lat="69.06888" lon="20.59584"/><trkpt lat="69.06888" lon="20.5954"/><trkpt lat="69.06892" lon="20.59514"/><trkpt lat="69.06893" lon="20.59478"/><trkpt lat="69.069" lon="20.59442"/><trkpt lat="69.06906" lon="20.59362"/><trkpt lat="69.06907" lon="20.59293"/><trkpt lat="69.06906" lon="20.59239"/><trkpt lat="69.06913" lon="20.5918"/><trkpt lat="69.06914" lon="20.59154"/><trkpt lat="69.06912" lon="20.59099"/><trkpt lat="69.06913" lon="20.59061"/><trkpt lat="69.06912" lon="20.59002"/><trkpt lat="69.06913" lon="20.5892"/><trkpt lat="69.06908" lon="20.58838"/><trkpt lat="69.06908" lon="20.58838"/><trkpt lat="69.06892" lon="20.58593"/><trkpt lat="69.06894" lon="20.58513"/><trkpt lat="69.06896" lon="20.58455"/><trkpt lat="69.06895" lon="20.58415"/><trkpt lat="69.06897" lon="20.58365"/><trkpt lat="69.06895" lon="20.58338"/><trkpt lat="69.06895" lon="20.5831"/><trkpt lat="69.0689" lon="20.58284"/><trkpt lat="69.06889" lon="20.58256"/><trkpt lat="69.06892" lon="20.58229"/><trkpt lat="69.06893" lon="20.58185"/><trkpt lat="69.06897" lon="20.58163"/><trkpt lat="69.06901" lon="20.58112"/><trkpt lat="69.06901" lon="20.58051"/><trkpt lat="69.06893" lon="20.57992"/><trkpt lat="69.06887" lon="20.57966"/><trkpt lat="69.06879" lon="20.5791"/><trkpt lat="69.06877" lon="20.57862"/><trkpt lat="69.06878" lon="20.57771"/><trkpt lat="69.0688" lon="20.57742"/><trkpt lat="69.06879" lon="20.57674"/><trkpt lat="69.06877" lon="20.57649"/><trkpt lat="69.06877" lon="20.57649"/><trkpt lat="69.0686" lon="20.57575"/><trkpt lat="69.06856" lon="20.57571"/><trkpt lat="69.06856" lon="20.57571"/><trkpt lat="69.06853" lon="20.57567"/><trkpt lat="69.06846" lon="20.57548"/><trkpt lat="69.06841" lon="20.57521"/><trkpt lat="69.06781" lon="20.57366"/><trkpt lat="69.06773" lon="20.57357"/><trkpt lat="69.06767" lon="20.57337"/><trkpt lat="69.06765" lon="20.57322"/><trkpt lat="69.06754" lon="20.57294"/><trkpt lat="69.0675" lon="20.57276"/><trkpt lat="69.06742" lon="20.57253"/><trkpt lat="69.06736" lon="20.57243"/><trkpt lat="69.06728" lon="20.57218"/><trkpt lat="69.06722" lon="20.57204"/><trkpt lat="69.06715" lon="20.57183"/><trkpt lat="69.0671" lon="20.57174"/><trkpt lat="69.06704" lon="20.57154"/><trkpt lat="69.06693" lon="20.57123"/><trkpt lat="69.06684" lon="20.57111"/><trkpt lat="69.06669" lon="20.57108"/><trkpt lat="69.06662" lon="20.57095"/><trkpt lat="69.06657" lon="20.57092"/><trkpt lat="69.06649" lon="20.57079"/><trkpt lat="69.06644" lon="20.57077"/><trkpt lat="69.06632" lon="20.5708"/><trkpt lat="69.06629" lon="20.5707"/><trkpt lat="69.06629" lon="20.57051"/><trkpt lat="69.06623" lon="20.57026"/><trkpt lat="69.06621" lon="20.56988"/><trkpt lat="69.06617" lon="20.56962"/><trkpt lat="69.0661" lon="20.56941"/><trkpt lat="69.066" lon="20.5693"/><trkpt lat="69.0659" lon="20.56908"/><trkpt lat="69.06563" lon="20.56872"/><trkpt lat="69.06549" lon="20.56845"/><trkpt lat="69.06536" lon="20.56836"/><trkpt lat="69.0653" lon="20.56823"/><trkpt lat="69.06525" lon="20.56798"/><trkpt lat="69.0651" lon="20.56749"/><trkpt lat="69.0651" lon="20.56749"/><trkpt lat="69.06478" lon="20.56644"/><trkpt lat="69.06478" lon="20.56644"/><trkpt lat="69.06476" lon="20.56641"/><trkpt lat="69.06476" lon="20.56641"/><trkpt lat="69.06469" lon="20.56621"/><trkpt lat="69.06464" lon="20.56611"/><trkpt lat="69.06456" lon="20.56579"/><trkpt lat="69.06444" lon="20.56549"/><trkpt lat="69.06444" lon="20.56535"/><trkpt lat="69.06437" lon="20.5651"/><trkpt lat="69.06432" lon="20.5647"/><trkpt lat="69.06404" lon="20.56381"/><trkpt lat="69.06393" lon="20.56355"/><trkpt lat="69.06373" lon="20.56292"/><trkpt lat="69.06361" lon="20.5626"/><trkpt lat="69.06352" lon="20.56226"/><trkpt lat="69.06345" lon="20.56194"/><trkpt lat="69.06338" lon="20.56175"/><trkpt lat="69.06317" lon="20.56144"/><trkpt lat="69.0631" lon="20.56131"/><trkpt lat="69.06282" lon="20.56041"/><trkpt lat="69.0627" lon="20.55981"/><trkpt lat="69.0625" lon="20.55927"/><trkpt lat="69.06246" lon="20.55901"/><trkpt lat="69.06242" lon="20.55887"/><trkpt lat="69.06223" lon="20.55826"/><trkpt lat="69.06184" lon="20.55721"/><trkpt lat="69.0617" lon="20.5569"/><trkpt lat="69.06142" lon="20.55604"/><trkpt lat="69.06106" lon="20.55504"/><trkpt lat="69.06097" lon="20.55487"/><trkpt lat="69.06071" lon="20.55417"/><trkpt lat="69.0607022997513" lon="20.554182093285235"/><trkpt lat="69.06071" lon="20.55439"/><trkpt lat="69.06071" lon="20.55439"/><trkpt lat="69.06076" lon="20.5551"/><trkpt lat="69.06071" lon="20.55588"/><trkpt lat="69.06071" lon="20.55588"/><trkpt lat="69.06069" lon="20.55617"/><trkpt lat="69.06065" lon="20.55645"/><trkpt lat="69.06058" lon="20.55681"/><trkpt lat="69.06051" lon="20.55693"/><trkpt lat="69.06043" lon="20.55698"/><trkpt lat="69.06039" lon="20.55698"/><trkpt lat="69.06029" lon="20.55687"/><trkpt lat="69.06026451011064" lon="20.556883903576008"/><trkpt lat="69.06028024967114" lon="20.55705070495606"/></trkseg></trk></gpx>