<?xml version="1.0"?>
<gpx xmlns="http://www.topografix.com/GPX/1/1" xmlns:gpxx="http://www.garmin.com/xmlschemas/GpxExtensions/v3" creator="CALTOPO" version="1.1"><metadata><name><![CDATA[Rostahytta]]></name></metadata><trk><name>Rostahytta</name><extensions><gpxx:TrackExtension><gpxx:DisplayColor>Red</gpxx:DisplayColor></gpxx:TrackExtension></extensions><trkseg><trkpt lat="69.05295522319625" lon="20.25387525558472"/><trkpt lat="69.05296698233526" lon="20.253899467488097"/><trkpt lat="69.05308" lon="20.25347"/><trkpt lat="69.05308" lon="20.25347"/><trkpt lat="69.05313" lon="20.25223"/><trkpt lat="69.05296" lon="20.25184"/><trkpt lat="69.05286" lon="20.2519"/><trkpt lat="69.05286" lon="20.2519"/><trkpt lat="69.05257" lon="20.25206"/><trkpt lat="69.05235" lon="20.2442"/><trkpt lat="69.05235" lon="20.2442"/><trkpt lat="69.05213" lon="20.23924"/><trkpt lat="69.05222" lon="20.23682"/><trkpt lat="69.05222" lon="20.23682"/><trkpt lat="69.05231" lon="20.23438"/><trkpt lat="69.05193" lon="20.23245"/><trkpt lat="69.05196" lon="20.23031"/><trkpt lat="69.05148" lon="20.22283"/><trkpt lat="69.05075" lon="20.21836"/><trkpt lat="69.05056" lon="20.21484"/><trkpt lat="69.05056" lon="20.21484"/><trkpt lat="69.05051" lon="20.21381"/><trkpt lat="69.05043" lon="20.21098"/><trkpt lat="69.0501" lon="20.20386"/><trkpt lat="69.04805" lon="20.19287"/><trkpt lat="69.04805" lon="20.19287"/><trkpt lat="69.04713" lon="20.18781"/><trkpt lat="69.04519" lon="20.17682"/><trkpt lat="69.045" lon="20.17495"/><trkpt lat="69.045" lon="20.17495"/><trkpt lat="69.0446" lon="20.1709"/><trkpt lat="69.0446" lon="20.1709"/><trkpt lat="69.04451" lon="20.16995"/><trkpt lat="69.04411" lon="20.16729"/><trkpt lat="69.0435" lon="20.16515"/><trkpt lat="69.04301" lon="20.16264"/><trkpt lat="69.03957" lon="20.15631"/><trkpt lat="69.0386" lon="20.15511"/><trkpt lat="69.03819" lon="20.15423"/><trkpt lat="69.03747" lon="20.14924"/><trkpt lat="69.03747" lon="20.14924"/><trkpt lat="69.03737" lon="20.14893"/><trkpt lat="69.03737" lon="20.14893"/><trkpt lat="69.03714" lon="20.14824"/><trkpt lat="69.03714" lon="20.14824"/><trkpt lat="69.03638" lon="20.14595"/><trkpt lat="69.03638" lon="20.14595"/><trkpt lat="69.03592" lon="20.14534"/><trkpt lat="69.03473" lon="20.14233"/><trkpt lat="69.03438" lon="20.13886"/><trkpt lat="69.03272" lon="20.13296"/><trkpt lat="69.031" lon="20.12918"/><trkpt lat="69.02928" lon="20.12786"/><trkpt lat="69.02928" lon="20.12786"/><trkpt lat="69.02909" lon="20.12772"/><trkpt lat="69.02821" lon="20.12738"/><trkpt lat="69.02806" lon="20.12695"/><trkpt lat="69.02806" lon="20.12695"/><trkpt lat="69.02741" lon="20.12515"/><trkpt lat="69.02694" lon="20.12112"/><trkpt lat="69.02615" lon="20.1176"/><trkpt lat="69.02578" lon="20.11683"/><trkpt lat="69.0256" lon="20.11519"/><trkpt lat="69.02529" lon="20.11416"/><trkpt lat="69.02482" lon="20.11382"/><trkpt lat="69.02434" lon="20.11136"/><trkpt lat="69.02199" lon="20.10839"/><trkpt lat="69.02147" lon="20.107"/><trkpt lat="69.02147" lon="20.107"/><trkpt lat="69.02141" lon="20.10685"/><trkpt lat="69.02141" lon="20.10685"/><trkpt lat="69.02067" lon="20.10498"/><trkpt lat="69.02067" lon="20.10498"/><trkpt lat="69.0204" lon="20.10429"/><trkpt lat="69.01886" lon="20.10198"/><trkpt lat="69.0177" lon="20.10077"/><trkpt lat="69.01656" lon="20.09949"/><trkpt lat="69.01444" lon="20.09768"/><trkpt lat="69.01355" lon="20.09782"/><trkpt lat="69.01355" lon="20.09782"/><trkpt lat="69.01328" lon="20.09786"/><trkpt lat="69.01225" lon="20.09696"/><trkpt lat="69.00973" lon="20.09554"/><trkpt lat="69.00841" lon="20.09391"/><trkpt lat="69.00626" lon="20.09511"/><trkpt lat="69.00568" lon="20.09524"/><trkpt lat="69.00568" lon="20.09524"/><trkpt lat="69.00549" lon="20.09528"/><trkpt lat="69.00288" lon="20.09185"/><trkpt lat="69.00226" lon="20.09219"/><trkpt lat="69.00126568972286" lon="20.09157416911867"/><trkpt lat="69.0012877393468" lon="20.09158781775035"/><trkpt lat="69.00071" lon="20.09123"/><trkpt lat="69.0001" lon="20.09108"/><trkpt lat="68.99943" lon="20.09065"/><trkpt lat="68.99859" lon="20.09155"/><trkpt lat="68.99811" lon="20.09254"/><trkpt lat="68.9978" lon="20.09274"/><trkpt lat="68.9978" lon="20.09274"/><trkpt lat="68.99709" lon="20.09322"/><trkpt lat="68.99709" lon="20.09322"/><trkpt lat="68.99651" lon="20.09271"/><trkpt lat="68.99478" lon="20.09204"/><trkpt lat="68.99349" lon="20.09187"/><trkpt lat="68.99233" lon="20.09193"/><trkpt lat="68.99186" lon="20.09236"/><trkpt lat="68.99137" lon="20.09176"/><trkpt lat="68.99026" lon="20.09142"/><trkpt lat="68.98993" lon="20.09098"/><trkpt lat="68.98993" lon="20.09098"/><trkpt lat="68.98934" lon="20.09022"/><trkpt lat="68.98854" lon="20.08996"/><trkpt lat="68.98694" lon="20.08713"/><trkpt lat="68.98694" lon="20.08713"/><trkpt lat="68.9858" lon="20.08764"/><trkpt lat="68.98488" lon="20.0905"/><trkpt lat="68.98469" lon="20.09153"/><trkpt lat="68.98451" lon="20.09176"/><trkpt lat="68.9838" lon="20.09365"/><trkpt lat="68.98322" lon="20.09382"/><trkpt lat="68.98269" lon="20.097"/><trkpt lat="68.98269" lon="20.09794"/><trkpt lat="68.983" lon="20.09854"/><trkpt lat="68.98254" lon="20.09974"/><trkpt lat="68.9823" lon="20.1"/><trkpt lat="68.98205" lon="20.10015"/><trkpt lat="68.98205" lon="20.10015"/><trkpt lat="68.98144" lon="20.10051"/><trkpt lat="68.98112" lon="20.10052"/><trkpt lat="68.98026" lon="20.10036"/><trkpt lat="68.97936" lon="20.09992"/><trkpt lat="68.97655" lon="20.09886"/><trkpt lat="68.97605" lon="20.09749"/><trkpt lat="68.97552" lon="20.09597"/><trkpt lat="68.97506" lon="20.09476"/><trkpt lat="68.97438" lon="20.09365"/><trkpt lat="68.97416" lon="20.09308"/><trkpt lat="68.97416" lon="20.09308"/><trkpt lat="68.97312" lon="20.0903"/><trkpt lat="68.97134" lon="20.08725"/><trkpt lat="68.9706" lon="20.0863"/><trkpt lat="68.9706" lon="20.0863"/><trkpt lat="68.97028" lon="20.08569"/><trkpt lat="68.96856" lon="20.08301"/><trkpt lat="68.96856" lon="20.08301"/><trkpt lat="68.96819" lon="20.08224"/><trkpt lat="68.96787" lon="20.08226"/><trkpt lat="68.96701" lon="20.08209"/><trkpt lat="68.96674" lon="20.08231"/><trkpt lat="68.96647" lon="20.08196"/><trkpt lat="68.96628" lon="20.08204"/><trkpt lat="68.96628" lon="20.08204"/><trkpt lat="68.96611" lon="20.08211"/><trkpt lat="68.96569" lon="20.08284"/><trkpt lat="68.9644" lon="20.08275"/><trkpt lat="68.9642" lon="20.08301"/><trkpt lat="68.9642" lon="20.08301"/><trkpt lat="68.964" lon="20.08327"/><trkpt lat="68.96369" lon="20.08301"/><trkpt lat="68.96369" lon="20.08301"/><trkpt lat="68.96338" lon="20.08275"/><trkpt lat="68.96237" lon="20.08301"/><trkpt lat="68.96237" lon="20.08301"/><trkpt lat="68.96025" lon="20.08354"/><trkpt lat="68.95972" lon="20.08318"/><trkpt lat="68.95923" lon="20.08333"/><trkpt lat="68.95839" lon="20.08332"/><trkpt lat="68.95839" lon="20.08332"/><trkpt lat="68.95762" lon="20.08309"/><trkpt lat="68.95683" lon="20.08312"/><trkpt lat="68.9568" lon="20.08301"/><trkpt lat="68.9568" lon="20.08301"/><trkpt lat="68.95657" lon="20.08226"/><trkpt lat="68.95629" lon="20.08262"/><trkpt lat="68.95606" lon="20.08276"/><trkpt lat="68.95355" lon="20.08232"/><trkpt lat="68.95238" lon="20.08168"/><trkpt lat="68.95118" lon="20.08078"/><trkpt lat="68.9505" lon="20.08018"/><trkpt lat="68.9505" lon="20.08018"/><trkpt lat="68.95027" lon="20.07997"/><trkpt lat="68.94939" lon="20.07786"/><trkpt lat="68.94853" lon="20.07609"/><trkpt lat="68.94818" lon="20.07346"/><trkpt lat="68.9473" lon="20.07176"/><trkpt lat="68.94688" lon="20.07084"/><trkpt lat="68.94625" lon="20.06862"/><trkpt lat="68.94493" lon="20.06376"/><trkpt lat="68.94424" lon="20.06104"/><trkpt lat="68.94424" lon="20.06104"/><trkpt lat="68.94315" lon="20.0567"/><trkpt lat="68.94261" lon="20.05529"/><trkpt lat="68.94261" lon="20.05529"/><trkpt lat="68.94214" lon="20.05407"/><trkpt lat="68.94189" lon="20.05314"/><trkpt lat="68.94171" lon="20.05211"/><trkpt lat="68.94175" lon="20.05148"/><trkpt lat="68.94156" lon="20.05063"/><trkpt lat="68.94115" lon="20.04961"/><trkpt lat="68.94081" lon="20.04829"/><trkpt lat="68.94063" lon="20.04702"/><trkpt lat="68.94023" lon="20.04661"/><trkpt lat="68.93993" lon="20.04603"/><trkpt lat="68.93956" lon="20.0446"/><trkpt lat="68.93971" lon="20.04267"/><trkpt lat="68.93986" lon="20.03992"/><trkpt lat="68.94004" lon="20.03906"/><trkpt lat="68.94004" lon="20.03906"/><trkpt lat="68.94014" lon="20.03855"/><trkpt lat="68.94011" lon="20.037"/><trkpt lat="68.94048" lon="20.03505"/><trkpt lat="68.9404" lon="20.0345"/><trkpt lat="68.9403" lon="20.03351"/><trkpt lat="68.94036" lon="20.03242"/><trkpt lat="68.94019" lon="20.03095"/><trkpt lat="68.94006" lon="20.03043"/><trkpt lat="68.93986" lon="20.02892"/><trkpt lat="68.93958" lon="20.02777"/><trkpt lat="68.93958" lon="20.02777"/><trkpt lat="68.93951369925004" lon="20.027199076875323"/><trkpt lat="68.93941977817296" lon="20.027303695678714"/></trkseg></trk></gpx>