<?xml version="1.0"?>
<gpx xmlns="http://www.topografix.com/GPX/1/1" xmlns:gpxx="http://www.garmin.com/xmlschemas/GpxExtensions/v3" creator="CALTOPO" version="1.1"><metadata><name><![CDATA[ala-olkky-hakokoski]]></name></metadata><trk><name>ala-olkky-hakokoski</name><trkseg><trkpt lat="65.52019542226718" lon="29.31842194718568"/><trkpt lat="65.5204" lon="29.31925"/><trkpt lat="65.52041" lon="29.31977"/><trkpt lat="65.52048" lon="29.32017"/><trkpt lat="65.52051" lon="29.32049"/><trkpt lat="65.52049" lon="29.32064"/><trkpt lat="65.52049" lon="29.32064"/><trkpt lat="65.52049" lon="29.32071"/><trkpt lat="65.52011" lon="29.32164"/><trkpt lat="65.52011" lon="29.32164"/><trkpt lat="65.52005" lon="29.32177"/><trkpt lat="65.52003" lon="29.32191"/><trkpt lat="65.52006" lon="29.32204"/><trkpt lat="65.52006" lon="29.32204"/><trkpt lat="65.52014" lon="29.32216"/><trkpt lat="65.52016" lon="29.32235"/><trkpt lat="65.52026" lon="29.32255"/><trkpt lat="65.52029" lon="29.32278"/><trkpt lat="65.52028" lon="29.32315"/><trkpt lat="65.52013" lon="29.32382"/><trkpt lat="65.52001" lon="29.32411"/><trkpt lat="65.51995" lon="29.32475"/><trkpt lat="65.51984" lon="29.32507"/><trkpt lat="65.51981" lon="29.32539"/><trkpt lat="65.51963" lon="29.32592"/><trkpt lat="65.51954" lon="29.32626"/><trkpt lat="65.51951" lon="29.32657"/><trkpt lat="65.51941" lon="29.32688"/><trkpt lat="65.5194" lon="29.32721"/><trkpt lat="65.51925" lon="29.32789"/><trkpt lat="65.51925" lon="29.32789"/><trkpt lat="65.51925" lon="29.32789"/><trkpt lat="65.51932" lon="29.32793"/><trkpt lat="65.51942" lon="29.32812"/><trkpt lat="65.51956" lon="29.32835"/><trkpt lat="65.5197" lon="29.3283"/><trkpt lat="65.5198" lon="29.32847"/><trkpt lat="65.51992" lon="29.32852"/><trkpt lat="65.52001" lon="29.32868"/><trkpt lat="65.52003" lon="29.32895"/><trkpt lat="65.52012" lon="29.32946"/><trkpt lat="65.52012" lon="29.32946"/><trkpt lat="65.5202" lon="29.32982"/><trkpt lat="65.5202" lon="29.32982"/><trkpt lat="65.52025" lon="29.33006"/><trkpt lat="65.52025" lon="29.33033"/><trkpt lat="65.52036" lon="29.33068"/><trkpt lat="65.52044" lon="29.33078"/><trkpt lat="65.52051" lon="29.33077"/><trkpt lat="65.52081" lon="29.33036"/><trkpt lat="65.52089" lon="29.33016"/><trkpt lat="65.52121" lon="29.32978"/><trkpt lat="65.52144" lon="29.32964"/><trkpt lat="65.52207" lon="29.32891"/><trkpt lat="65.52207" lon="29.32891"/><trkpt lat="65.52213" lon="29.32883"/><trkpt lat="65.52221" lon="29.32864"/><trkpt lat="65.52222" lon="29.32847"/><trkpt lat="65.52219" lon="29.32817"/><trkpt lat="65.52222" lon="29.3279"/><trkpt lat="65.52219" lon="29.32759"/><trkpt lat="65.52227" lon="29.32728"/><trkpt lat="65.52239" lon="29.32726"/><trkpt lat="65.52254" lon="29.32743"/><trkpt lat="65.52278" lon="29.32754"/><trkpt lat="65.52293646805647" lon="29.3277376438608"/><trkpt lat="65.52293646872694" lon="29.327737643860804"/><trkpt lat="65.52316" lon="29.32802"/><trkpt lat="65.52325064915793" lon="29.328219427713805"/><trkpt lat="65.52325064915793" lon="29.328219427713805"/><trkpt lat="65.52326" lon="29.32824"/><trkpt lat="65.52334" lon="29.32828"/><trkpt lat="65.52354" lon="29.32824"/><trkpt lat="65.52375" lon="29.32801"/><trkpt lat="65.52385" lon="29.32787"/><trkpt lat="65.52396" lon="29.32753"/><trkpt lat="65.52417" lon="29.3273"/><trkpt lat="65.52488" lon="29.32742"/><trkpt lat="65.52488" lon="29.32742"/><trkpt lat="65.52529" lon="29.32706"/><trkpt lat="65.52561" lon="29.32691"/><trkpt lat="65.52599" lon="29.3269"/><trkpt lat="65.52633" lon="29.32675"/><trkpt lat="65.52689" lon="29.32686"/><trkpt lat="65.52689" lon="29.32686"/><trkpt lat="65.52793" lon="29.32657"/><trkpt lat="65.52816" lon="29.32667"/><trkpt lat="65.52816" lon="29.32667"/><trkpt lat="65.52887" lon="29.32688"/><trkpt lat="65.52964" lon="29.32684"/><trkpt lat="65.52997" lon="29.32665"/><trkpt lat="65.53027" lon="29.32685"/><trkpt lat="65.53066" lon="29.32693"/><trkpt lat="65.53077" lon="29.32707"/><trkpt lat="65.53089" lon="29.32738"/><trkpt lat="65.53099" lon="29.32754"/><trkpt lat="65.53104" lon="29.3277"/><trkpt lat="65.53106" lon="29.3281"/><trkpt lat="65.53106" lon="29.3281"/><trkpt lat="65.53117" lon="29.32831"/><trkpt lat="65.53117" lon="29.32831"/><trkpt lat="65.53139" lon="29.32851"/><trkpt lat="65.53242" lon="29.32791"/><trkpt lat="65.53276" lon="29.32779"/><trkpt lat="65.53343" lon="29.3273"/><trkpt lat="65.53384" lon="29.3272"/><trkpt lat="65.53483" lon="29.32666"/><trkpt lat="65.53483" lon="29.32666"/><trkpt lat="65.5352" lon="29.32643"/><trkpt lat="65.53578" lon="29.32602"/><trkpt lat="65.53609" lon="29.32565"/><trkpt lat="65.53657" lon="29.32484"/><trkpt lat="65.53704" lon="29.32371"/><trkpt lat="65.53712" lon="29.32363"/><trkpt lat="65.53712" lon="29.32363"/><trkpt lat="65.5371" lon="29.3231"/><trkpt lat="65.5371" lon="29.3231"/><trkpt lat="65.5371" lon="29.3231"/><trkpt lat="65.53719" lon="29.32304"/><trkpt lat="65.5373" lon="29.32282"/><trkpt lat="65.5374" lon="29.3228"/><trkpt lat="65.53747149698549" lon="29.32292869457389"/><trkpt lat="65.53748271865184" lon="29.323496818542484"/><trkpt lat="65.53723458261516" lon="29.323721250300935"/><trkpt lat="65.53720941930972" lon="29.323731096791853"/><trkpt lat="65.53720941930972" lon="29.323731096791853"/><trkpt lat="65.53711" lon="29.32377"/><trkpt lat="65.53711633746533" lon="29.323758188712922"/><trkpt lat="65.53712" lon="29.32363"/><trkpt lat="65.53712" lon="29.32363"/><trkpt lat="65.53704" lon="29.32371"/><trkpt lat="65.53662705281398" lon="29.324702830468485"/><trkpt lat="65.53662705326592" lon="29.324702830468482"/><trkpt lat="65.53657" lon="29.32484"/><trkpt lat="65.53609" lon="29.32565"/><trkpt lat="65.53578" lon="29.32602"/><trkpt lat="65.5352" lon="29.32643"/><trkpt lat="65.53483" lon="29.32666"/><trkpt lat="65.53483" lon="29.32666"/><trkpt lat="65.53384" lon="29.3272"/><trkpt lat="65.53343" lon="29.3273"/><trkpt lat="65.53276" lon="29.32779"/><trkpt lat="65.53242" lon="29.32791"/><trkpt lat="65.53139" lon="29.32851"/><trkpt lat="65.53117" lon="29.32831"/><trkpt lat="65.53117" lon="29.32831"/><trkpt lat="65.53106" lon="29.3281"/><trkpt lat="65.53106" lon="29.3281"/><trkpt lat="65.53104" lon="29.3277"/><trkpt lat="65.53099" lon="29.32754"/><trkpt lat="65.53089" lon="29.32738"/><trkpt lat="65.53077" lon="29.32707"/><trkpt lat="65.53066" lon="29.32693"/><trkpt lat="65.53027" lon="29.32685"/><trkpt lat="65.52997" lon="29.32665"/><trkpt lat="65.52964" lon="29.32684"/><trkpt lat="65.52887" lon="29.32688"/><trkpt lat="65.52816" lon="29.32667"/><trkpt lat="65.52816" lon="29.32667"/><trkpt lat="65.52793" lon="29.32657"/><trkpt lat="65.52689" lon="29.32686"/><trkpt lat="65.52689" lon="29.32686"/><trkpt lat="65.52633" lon="29.32675"/><trkpt lat="65.52599" lon="29.3269"/><trkpt lat="65.52561" lon="29.32691"/><trkpt lat="65.52529" lon="29.32706"/><trkpt lat="65.52488" lon="29.32742"/><trkpt lat="65.52488" lon="29.32742"/><trkpt lat="65.52417" lon="29.3273"/><trkpt lat="65.52396" lon="29.32753"/><trkpt lat="65.52385" lon="29.32787"/><trkpt lat="65.52375" lon="29.32801"/><trkpt lat="65.52354" lon="29.32824"/><trkpt lat="65.52334" lon="29.32828"/><trkpt lat="65.52326" lon="29.32824"/><trkpt lat="65.52325064915793" lon="29.328219427713805"/><trkpt lat="65.52325064915793" lon="29.328219427713805"/><trkpt lat="65.52316" lon="29.32802"/><trkpt lat="65.52278" lon="29.32754"/><trkpt lat="65.52254" lon="29.32743"/><trkpt lat="65.52239" lon="29.32726"/><trkpt lat="65.52227" lon="29.32728"/><trkpt lat="65.52219" lon="29.32759"/><trkpt lat="65.52222" lon="29.3279"/><trkpt lat="65.52219" lon="29.32817"/><trkpt lat="65.52222" lon="29.32847"/><trkpt lat="65.52221" lon="29.32864"/><trkpt lat="65.52213" lon="29.32883"/><trkpt lat="65.52207" lon="29.32891"/><trkpt lat="65.52207" lon="29.32891"/><trkpt lat="65.52144" lon="29.32964"/><trkpt lat="65.52121" lon="29.32978"/><trkpt lat="65.52089" lon="29.33016"/><trkpt lat="65.52081" lon="29.33036"/><trkpt lat="65.52051" lon="29.33077"/><trkpt lat="65.52044" lon="29.33078"/><trkpt lat="65.52036" lon="29.33068"/><trkpt lat="65.52025" lon="29.33033"/><trkpt lat="65.52025" lon="29.33006"/><trkpt lat="65.5202" lon="29.32982"/><trkpt lat="65.5202" lon="29.32982"/><trkpt lat="65.52012" lon="29.32946"/><trkpt lat="65.52012" lon="29.32946"/><trkpt lat="65.52003" lon="29.32895"/><trkpt lat="65.52001" lon="29.32868"/><trkpt lat="65.51992" lon="29.32852"/><trkpt lat="65.5198" lon="29.32847"/><trkpt lat="65.5197" lon="29.3283"/><trkpt lat="65.51956" lon="29.32835"/><trkpt lat="65.51942" lon="29.32812"/><trkpt lat="65.51932" lon="29.32793"/><trkpt lat="65.51925" lon="29.32789"/><trkpt lat="65.51925" lon="29.32789"/><trkpt lat="65.51927" lon="29.3291"/><trkpt lat="65.51919" lon="29.32962"/><trkpt lat="65.51904" lon="29.33009"/><trkpt lat="65.51871" lon="29.33079"/><trkpt lat="65.51863" lon="29.33109"/><trkpt lat="65.51838" lon="29.33169"/><trkpt lat="65.51825" lon="29.33211"/><trkpt lat="65.51792" lon="29.33282"/><trkpt lat="65.51782043605385" lon="29.333136261946613"/><trkpt lat="65.51782043618825" lon="29.333136261946617"/><trkpt lat="65.51775" lon="29.33336"/><trkpt lat="65.51774" lon="29.3335"/><trkpt lat="65.51774" lon="29.3335"/><trkpt lat="65.51772" lon="29.33365"/><trkpt lat="65.51759" lon="29.33395"/><trkpt lat="65.51756" lon="29.3342"/><trkpt lat="65.51738" lon="29.33445"/><trkpt lat="65.51734" lon="29.33461"/><trkpt lat="65.51713" lon="29.33495"/><trkpt lat="65.51709" lon="29.33532"/><trkpt lat="65.51696" lon="29.33567"/><trkpt lat="65.51694" lon="29.336"/><trkpt lat="65.51689" lon="29.33634"/><trkpt lat="65.51682" lon="29.33699"/><trkpt lat="65.51669" lon="29.33743"/><trkpt lat="65.5167" lon="29.33778"/><trkpt lat="65.51663" lon="29.33824"/><trkpt lat="65.51659" lon="29.33886"/><trkpt lat="65.51653" lon="29.33946"/><trkpt lat="65.51628" lon="29.34007"/><trkpt lat="65.51622" lon="29.34033"/><trkpt lat="65.5162" lon="29.34052"/><trkpt lat="65.51616" lon="29.34076"/><trkpt lat="65.51602" lon="29.3409"/><trkpt lat="65.5158" lon="29.34139"/><trkpt lat="65.5156" lon="29.34158"/><trkpt lat="65.51549" lon="29.34165"/><trkpt lat="65.51541" lon="29.34176"/><trkpt lat="65.51528" lon="29.34201"/><trkpt lat="65.51518" lon="29.3421"/><trkpt lat="65.51487" lon="29.34262"/><trkpt lat="65.51457" lon="29.34285"/><trkpt lat="65.51442" lon="29.34304"/><trkpt lat="65.51431" lon="29.34339"/><trkpt lat="65.51382" lon="29.3444"/><trkpt lat="65.51348" lon="29.34506"/><trkpt lat="65.51318" lon="29.34581"/><trkpt lat="65.51296" lon="29.34609"/><trkpt lat="65.51296" lon="29.34609"/><trkpt lat="65.51283" lon="29.34624"/><trkpt lat="65.51269" lon="29.34637"/><trkpt lat="65.51262" lon="29.34649"/><trkpt lat="65.51256" lon="29.34678"/><trkpt lat="65.51244" lon="29.34692"/><trkpt lat="65.51229" lon="29.347"/><trkpt lat="65.5122" lon="29.34718"/><trkpt lat="65.51185" lon="29.34766"/><trkpt lat="65.51173" lon="29.34791"/><trkpt lat="65.51164" lon="29.34796"/><trkpt lat="65.51122" lon="29.34834"/><trkpt lat="65.51111" lon="29.34863"/><trkpt lat="65.51101" lon="29.34881"/><trkpt lat="65.51091" lon="29.34891"/><trkpt lat="65.51077" lon="29.34888"/><trkpt lat="65.51065" lon="29.34895"/><trkpt lat="65.5104" lon="29.34928"/><trkpt lat="65.51031" lon="29.34932"/><trkpt lat="65.5101" lon="29.34964"/><trkpt lat="65.51001" lon="29.34987"/><trkpt lat="65.50985" lon="29.35017"/><trkpt lat="65.50963" lon="29.351"/><trkpt lat="65.50946" lon="29.35125"/><trkpt lat="65.50945999994678" lon="29.351250000208495"/><trkpt lat="65.50945999994678" lon="29.351250000208495"/><trkpt lat="65.50943" lon="29.3514"/><trkpt lat="65.50943" lon="29.3514"/><trkpt lat="65.5094" lon="29.35163"/><trkpt lat="65.5094" lon="29.35163"/><trkpt lat="65.50943" lon="29.35175"/><trkpt lat="65.50941" lon="29.3519"/><trkpt lat="65.50941" lon="29.3519"/><trkpt lat="65.50896" lon="29.35307"/><trkpt lat="65.50878" lon="29.35367"/><trkpt lat="65.50878" lon="29.35367"/><trkpt lat="65.50865" lon="29.3537"/><trkpt lat="65.50865" lon="29.3537"/><trkpt lat="65.50865" lon="29.3537"/><trkpt lat="65.50858" lon="29.35375"/><trkpt lat="65.50858" lon="29.35375"/><trkpt lat="65.50858000000001" lon="29.35375"/><trkpt lat="65.50847739030509" lon="29.35367153376272"/><trkpt lat="65.50847739030509" lon="29.35367153376272"/><trkpt lat="65.50841" lon="29.35362"/><trkpt lat="65.50837" lon="29.35349"/><trkpt lat="65.50832" lon="29.3531"/><trkpt lat="65.50821" lon="29.35277"/><trkpt lat="65.5081" lon="29.35268"/><trkpt lat="65.50795" lon="29.3527"/><trkpt lat="65.50774" lon="29.35279"/><trkpt lat="65.50765" lon="29.35288"/><trkpt lat="65.50755" lon="29.35314"/><trkpt lat="65.50751" lon="29.35376"/><trkpt lat="65.50746" lon="29.35399"/><trkpt lat="65.50746" lon="29.35399"/><trkpt lat="65.50746" lon="29.35399"/><trkpt lat="65.50725" lon="29.35451"/><trkpt lat="65.50725" lon="29.35451"/><trkpt lat="65.50725" lon="29.35451"/><trkpt lat="65.50693" lon="29.35462"/><trkpt lat="65.50693" lon="29.35462"/><trkpt lat="65.50686" lon="29.35495"/><trkpt lat="65.50669" lon="29.35537"/><trkpt lat="65.50667" lon="29.35547"/><trkpt lat="65.50667" lon="29.35547"/><trkpt lat="65.50663" lon="29.3558"/><trkpt lat="65.50658" lon="29.35637"/><trkpt lat="65.50663" lon="29.35724"/><trkpt lat="65.50658" lon="29.35785"/><trkpt lat="65.50659" lon="29.35837"/><trkpt lat="65.50681" lon="29.36011"/><trkpt lat="65.5068" lon="29.36054"/><trkpt lat="65.50667" lon="29.36103"/><trkpt lat="65.50665" lon="29.36216"/><trkpt lat="65.50669" lon="29.36254"/><trkpt lat="65.50689" lon="29.3632"/><trkpt lat="65.50691" lon="29.3634"/><trkpt lat="65.50697" lon="29.36374"/><trkpt lat="65.50698" lon="29.36397"/><trkpt lat="65.50706" lon="29.36457"/><trkpt lat="65.5071" lon="29.36526"/><trkpt lat="65.50715" lon="29.36569"/><trkpt lat="65.5071" lon="29.36598"/><trkpt lat="65.50682" lon="29.36664"/><trkpt lat="65.50674" lon="29.367"/><trkpt lat="65.50651" lon="29.36759"/><trkpt lat="65.50638" lon="29.36776"/><trkpt lat="65.50614" lon="29.36795"/><trkpt lat="65.50596" lon="29.36854"/><trkpt lat="65.50588" lon="29.36915"/><trkpt lat="65.50568" lon="29.36965"/><trkpt lat="65.50557" lon="29.37013"/><trkpt lat="65.50548" lon="29.37118"/><trkpt lat="65.50541" lon="29.37155"/><trkpt lat="65.50529" lon="29.37307"/><trkpt lat="65.50524" lon="29.3734"/><trkpt lat="65.50499" lon="29.37441"/><trkpt lat="65.50483" lon="29.37469"/><trkpt lat="65.50478" lon="29.37489"/><trkpt lat="65.50485" lon="29.3757"/><trkpt lat="65.50485" lon="29.3757"/><trkpt lat="65.50491" lon="29.37602"/><trkpt lat="65.5049" lon="29.37646"/><trkpt lat="65.50497" lon="29.37684"/><trkpt lat="65.50495" lon="29.37744"/><trkpt lat="65.50495" lon="29.37744"/><trkpt lat="65.50492" lon="29.37806"/><trkpt lat="65.50483" lon="29.3786"/><trkpt lat="65.50482" lon="29.37891"/><trkpt lat="65.50493" lon="29.37922"/><trkpt lat="65.50504" lon="29.37947"/><trkpt lat="65.50504" lon="29.37947"/><trkpt lat="65.50446" lon="29.3812"/><trkpt lat="65.50438" lon="29.38168"/><trkpt lat="65.50427" lon="29.38184"/><trkpt lat="65.50402" lon="29.38194"/><trkpt lat="65.50393" lon="29.38206"/><trkpt lat="65.50387" lon="29.38237"/><trkpt lat="65.50395" lon="29.38289"/><trkpt lat="65.50395" lon="29.38289"/><trkpt lat="65.50394" lon="29.38298"/><trkpt lat="65.50394" lon="29.38298"/><trkpt lat="65.50407" lon="29.38323"/><trkpt lat="65.50407" lon="29.38323"/><trkpt lat="65.50449" lon="29.38372"/><trkpt lat="65.50484" lon="29.3837"/><trkpt lat="65.50484" lon="29.3837"/><trkpt lat="65.50506" lon="29.38355"/><trkpt lat="65.50518" lon="29.38359"/><trkpt lat="65.50548" lon="29.38337"/><trkpt lat="65.50548" lon="29.38337"/><trkpt lat="65.50548" lon="29.38337"/><trkpt lat="65.50554" lon="29.38318"/><trkpt lat="65.50558" lon="29.38282"/><trkpt lat="65.50560717718496" lon="29.38270223219851"/><trkpt lat="65.50560717720204" lon="29.382702232198515"/><trkpt lat="65.50558" lon="29.38282"/><trkpt lat="65.50554" lon="29.38318"/><trkpt lat="65.50548" lon="29.38337"/><trkpt lat="65.50548" lon="29.38337"/><trkpt lat="65.50548" lon="29.38337"/><trkpt lat="65.50518" lon="29.38359"/><trkpt lat="65.50506" lon="29.38355"/><trkpt lat="65.50484" lon="29.3837"/><trkpt lat="65.50484" lon="29.3837"/><trkpt lat="65.50449" lon="29.38372"/><trkpt lat="65.50407" lon="29.38323"/><trkpt lat="65.50407" lon="29.38323"/><trkpt lat="65.50394" lon="29.38298"/><trkpt lat="65.50394" lon="29.38298"/><trkpt lat="65.50395" lon="29.38289"/><trkpt lat="65.50395" lon="29.38289"/><trkpt lat="65.50385" lon="29.383"/><trkpt lat="65.50385" lon="29.383"/><trkpt lat="65.50366" lon="29.38319"/><trkpt lat="65.50348" lon="29.38315"/><trkpt lat="65.50311" lon="29.3823"/><trkpt lat="65.50302" lon="29.38227"/><trkpt lat="65.50291" lon="29.38214"/><trkpt lat="65.50279" lon="29.38226"/><trkpt lat="65.50275" lon="29.38254"/><trkpt lat="65.50274" lon="29.38287"/><trkpt lat="65.5026" lon="29.38325"/><trkpt lat="65.50248" lon="29.38367"/><trkpt lat="65.50216" lon="29.38401"/><trkpt lat="65.50204" lon="29.38467"/><trkpt lat="65.50193" lon="29.38499"/><trkpt lat="65.5018" lon="29.38631"/><trkpt lat="65.5017" lon="29.38661"/><trkpt lat="65.50157" lon="29.38678"/><trkpt lat="65.50131" lon="29.38699"/><trkpt lat="65.50118" lon="29.3875"/><trkpt lat="65.50115" lon="29.38783"/><trkpt lat="65.50104" lon="29.38808"/><trkpt lat="65.5006" lon="29.38893"/><trkpt lat="65.50045" lon="29.38932"/><trkpt lat="65.49997" lon="29.38995"/><trkpt lat="65.49975" lon="29.3902"/><trkpt lat="65.49957" lon="29.3906"/><trkpt lat="65.49929" lon="29.39172"/><trkpt lat="65.49898" lon="29.39237"/><trkpt lat="65.49866" lon="29.39286"/><trkpt lat="65.4982" lon="29.39393"/><trkpt lat="65.49795" lon="29.39395"/><trkpt lat="65.49781" lon="29.39402"/><trkpt lat="65.49735" lon="29.39512"/><trkpt lat="65.49685642956456" lon="29.396658778416377"/><trkpt lat="65.4968564313263" lon="29.39665877841638"/><trkpt lat="65.49667" lon="29.39724"/><trkpt lat="65.49637" lon="29.39801"/><trkpt lat="65.49608" lon="29.39866"/><trkpt lat="65.49573" lon="29.39932"/><trkpt lat="65.49558" lon="29.39941"/><trkpt lat="65.49558" lon="29.39941"/><trkpt lat="65.49541" lon="29.39952"/><trkpt lat="65.49524" lon="29.39941"/><trkpt lat="65.49524" lon="29.39941"/><trkpt lat="65.49517" lon="29.39937"/><trkpt lat="65.49501" lon="29.39941"/><trkpt lat="65.49501" lon="29.39941"/><trkpt lat="65.49489" lon="29.39945"/><trkpt lat="65.49474" lon="29.39964"/><trkpt lat="65.49474" lon="29.39964"/><trkpt lat="65.49472" lon="29.39967"/><trkpt lat="65.49438" lon="29.39966"/><trkpt lat="65.49424" lon="29.39991"/><trkpt lat="65.49409" lon="29.40042"/><trkpt lat="65.49355" lon="29.40188"/><trkpt lat="65.49355" lon="29.40188"/><trkpt lat="65.49324" lon="29.40345"/><trkpt lat="65.49312" lon="29.40382"/><trkpt lat="65.49265" lon="29.40378"/><trkpt lat="65.49172" lon="29.40407"/><trkpt lat="65.49131" lon="29.40413"/><trkpt lat="65.49104" lon="29.4044"/><trkpt lat="65.49074" lon="29.40455"/><trkpt lat="65.49037" lon="29.40506"/><trkpt lat="65.48999" lon="29.40513"/><trkpt lat="65.48893" lon="29.40588"/><trkpt lat="65.48879" lon="29.40601"/><trkpt lat="65.48817" lon="29.40726"/><trkpt lat="65.48796" lon="29.40779"/><trkpt lat="65.48796" lon="29.40779"/><trkpt lat="65.48716105438197" lon="29.40918328321193"/><trkpt lat="65.48716105438197" lon="29.40918328321193"/><trkpt lat="65.48714" lon="29.40922"/><trkpt lat="65.48714" lon="29.40922"/><trkpt lat="65.48752" lon="29.40972"/><trkpt lat="65.48761" lon="29.41031"/><trkpt lat="65.4877" lon="29.41108"/><trkpt lat="65.48773" lon="29.41177"/><trkpt lat="65.48768" lon="29.41258"/><trkpt lat="65.48774" lon="29.41318"/><trkpt lat="65.4876" lon="29.41404"/><trkpt lat="65.48761" lon="29.4146"/><trkpt lat="65.48754" lon="29.41514"/><trkpt lat="65.48744" lon="29.41569"/><trkpt lat="65.48742" lon="29.41615"/><trkpt lat="65.48748" lon="29.41657"/><trkpt lat="65.48747809029818" lon="29.416757150778754"/><trkpt lat="65.48747809029847" lon="29.416757150778754"/><trkpt lat="65.48747" lon="29.41755"/><trkpt lat="65.4873" lon="29.41972"/><trkpt lat="65.48712" lon="29.42061"/><trkpt lat="65.48691" lon="29.42135"/><trkpt lat="65.48676" lon="29.42139"/><trkpt lat="65.48676" lon="29.42139"/><trkpt lat="65.4867" lon="29.42146"/><trkpt lat="65.4867" lon="29.42146"/><trkpt lat="65.4866" lon="29.4217"/><trkpt lat="65.4866" lon="29.4217"/><trkpt lat="65.48657" lon="29.42215"/><trkpt lat="65.48667" lon="29.42276"/><trkpt lat="65.48668" lon="29.423"/><trkpt lat="65.4866" lon="29.42344"/><trkpt lat="65.48658" lon="29.42421"/><trkpt lat="65.48672" lon="29.42471"/><trkpt lat="65.4868" lon="29.42482"/><trkpt lat="65.48682" lon="29.42532"/><trkpt lat="65.48659" lon="29.42627"/><trkpt lat="65.48648" lon="29.42686"/><trkpt lat="65.48628" lon="29.42724"/><trkpt lat="65.48572" lon="29.4296"/><trkpt lat="65.48563" lon="29.43012"/><trkpt lat="65.48563" lon="29.43012"/><trkpt lat="65.48554" lon="29.43063"/><trkpt lat="65.48552" lon="29.431"/><trkpt lat="65.48539" lon="29.43149"/><trkpt lat="65.48526" lon="29.43216"/><trkpt lat="65.48527" lon="29.43251"/><trkpt lat="65.4852" lon="29.43327"/><trkpt lat="65.48503" lon="29.43428"/><trkpt lat="65.48496" lon="29.43478"/><trkpt lat="65.48496" lon="29.43478"/><trkpt lat="65.48503" lon="29.43512"/><trkpt lat="65.48514" lon="29.43531"/><trkpt lat="65.48517" lon="29.4354"/><trkpt lat="65.48539" lon="29.43552"/><trkpt lat="65.48554" lon="29.43584"/><trkpt lat="65.48554" lon="29.43584"/><trkpt lat="65.48531" lon="29.43594"/><trkpt lat="65.48523" lon="29.43609"/><trkpt lat="65.48504" lon="29.43667"/><trkpt lat="65.4849" lon="29.43693"/><trkpt lat="65.48486" lon="29.43722"/><trkpt lat="65.48469" lon="29.43766"/><trkpt lat="65.48461" lon="29.43806"/><trkpt lat="65.48446" lon="29.43851"/><trkpt lat="65.48429" lon="29.43881"/><trkpt lat="65.48412" lon="29.43913"/><trkpt lat="65.48410720000815" lon="29.4391506769099"/><trkpt lat="65.48410720003687" lon="29.4391506769099"/><trkpt lat="65.48399" lon="29.43934"/><trkpt lat="65.48395" lon="29.43957"/><trkpt lat="65.48398" lon="29.44012"/><trkpt lat="65.48398" lon="29.44012"/><trkpt lat="65.48399" lon="29.44034"/><trkpt lat="65.48399" lon="29.44034"/><trkpt lat="65.4839329593163" lon="29.4405610326493"/></trkseg></trk></gpx>