<?xml version="1.0"?>
<gpx xmlns="http://www.topografix.com/GPX/1/1" xmlns:gpxx="http://www.garmin.com/xmlschemas/GpxExtensions/v3" creator="CALTOPO" version="1.1"><metadata><name><![CDATA[hakokoski-hossan lomakeskus]]></name></metadata><trk><name>hakokoski-hossan lomakeskus</name><trkseg><trkpt lat="65.48391" lon="29.44065"/><trkpt lat="65.48386" lon="29.44064"/><trkpt lat="65.48361" lon="29.44033"/><trkpt lat="65.48339" lon="29.44022"/><trkpt lat="65.48325" lon="29.44021"/><trkpt lat="65.48319" lon="29.44027"/><trkpt lat="65.48301" lon="29.44088"/><trkpt lat="65.48278" lon="29.44176"/><trkpt lat="65.48249" lon="29.44293"/><trkpt lat="65.4823" lon="29.44336"/><trkpt lat="65.4823" lon="29.44336"/><trkpt lat="65.48218" lon="29.44399"/><trkpt lat="65.482" lon="29.44447"/><trkpt lat="65.48183" lon="29.44485"/><trkpt lat="65.48152" lon="29.44612"/><trkpt lat="65.48141" lon="29.44689"/><trkpt lat="65.48128" lon="29.44726"/><trkpt lat="65.48111" lon="29.44797"/><trkpt lat="65.481" lon="29.44802"/><trkpt lat="65.48051" lon="29.44781"/><trkpt lat="65.48038" lon="29.44785"/><trkpt lat="65.48031" lon="29.44801"/><trkpt lat="65.47996" lon="29.44907"/><trkpt lat="65.47979" lon="29.44931"/><trkpt lat="65.47964" lon="29.44969"/><trkpt lat="65.47933" lon="29.45063"/><trkpt lat="65.47903" lon="29.45093"/><trkpt lat="65.47894" lon="29.45124"/><trkpt lat="65.47891" lon="29.45153"/><trkpt lat="65.47884" lon="29.45191"/><trkpt lat="65.4787" lon="29.45235"/><trkpt lat="65.47856" lon="29.45261"/><trkpt lat="65.47828" lon="29.453"/><trkpt lat="65.47781" lon="29.45395"/><trkpt lat="65.47742" lon="29.45452"/><trkpt lat="65.47717" lon="29.45516"/><trkpt lat="65.47697" lon="29.45554"/><trkpt lat="65.47669" lon="29.45596"/><trkpt lat="65.47651" lon="29.45609"/><trkpt lat="65.47651" lon="29.45609"/><trkpt lat="65.47636" lon="29.45625"/><trkpt lat="65.47614" lon="29.45663"/><trkpt lat="65.47594" lon="29.45667"/><trkpt lat="65.47552" lon="29.45707"/><trkpt lat="65.47525" lon="29.4575"/><trkpt lat="65.47493" lon="29.45771"/><trkpt lat="65.47457" lon="29.45827"/><trkpt lat="65.47457" lon="29.45827"/><trkpt lat="65.47358" lon="29.45971"/><trkpt lat="65.47325" lon="29.46027"/><trkpt lat="65.47311" lon="29.46042"/><trkpt lat="65.47265" lon="29.46077"/><trkpt lat="65.47245" lon="29.4613"/><trkpt lat="65.47223" lon="29.46208"/><trkpt lat="65.47198" lon="29.46339"/><trkpt lat="65.47188" lon="29.46373"/><trkpt lat="65.47188" lon="29.46373"/><trkpt lat="65.47188" lon="29.46373"/><trkpt lat="65.47178" lon="29.46401"/><trkpt lat="65.47178" lon="29.46401"/><trkpt lat="65.47165" lon="29.46429"/><trkpt lat="65.47158879697498" lon="29.464518120365973"/><trkpt lat="65.47158879697498" lon="29.464518120365973"/><trkpt lat="65.47154" lon="29.4647"/><trkpt lat="65.47154" lon="29.4647"/><trkpt lat="65.47131" lon="29.46526"/><trkpt lat="65.47126" lon="29.46533"/><trkpt lat="65.47126" lon="29.46533"/><trkpt lat="65.47108" lon="29.46549"/><trkpt lat="65.47083" lon="29.46554"/><trkpt lat="65.47076" lon="29.46561"/><trkpt lat="65.47066" lon="29.46578"/><trkpt lat="65.4706" lon="29.46583"/><trkpt lat="65.4706" lon="29.46583"/><trkpt lat="65.47062" lon="29.46612"/><trkpt lat="65.47061124866316" lon="29.466220640373614"/><trkpt lat="65.47061124866316" lon="29.466220640373614"/><trkpt lat="65.4706" lon="29.46635"/><trkpt lat="65.47055" lon="29.46662"/><trkpt lat="65.47055" lon="29.46662"/><trkpt lat="65.47041" lon="29.46715"/><trkpt lat="65.47041" lon="29.46715"/><trkpt lat="65.47036" lon="29.46728"/><trkpt lat="65.47021" lon="29.46758"/><trkpt lat="65.47021" lon="29.46758"/><trkpt lat="65.46993" lon="29.4679"/><trkpt lat="65.46985" lon="29.46815"/><trkpt lat="65.46947" lon="29.47025"/><trkpt lat="65.46921" lon="29.47218"/><trkpt lat="65.46919" lon="29.4726"/><trkpt lat="65.46922" lon="29.47468"/><trkpt lat="65.46922" lon="29.47588"/><trkpt lat="65.46915" lon="29.47724"/><trkpt lat="65.46897734306467" lon="29.478707583950325"/><trkpt lat="65.468912616369" lon="29.481191245815427"/><trkpt lat="65.4689773560404" lon="29.48225093308221"/><trkpt lat="65.4689773560404" lon="29.48225093308221"/><trkpt lat="65.46905" lon="29.48344"/><trkpt lat="65.46906" lon="29.48396"/><trkpt lat="65.46901" lon="29.4846"/><trkpt lat="65.46892" lon="29.48508"/><trkpt lat="65.46892" lon="29.48508"/><trkpt lat="65.46892" lon="29.48508"/><trkpt lat="65.46879" lon="29.48674"/><trkpt lat="65.46878" lon="29.4873"/><trkpt lat="65.46878" lon="29.4873"/><trkpt lat="65.46872" lon="29.48813"/><trkpt lat="65.46866" lon="29.48851"/><trkpt lat="65.46826" lon="29.48963"/><trkpt lat="65.46788" lon="29.49135"/><trkpt lat="65.46771" lon="29.49277"/><trkpt lat="65.46762308436735" lon="29.493120378644107"/><trkpt lat="65.46763913172616" lon="29.493144610761863"/><trkpt lat="65.46818" lon="29.49401"/><trkpt lat="65.46818" lon="29.49401"/><trkpt lat="65.46815" lon="29.49474"/><trkpt lat="65.46819" lon="29.49612"/><trkpt lat="65.46812" lon="29.49659"/><trkpt lat="65.46817" lon="29.4971"/><trkpt lat="65.46817" lon="29.4971"/><trkpt lat="65.46817" lon="29.4971"/><trkpt lat="65.46827" lon="29.49773"/><trkpt lat="65.46827" lon="29.49773"/><trkpt lat="65.46827" lon="29.49773"/><trkpt lat="65.46826" lon="29.49804"/><trkpt lat="65.46828" lon="29.49863"/><trkpt lat="65.46828" lon="29.49863"/><trkpt lat="65.46819" lon="29.49876"/><trkpt lat="65.46807" lon="29.49878"/><trkpt lat="65.46798" lon="29.49886"/><trkpt lat="65.46787" lon="29.499"/><trkpt lat="65.46777" lon="29.49923"/><trkpt lat="65.46758" lon="29.49981"/><trkpt lat="65.46739" lon="29.50046"/><trkpt lat="65.46739" lon="29.50046"/><trkpt lat="65.46733" lon="29.50065"/><trkpt lat="65.46729" lon="29.50104"/><trkpt lat="65.4673" lon="29.50146"/><trkpt lat="65.46739" lon="29.50186"/><trkpt lat="65.46739" lon="29.50186"/><trkpt lat="65.46741" lon="29.50198"/><trkpt lat="65.46754" lon="29.50239"/><trkpt lat="65.46754" lon="29.50239"/><trkpt lat="65.46739" lon="29.50246"/><trkpt lat="65.46739" lon="29.50246"/><trkpt lat="65.46729" lon="29.5025"/><trkpt lat="65.46712279264297" lon="29.502684808131463"/><trkpt lat="65.46712279264297" lon="29.502684808131463"/><trkpt lat="65.46691" lon="29.50292"/><trkpt lat="65.46672" lon="29.50301"/><trkpt lat="65.46655" lon="29.50325"/><trkpt lat="65.46648" lon="29.50347"/><trkpt lat="65.46646223326532" lon="29.503635822857042"/><trkpt lat="65.46646223326947" lon="29.50363582285704"/><trkpt lat="65.46645" lon="29.50375"/><trkpt lat="65.46639" lon="29.50411"/><trkpt lat="65.46632" lon="29.50424"/><trkpt lat="65.46617" lon="29.50439"/><trkpt lat="65.46594" lon="29.50453"/><trkpt lat="65.46594" lon="29.50453"/><trkpt lat="65.46594" lon="29.50453"/><trkpt lat="65.46587" lon="29.50491"/><trkpt lat="65.4658" lon="29.50513"/><trkpt lat="65.46572" lon="29.50563"/><trkpt lat="65.46571" lon="29.50591"/><trkpt lat="65.46566" lon="29.50619"/><trkpt lat="65.46552018741308" lon="29.506360882050686"/><trkpt lat="65.46552018741308" lon="29.506360882050686"/><trkpt lat="65.46548" lon="29.50641"/><trkpt lat="65.46546" lon="29.50656"/><trkpt lat="65.46548" lon="29.50692"/><trkpt lat="65.46548" lon="29.50717"/><trkpt lat="65.46536" lon="29.50778"/><trkpt lat="65.46534" lon="29.50815"/><trkpt lat="65.46534" lon="29.50815"/><trkpt lat="65.46531" lon="29.50815"/><trkpt lat="65.46531" lon="29.50815"/><trkpt lat="65.46513" lon="29.50811"/><trkpt lat="65.46514128678643" lon="29.508113203353062"/><trkpt lat="65.46511" lon="29.50873"/><trkpt lat="65.46513" lon="29.50928"/><trkpt lat="65.46513" lon="29.50928"/><trkpt lat="65.46514" lon="29.50955"/><trkpt lat="65.46526475255631" lon="29.51069059480053"/><trkpt lat="65.46526" lon="29.51071"/><trkpt lat="65.46516" lon="29.51085"/><trkpt lat="65.46507" lon="29.51112"/><trkpt lat="65.46502" lon="29.51173"/><trkpt lat="65.46502" lon="29.51199"/><trkpt lat="65.46517" lon="29.51295"/><trkpt lat="65.46519" lon="29.51326"/><trkpt lat="65.46515" lon="29.51377"/><trkpt lat="65.46502" lon="29.51439"/><trkpt lat="65.46497" lon="29.51477"/><trkpt lat="65.46497000048376" lon="29.51476999885852"/><trkpt lat="65.46497" lon="29.51477"/><trkpt lat="65.4649" lon="29.51504"/><trkpt lat="65.46465" lon="29.51543"/><trkpt lat="65.46446" lon="29.516"/><trkpt lat="65.46432" lon="29.51649"/><trkpt lat="65.46411" lon="29.51662"/><trkpt lat="65.46388" lon="29.51653"/><trkpt lat="65.46364" lon="29.51662"/><trkpt lat="65.46364" lon="29.51662"/><trkpt lat="65.46364" lon="29.51662"/><trkpt lat="65.46359" lon="29.51676"/><trkpt lat="65.46356" lon="29.51698"/><trkpt lat="65.46356" lon="29.51698"/><trkpt lat="65.46356" lon="29.51698"/><trkpt lat="65.46358" lon="29.51726"/><trkpt lat="65.46357" lon="29.51753"/><trkpt lat="65.46364" lon="29.51835"/><trkpt lat="65.46364" lon="29.51931"/><trkpt lat="65.46345" lon="29.52053"/><trkpt lat="65.46330118364928" lon="29.52130541151174"/><trkpt lat="65.46329539306966" lon="29.521335583479203"/><trkpt lat="65.46326" lon="29.52152"/><trkpt lat="65.46300063941986" lon="29.522326899807346"/><trkpt lat="65.46300063941986" lon="29.522326899807346"/><trkpt lat="65.46272" lon="29.5232"/><trkpt lat="65.46246" lon="29.52422"/><trkpt lat="65.46239" lon="29.5248"/><trkpt lat="65.46238" lon="29.52521"/><trkpt lat="65.46242" lon="29.52544"/><trkpt lat="65.46253" lon="29.52563"/><trkpt lat="65.46272" lon="29.52582"/><trkpt lat="65.46285" lon="29.52605"/><trkpt lat="65.463" lon="29.52665"/><trkpt lat="65.46305" lon="29.52731"/><trkpt lat="65.46305" lon="29.5276"/><trkpt lat="65.46302" lon="29.5279"/><trkpt lat="65.46286" lon="29.52851"/><trkpt lat="65.46265" lon="29.5291"/><trkpt lat="65.46265" lon="29.5291"/><trkpt lat="65.46265" lon="29.5291"/><trkpt lat="65.4625" lon="29.52956"/><trkpt lat="65.46249" lon="29.53002"/><trkpt lat="65.46239" lon="29.53068"/><trkpt lat="65.46222" lon="29.53125"/><trkpt lat="65.46222" lon="29.53125"/><trkpt lat="65.46205" lon="29.53184"/><trkpt lat="65.46168" lon="29.53231"/><trkpt lat="65.46096" lon="29.53373"/><trkpt lat="65.4604" lon="29.53495"/><trkpt lat="65.45999" lon="29.53562"/><trkpt lat="65.45985" lon="29.536"/><trkpt lat="65.45957" lon="29.53628"/><trkpt lat="65.45937" lon="29.53622"/><trkpt lat="65.45914" lon="29.53626"/><trkpt lat="65.45881" lon="29.53619"/><trkpt lat="65.45852" lon="29.53672"/><trkpt lat="65.45852" lon="29.53672"/><trkpt lat="65.45839" lon="29.53707"/><trkpt lat="65.45826" lon="29.5373"/><trkpt lat="65.45826" lon="29.5373"/><trkpt lat="65.45819" lon="29.53749"/><trkpt lat="65.45808" lon="29.53765"/><trkpt lat="65.45767" lon="29.53806"/><trkpt lat="65.45754" lon="29.53822"/><trkpt lat="65.45746" lon="29.53839"/><trkpt lat="65.45727" lon="29.53865"/><trkpt lat="65.45709" lon="29.53914"/><trkpt lat="65.4568" lon="29.53953"/><trkpt lat="65.45649" lon="29.53978"/><trkpt lat="65.45629" lon="29.5399"/><trkpt lat="65.4562" lon="29.54005"/><trkpt lat="65.45589" lon="29.54077"/><trkpt lat="65.45537" lon="29.5413"/><trkpt lat="65.45537" lon="29.5413"/><trkpt lat="65.4552" lon="29.54159"/><trkpt lat="65.45417" lon="29.54264"/><trkpt lat="65.45366" lon="29.54337"/><trkpt lat="65.4533" lon="29.5438"/><trkpt lat="65.45207988460719" lon="29.545759579267248"/><trkpt lat="65.45207988460719" lon="29.545759579267248"/><trkpt lat="65.45198" lon="29.54592"/><trkpt lat="65.45171" lon="29.54634"/><trkpt lat="65.45134" lon="29.54682"/><trkpt lat="65.45089" lon="29.54772"/><trkpt lat="65.45041" lon="29.54883"/><trkpt lat="65.45031" lon="29.54913"/><trkpt lat="65.45008" lon="29.55021"/><trkpt lat="65.44976" lon="29.55152"/><trkpt lat="65.44926" lon="29.55322"/><trkpt lat="65.44926" lon="29.55322"/><trkpt lat="65.44913" lon="29.55367"/><trkpt lat="65.44913" lon="29.55367"/><trkpt lat="65.44891" lon="29.55442"/><trkpt lat="65.44845" lon="29.55535"/><trkpt lat="65.44845" lon="29.55535"/><trkpt lat="65.44845" lon="29.55535"/><trkpt lat="65.44827" lon="29.55592"/><trkpt lat="65.44816" lon="29.5567"/><trkpt lat="65.44808" lon="29.55709"/><trkpt lat="65.44801401427856" lon="29.557667375062618"/><trkpt lat="65.44801401434665" lon="29.557667375062614"/><trkpt lat="65.44796" lon="29.55814"/><trkpt lat="65.44796" lon="29.55814"/><trkpt lat="65.4478" lon="29.55853"/><trkpt lat="65.44762" lon="29.55874"/><trkpt lat="65.44727" lon="29.55952"/><trkpt lat="65.44722" lon="29.55996"/><trkpt lat="65.4472" lon="29.56059"/><trkpt lat="65.4472" lon="29.56059"/><trkpt lat="65.4472" lon="29.56117"/><trkpt lat="65.44722" lon="29.56156"/><trkpt lat="65.44722" lon="29.56156"/><trkpt lat="65.44596" lon="29.56151"/><trkpt lat="65.44547" lon="29.56136"/><trkpt lat="65.44504" lon="29.56096"/><trkpt lat="65.44463" lon="29.56035"/><trkpt lat="65.44358" lon="29.55862"/><trkpt lat="65.44296" lon="29.55764"/><trkpt lat="65.44295166687925" lon="29.55762611138555"/><trkpt lat="65.44295166687925" lon="29.55762611138555"/><trkpt lat="65.44296" lon="29.55759"/><trkpt lat="65.44291" lon="29.55728"/><trkpt lat="65.44282" lon="29.55708"/><trkpt lat="65.44280912968095" lon="29.55706283633835"/><trkpt lat="65.44280912968095" lon="29.55706283633835"/><trkpt lat="65.44237379264858" lon="29.556375462076716"/></trkseg></trk></gpx>