<?xml version="1.0"?>
<gpx xmlns="http://www.topografix.com/GPX/1/1" xmlns:gpxx="http://www.garmin.com/xmlschemas/GpxExtensions/v3" creator="CALTOPO" version="1.1"><metadata><name><![CDATA[hevonperse-lavajarvi]]></name></metadata><trk><name>hevonperse-lavajarvi</name><trkseg><trkpt lat="65.40383329453262" lon="29.1095906496048"/><trkpt lat="65.40414391267957" lon="29.109595650674663"/><trkpt lat="65.40415" lon="29.10962"/><trkpt lat="65.40415" lon="29.10962"/><trkpt lat="65.40423" lon="29.10973"/><trkpt lat="65.40426" lon="29.11039"/><trkpt lat="65.40421" lon="29.11056"/><trkpt lat="65.40416" lon="29.11058"/><trkpt lat="65.40415" lon="29.1107"/><trkpt lat="65.40408" lon="29.111"/><trkpt lat="65.40401" lon="29.11109"/><trkpt lat="65.40382" lon="29.11112"/><trkpt lat="65.40374" lon="29.11116"/><trkpt lat="65.40347" lon="29.1111"/><trkpt lat="65.40344" lon="29.11112"/><trkpt lat="65.40344" lon="29.11112"/><trkpt lat="65.40336" lon="29.1112"/><trkpt lat="65.40326" lon="29.11133"/><trkpt lat="65.40312" lon="29.11138"/><trkpt lat="65.40303" lon="29.1115"/><trkpt lat="65.40292" lon="29.11184"/><trkpt lat="65.40285" lon="29.11253"/><trkpt lat="65.40275" lon="29.11269"/><trkpt lat="65.40261" lon="29.11306"/><trkpt lat="65.40239" lon="29.11343"/><trkpt lat="65.40223" lon="29.11377"/><trkpt lat="65.40223" lon="29.11377"/><trkpt lat="65.40209" lon="29.11406"/><trkpt lat="65.40196" lon="29.11448"/><trkpt lat="65.40179" lon="29.11489"/><trkpt lat="65.40166" lon="29.11532"/><trkpt lat="65.4014" lon="29.11705"/><trkpt lat="65.4012" lon="29.11745"/><trkpt lat="65.40096" lon="29.11765"/><trkpt lat="65.40081" lon="29.1179"/><trkpt lat="65.40072" lon="29.11832"/><trkpt lat="65.4005" lon="29.11831"/><trkpt lat="65.40011" lon="29.11877"/><trkpt lat="65.40013" lon="29.11894"/><trkpt lat="65.40003" lon="29.11953"/><trkpt lat="65.40002" lon="29.11974"/><trkpt lat="65.39995" lon="29.11991"/><trkpt lat="65.39996" lon="29.12008"/><trkpt lat="65.39985" lon="29.12062"/><trkpt lat="65.39976" lon="29.12077"/><trkpt lat="65.39969" lon="29.12134"/><trkpt lat="65.39955" lon="29.12201"/><trkpt lat="65.3995" lon="29.12231"/><trkpt lat="65.39934" lon="29.12253"/><trkpt lat="65.39927" lon="29.12267"/><trkpt lat="65.39924" lon="29.12268"/><trkpt lat="65.39914" lon="29.12299"/><trkpt lat="65.39908" lon="29.12305"/><trkpt lat="65.39895" lon="29.12332"/><trkpt lat="65.39893" lon="29.12341"/><trkpt lat="65.39877" lon="29.12377"/><trkpt lat="65.39873" lon="29.12377"/><trkpt lat="65.39869" lon="29.12396"/><trkpt lat="65.39867" lon="29.12394"/><trkpt lat="65.39855" lon="29.1239"/><trkpt lat="65.39835" lon="29.12396"/><trkpt lat="65.39825" lon="29.12402"/><trkpt lat="65.39812" lon="29.12432"/><trkpt lat="65.39797" lon="29.12482"/><trkpt lat="65.39793" lon="29.12564"/><trkpt lat="65.39783" lon="29.12651"/><trkpt lat="65.39781" lon="29.12685"/><trkpt lat="65.39778" lon="29.12699"/><trkpt lat="65.39772" lon="29.12756"/><trkpt lat="65.3977" lon="29.12821"/><trkpt lat="65.39778" lon="29.12849"/><trkpt lat="65.39776" lon="29.12888"/><trkpt lat="65.39781" lon="29.12908"/><trkpt lat="65.39783" lon="29.12957"/><trkpt lat="65.39786" lon="29.12967"/><trkpt lat="65.3979" lon="29.13154"/><trkpt lat="65.39795" lon="29.13169"/><trkpt lat="65.39797" lon="29.13196"/><trkpt lat="65.39803" lon="29.13219"/><trkpt lat="65.39808" lon="29.13253"/><trkpt lat="65.39812" lon="29.13265"/><trkpt lat="65.39814" lon="29.13292"/><trkpt lat="65.39815" lon="29.13329"/><trkpt lat="65.39815" lon="29.13358"/><trkpt lat="65.39817" lon="29.13392"/><trkpt lat="65.39823" lon="29.13427"/><trkpt lat="65.39825" lon="29.13459"/><trkpt lat="65.39833" lon="29.13514"/><trkpt lat="65.39831" lon="29.13554"/><trkpt lat="65.39828" lon="29.13574"/><trkpt lat="65.39828" lon="29.13574"/><trkpt lat="65.39816" lon="29.13672"/><trkpt lat="65.39801" lon="29.13706"/><trkpt lat="65.39789" lon="29.13721"/><trkpt lat="65.39779" lon="29.13762"/><trkpt lat="65.39776" lon="29.13822"/><trkpt lat="65.39769" lon="29.1388"/><trkpt lat="65.39766" lon="29.13915"/><trkpt lat="65.39764" lon="29.14007"/><trkpt lat="65.39761" lon="29.14039"/><trkpt lat="65.39759" lon="29.14073"/><trkpt lat="65.39762" lon="29.14159"/><trkpt lat="65.39771" lon="29.14228"/><trkpt lat="65.3978" lon="29.14325"/><trkpt lat="65.39789" lon="29.14382"/><trkpt lat="65.39786747980179" lon="29.144054210061324"/><trkpt lat="65.39786747981361" lon="29.144054210061324"/><trkpt lat="65.39784" lon="29.14434"/><trkpt lat="65.39782" lon="29.1444"/><trkpt lat="65.39785" lon="29.14477"/><trkpt lat="65.39788" lon="29.14503"/><trkpt lat="65.39785" lon="29.1453"/><trkpt lat="65.39785" lon="29.1453"/><trkpt lat="65.39808" lon="29.14567"/><trkpt lat="65.39816" lon="29.14571"/><trkpt lat="65.39832" lon="29.14622"/><trkpt lat="65.39841" lon="29.14689"/><trkpt lat="65.39844" lon="29.14752"/><trkpt lat="65.39842" lon="29.14812"/><trkpt lat="65.39831" lon="29.14894"/><trkpt lat="65.39832" lon="29.14936"/><trkpt lat="65.39852" lon="29.14976"/><trkpt lat="65.39914" lon="29.14998"/><trkpt lat="65.39932" lon="29.14995"/><trkpt lat="65.39942" lon="29.15021"/><trkpt lat="65.39969" lon="29.15041"/><trkpt lat="65.39994" lon="29.15066"/><trkpt lat="65.40014" lon="29.15091"/><trkpt lat="65.40042" lon="29.15145"/><trkpt lat="65.4007" lon="29.15239"/><trkpt lat="65.40073" lon="29.15264"/><trkpt lat="65.40072" lon="29.15304"/><trkpt lat="65.40064" lon="29.15336"/><trkpt lat="65.40063" lon="29.1541"/><trkpt lat="65.40064" lon="29.15439"/><trkpt lat="65.40062" lon="29.15462"/><trkpt lat="65.40066" lon="29.1551"/><trkpt lat="65.40075" lon="29.15544"/><trkpt lat="65.40095" lon="29.15568"/><trkpt lat="65.40107" lon="29.15573"/><trkpt lat="65.40118" lon="29.15568"/><trkpt lat="65.40119" lon="29.15564"/><trkpt lat="65.40137" lon="29.15559"/><trkpt lat="65.40156" lon="29.15568"/><trkpt lat="65.40167" lon="29.15596"/><trkpt lat="65.40179" lon="29.15618"/><trkpt lat="65.40185" lon="29.1563"/><trkpt lat="65.40195" lon="29.15643"/><trkpt lat="65.40215" lon="29.15646"/><trkpt lat="65.40228" lon="29.15639"/><trkpt lat="65.4025" lon="29.15601"/><trkpt lat="65.40252" lon="29.15583"/><trkpt lat="65.40267" lon="29.15537"/><trkpt lat="65.40273" lon="29.15531"/><trkpt lat="65.40282" lon="29.15514"/><trkpt lat="65.40293" lon="29.1551"/><trkpt lat="65.40302" lon="29.15517"/><trkpt lat="65.4032" lon="29.15541"/><trkpt lat="65.40335" lon="29.15577"/><trkpt lat="65.40344" lon="29.15591"/><trkpt lat="65.40344" lon="29.15591"/><trkpt lat="65.4037" lon="29.15636"/><trkpt lat="65.4041" lon="29.15664"/><trkpt lat="65.40417" lon="29.15674"/><trkpt lat="65.40433" lon="29.15678"/><trkpt lat="65.40432" lon="29.1567"/><trkpt lat="65.40446" lon="29.15638"/><trkpt lat="65.40457" lon="29.15621"/><trkpt lat="65.40473" lon="29.15608"/><trkpt lat="65.40487" lon="29.15612"/><trkpt lat="65.40533" lon="29.15669"/><trkpt lat="65.40554" lon="29.15705"/><trkpt lat="65.40565" lon="29.15748"/><trkpt lat="65.40565" lon="29.15771"/><trkpt lat="65.40565" lon="29.15771"/><trkpt lat="65.40565" lon="29.15781"/><trkpt lat="65.40563" lon="29.15802"/><trkpt lat="65.40572" lon="29.1586"/><trkpt lat="65.40589" lon="29.15906"/><trkpt lat="65.40598" lon="29.15936"/><trkpt lat="65.40609" lon="29.15962"/><trkpt lat="65.40623" lon="29.15973"/><trkpt lat="65.40637" lon="29.16008"/><trkpt lat="65.40646" lon="29.16024"/><trkpt lat="65.40671" lon="29.1603"/><trkpt lat="65.40693" lon="29.16047"/><trkpt lat="65.40707" lon="29.16065"/><trkpt lat="65.40717" lon="29.16072"/><trkpt lat="65.40728" lon="29.16075"/><trkpt lat="65.4074" lon="29.16064"/><trkpt lat="65.40744" lon="29.16069"/><trkpt lat="65.40762" lon="29.16074"/><trkpt lat="65.40782" lon="29.16066"/><trkpt lat="65.4079" lon="29.16068"/><trkpt lat="65.40820945535913" lon="29.160579882089692"/><trkpt lat="65.40820945553936" lon="29.160579882089696"/><trkpt lat="65.40824" lon="29.16057"/><trkpt lat="65.40841" lon="29.16058"/><trkpt lat="65.40899" lon="29.16073"/><trkpt lat="65.40924" lon="29.16077"/><trkpt lat="65.40931" lon="29.16085"/><trkpt lat="65.40958" lon="29.16095"/><trkpt lat="65.40969" lon="29.16097"/><trkpt lat="65.40988" lon="29.16088"/><trkpt lat="65.41042" lon="29.161"/><trkpt lat="65.4109" lon="29.16134"/><trkpt lat="65.41105" lon="29.16149"/><trkpt lat="65.41117" lon="29.16176"/><trkpt lat="65.41125" lon="29.16197"/><trkpt lat="65.41134" lon="29.1621"/><trkpt lat="65.41146" lon="29.16237"/><trkpt lat="65.41175" lon="29.1627"/><trkpt lat="65.41195" lon="29.16287"/><trkpt lat="65.41215" lon="29.16309"/><trkpt lat="65.41248" lon="29.16336"/><trkpt lat="65.41259" lon="29.16341"/><trkpt lat="65.41259" lon="29.16341"/><trkpt lat="65.41272" lon="29.16347"/><trkpt lat="65.41351" lon="29.16432"/><trkpt lat="65.41399" lon="29.16495"/><trkpt lat="65.41434" lon="29.16532"/><trkpt lat="65.41458" lon="29.16566"/><trkpt lat="65.41473" lon="29.16583"/><trkpt lat="65.41478" lon="29.16592"/><trkpt lat="65.41502" lon="29.16596"/><trkpt lat="65.41508608710765" lon="29.166032695018654"/><trkpt lat="65.41508608710765" lon="29.166032695018654"/><trkpt lat="65.41512" lon="29.16607"/><trkpt lat="65.41517" lon="29.16607"/><trkpt lat="65.41523" lon="29.16614"/><trkpt lat="65.4153" lon="29.16664"/><trkpt lat="65.41536" lon="29.16688"/><trkpt lat="65.41561" lon="29.16768"/><trkpt lat="65.41565" lon="29.16779"/><trkpt lat="65.41572" lon="29.1679"/><trkpt lat="65.4158" lon="29.16815"/><trkpt lat="65.41586" lon="29.16842"/><trkpt lat="65.41591" lon="29.16856"/><trkpt lat="65.4159" lon="29.16867"/><trkpt lat="65.41592" lon="29.16894"/><trkpt lat="65.41595" lon="29.16907"/><trkpt lat="65.41614" lon="29.16933"/><trkpt lat="65.41622" lon="29.16946"/><trkpt lat="65.41632" lon="29.16973"/><trkpt lat="65.41637" lon="29.16996"/><trkpt lat="65.41635" lon="29.17021"/><trkpt lat="65.41631" lon="29.17036"/><trkpt lat="65.41633" lon="29.1705"/><trkpt lat="65.41662" lon="29.17119"/><trkpt lat="65.41672" lon="29.17134"/><trkpt lat="65.41686" lon="29.17148"/><trkpt lat="65.41704" lon="29.17149"/><trkpt lat="65.41714" lon="29.17162"/><trkpt lat="65.41719" lon="29.17181"/><trkpt lat="65.41718" lon="29.17181"/><trkpt lat="65.41717" lon="29.17197"/><trkpt lat="65.41719785801646" lon="29.172211436142785"/><trkpt lat="65.41719785801646" lon="29.172211436142785"/><trkpt lat="65.41723" lon="29.17249"/><trkpt lat="65.41735" lon="29.17331"/><trkpt lat="65.41737" lon="29.17355"/><trkpt lat="65.41728" lon="29.17379"/><trkpt lat="65.41719" lon="29.17427"/><trkpt lat="65.41720877370534" lon="29.174744036060016"/><trkpt lat="65.41720877372728" lon="29.17474403606002"/><trkpt lat="65.41727" lon="29.17629"/><trkpt lat="65.41731" lon="29.17649"/><trkpt lat="65.41731" lon="29.17649"/><trkpt lat="65.41731" lon="29.17649"/><trkpt lat="65.41742" lon="29.17635"/><trkpt lat="65.41765" lon="29.17636"/><trkpt lat="65.41778" lon="29.17645"/><trkpt lat="65.41782" lon="29.17676"/><trkpt lat="65.41787" lon="29.17685"/><trkpt lat="65.41802" lon="29.17699"/><trkpt lat="65.41808" lon="29.17701"/><trkpt lat="65.41827" lon="29.17653"/><trkpt lat="65.41847" lon="29.17631"/><trkpt lat="65.41876" lon="29.17645"/><trkpt lat="65.41881" lon="29.17664"/><trkpt lat="65.41889" lon="29.17692"/><trkpt lat="65.4191" lon="29.17708"/><trkpt lat="65.41925" lon="29.17727"/><trkpt lat="65.41926776413324" lon="29.17735289928843"/><trkpt lat="65.41926776413324" lon="29.17735289928843"/><trkpt lat="65.41931" lon="29.17755"/><trkpt lat="65.41944" lon="29.17786"/><trkpt lat="65.41954" lon="29.17833"/><trkpt lat="65.41969" lon="29.17857"/><trkpt lat="65.4198" lon="29.17897"/><trkpt lat="65.41976040553841" lon="29.17954016024687"/><trkpt lat="65.41976040553841" lon="29.17954016024687"/><trkpt lat="65.41975" lon="29.17969"/><trkpt lat="65.41975" lon="29.17969"/><trkpt lat="65.41964" lon="29.18055"/><trkpt lat="65.4195" lon="29.18174"/><trkpt lat="65.41945" lon="29.18298"/><trkpt lat="65.41947" lon="29.18324"/><trkpt lat="65.41974" lon="29.18466"/><trkpt lat="65.41982" lon="29.18544"/><trkpt lat="65.41991" lon="29.18563"/><trkpt lat="65.42011" lon="29.18616"/><trkpt lat="65.42025" lon="29.18628"/><trkpt lat="65.4203" lon="29.18637"/><trkpt lat="65.42046" lon="29.18679"/><trkpt lat="65.42054" lon="29.18697"/><trkpt lat="65.42057" lon="29.18727"/><trkpt lat="65.42057" lon="29.18765"/><trkpt lat="65.42058" lon="29.18781"/><trkpt lat="65.42064" lon="29.18806"/><trkpt lat="65.42067" lon="29.18828"/><trkpt lat="65.42068" lon="29.18871"/><trkpt lat="65.42071" lon="29.18888"/><trkpt lat="65.42071" lon="29.18913"/><trkpt lat="65.42068" lon="29.18949"/><trkpt lat="65.42067" lon="29.19032"/><trkpt lat="65.42057" lon="29.19137"/><trkpt lat="65.42055" lon="29.19144"/><trkpt lat="65.42052" lon="29.19198"/><trkpt lat="65.42047" lon="29.19229"/><trkpt lat="65.42046" lon="29.1925"/><trkpt lat="65.42046" lon="29.1925"/><trkpt lat="65.42046" lon="29.1925"/><trkpt lat="65.42046" lon="29.19289"/><trkpt lat="65.42051" lon="29.19331"/><trkpt lat="65.42052" lon="29.19393"/><trkpt lat="65.42056" lon="29.19448"/><trkpt lat="65.42055" lon="29.19487"/><trkpt lat="65.42057" lon="29.19502"/><trkpt lat="65.42057" lon="29.19555"/><trkpt lat="65.4204" lon="29.1969"/><trkpt lat="65.42036" lon="29.19741"/><trkpt lat="65.42035454861931" lon="29.197562635272195"/><trkpt lat="65.42035454861931" lon="29.197562635272195"/><trkpt lat="65.42034" lon="29.19797"/><trkpt lat="65.42034" lon="29.19959"/><trkpt lat="65.42021" lon="29.20043"/><trkpt lat="65.4201415450226" lon="29.201195451110788"/><trkpt lat="65.42013994593368" lon="29.201213331832385"/><trkpt lat="65.42013876349034" lon="29.201226553698817"/><trkpt lat="65.42013575180488" lon="29.20126022981817"/><trkpt lat="65.4201" lon="29.20166"/><trkpt lat="65.4201" lon="29.20166"/><trkpt lat="65.42011" lon="29.20249"/><trkpt lat="65.42018" lon="29.20357"/><trkpt lat="65.42026" lon="29.2046"/><trkpt lat="65.42037" lon="29.20542"/><trkpt lat="65.42035" lon="29.20582"/><trkpt lat="65.42037" lon="29.20616"/><trkpt lat="65.42043" lon="29.20669"/><trkpt lat="65.42043" lon="29.20692"/><trkpt lat="65.42046" lon="29.2071"/><trkpt lat="65.42048" lon="29.20768"/><trkpt lat="65.42048" lon="29.20785"/><trkpt lat="65.42054" lon="29.20812"/><trkpt lat="65.42075" lon="29.2085"/><trkpt lat="65.4208" lon="29.20864"/><trkpt lat="65.42081" lon="29.20879"/><trkpt lat="65.42089" lon="29.20918"/><trkpt lat="65.42095" lon="29.20932"/><trkpt lat="65.42104" lon="29.20944"/><trkpt lat="65.42129" lon="29.21053"/><trkpt lat="65.42136" lon="29.21107"/><trkpt lat="65.42164" lon="29.21166"/><trkpt lat="65.42173" lon="29.21194"/><trkpt lat="65.42173" lon="29.21194"/><trkpt lat="65.42173" lon="29.212"/><trkpt lat="65.42173" lon="29.212"/><trkpt lat="65.42171" lon="29.21219"/><trkpt lat="65.42173" lon="29.21223"/><trkpt lat="65.42173" lon="29.21223"/><trkpt lat="65.42183" lon="29.21253"/><trkpt lat="65.42196" lon="29.21335"/><trkpt lat="65.42205" lon="29.21405"/><trkpt lat="65.42209" lon="29.21419"/><trkpt lat="65.42213" lon="29.21439"/><trkpt lat="65.42213" lon="29.21442"/><trkpt lat="65.42218" lon="29.21449"/><trkpt lat="65.42221" lon="29.21442"/><trkpt lat="65.4225" lon="29.21455"/><trkpt lat="65.42276" lon="29.21491"/><trkpt lat="65.42308" lon="29.21561"/><trkpt lat="65.42317" lon="29.21568"/><trkpt lat="65.4234" lon="29.2163"/><trkpt lat="65.42378" lon="29.21653"/><trkpt lat="65.42407" lon="29.21703"/><trkpt lat="65.42423" lon="29.2176"/><trkpt lat="65.42493" lon="29.21909"/><trkpt lat="65.42529" lon="29.21951"/><trkpt lat="65.42545" lon="29.21974"/><trkpt lat="65.42555" lon="29.21997"/><trkpt lat="65.42557" lon="29.22029"/><trkpt lat="65.42558" lon="29.22136"/><trkpt lat="65.42569" lon="29.22182"/><trkpt lat="65.42575" lon="29.22193"/><trkpt lat="65.42585" lon="29.22202"/><trkpt lat="65.42601" lon="29.22207"/><trkpt lat="65.42612" lon="29.22228"/><trkpt lat="65.42634" lon="29.22253"/><trkpt lat="65.42639" lon="29.22284"/><trkpt lat="65.42641" lon="29.22321"/><trkpt lat="65.42637" lon="29.2234"/><trkpt lat="65.42628" lon="29.22363"/><trkpt lat="65.42628" lon="29.22363"/><trkpt lat="65.42606" lon="29.22421"/><trkpt lat="65.42585" lon="29.22448"/><trkpt lat="65.42568" lon="29.22484"/><trkpt lat="65.42552" lon="29.225"/><trkpt lat="65.42547" lon="29.22563"/><trkpt lat="65.4254" lon="29.22581"/><trkpt lat="65.42528" lon="29.22595"/><trkpt lat="65.42505" lon="29.22607"/><trkpt lat="65.42502" lon="29.22623"/><trkpt lat="65.42499" lon="29.22643"/><trkpt lat="65.42498286147229" lon="29.226544216443237"/></trkseg></trk></gpx>