<?xml version="1.0"?>
<gpx xmlns="http://www.topografix.com/GPX/1/1" xmlns:gpxx="http://www.garmin.com/xmlschemas/GpxExtensions/v3" creator="CALTOPO" version="1.1"><metadata><name><![CDATA[kokalmus-ala-olkky]]></name></metadata><trk><name>kokalmus-ala-olkky</name><trkseg><trkpt lat="65.45420767194324" lon="29.342765808105472"/><trkpt lat="65.45420164434043" lon="29.34275052726762"/><trkpt lat="65.45425" lon="29.34264"/><trkpt lat="65.45433" lon="29.34257"/><trkpt lat="65.45439" lon="29.34237"/><trkpt lat="65.45446" lon="29.34182"/><trkpt lat="65.45456" lon="29.34142"/><trkpt lat="65.45478" lon="29.34072"/><trkpt lat="65.45488" lon="29.34027"/><trkpt lat="65.45505" lon="29.33985"/><trkpt lat="65.45514" lon="29.3394"/><trkpt lat="65.45521" lon="29.3392"/><trkpt lat="65.45539" lon="29.33796"/><trkpt lat="65.4554" lon="29.3377"/><trkpt lat="65.45537" lon="29.33738"/><trkpt lat="65.45539" lon="29.3373"/><trkpt lat="65.45543" lon="29.33723"/><trkpt lat="65.45553" lon="29.33714"/><trkpt lat="65.45562" lon="29.3371"/><trkpt lat="65.45575" lon="29.33716"/><trkpt lat="65.45577" lon="29.33716"/><trkpt lat="65.45585" lon="29.33718"/><trkpt lat="65.45585" lon="29.33718"/><trkpt lat="65.45599" lon="29.3372"/><trkpt lat="65.45608" lon="29.33712"/><trkpt lat="65.45615" lon="29.33711"/><trkpt lat="65.45622" lon="29.33719"/><trkpt lat="65.45647" lon="29.33761"/><trkpt lat="65.45647" lon="29.33761"/><trkpt lat="65.45683" lon="29.33859"/><trkpt lat="65.4569" lon="29.33887"/><trkpt lat="65.45691" lon="29.33967"/><trkpt lat="65.45699" lon="29.3401"/><trkpt lat="65.45709" lon="29.34026"/><trkpt lat="65.45728" lon="29.34049"/><trkpt lat="65.45742" lon="29.34062"/><trkpt lat="65.45753" lon="29.34076"/><trkpt lat="65.45766" lon="29.34081"/><trkpt lat="65.45766" lon="29.34081"/><trkpt lat="65.45778" lon="29.34092"/><trkpt lat="65.45826" lon="29.34195"/><trkpt lat="65.45826" lon="29.34195"/><trkpt lat="65.45839" lon="29.34217"/><trkpt lat="65.45839" lon="29.34217"/><trkpt lat="65.45842" lon="29.34235"/><trkpt lat="65.45842" lon="29.34235"/><trkpt lat="65.45844" lon="29.3426"/><trkpt lat="65.45862" lon="29.34305"/><trkpt lat="65.45862" lon="29.34305"/><trkpt lat="65.45896" lon="29.34366"/><trkpt lat="65.45906" lon="29.344"/><trkpt lat="65.4592" lon="29.34421"/><trkpt lat="65.45935" lon="29.34451"/><trkpt lat="65.45954" lon="29.34523"/><trkpt lat="65.45979" lon="29.34585"/><trkpt lat="65.45986" lon="29.34616"/><trkpt lat="65.46006" lon="29.34663"/><trkpt lat="65.46024" lon="29.34688"/><trkpt lat="65.46029" lon="29.34712"/><trkpt lat="65.46035" lon="29.34756"/><trkpt lat="65.46037" lon="29.34784"/><trkpt lat="65.46043" lon="29.34807"/><trkpt lat="65.46064" lon="29.34824"/><trkpt lat="65.46069" lon="29.34813"/><trkpt lat="65.46092" lon="29.34713"/><trkpt lat="65.46092" lon="29.34681"/><trkpt lat="65.46096" lon="29.34669"/><trkpt lat="65.4612" lon="29.34659"/><trkpt lat="65.46135" lon="29.34662"/><trkpt lat="65.46144" lon="29.34681"/><trkpt lat="65.46154" lon="29.34694"/><trkpt lat="65.46174" lon="29.34711"/><trkpt lat="65.46178" lon="29.34726"/><trkpt lat="65.46179" lon="29.34744"/><trkpt lat="65.46177" lon="29.34765"/><trkpt lat="65.46164" lon="29.34869"/><trkpt lat="65.46165" lon="29.34904"/><trkpt lat="65.46169" lon="29.34935"/><trkpt lat="65.46166" lon="29.3497"/><trkpt lat="65.46159" lon="29.35007"/><trkpt lat="65.46157" lon="29.35041"/><trkpt lat="65.46163" lon="29.35076"/><trkpt lat="65.46172" lon="29.35104"/><trkpt lat="65.46185" lon="29.35115"/><trkpt lat="65.46265" lon="29.35107"/><trkpt lat="65.46305" lon="29.35128"/><trkpt lat="65.46315" lon="29.3514"/><trkpt lat="65.46346" lon="29.35203"/><trkpt lat="65.46351" lon="29.35228"/><trkpt lat="65.46369" lon="29.35298"/><trkpt lat="65.46372" lon="29.353"/><trkpt lat="65.46372" lon="29.353"/><trkpt lat="65.46383" lon="29.35284"/><trkpt lat="65.46413" lon="29.35234"/><trkpt lat="65.46423" lon="29.35229"/><trkpt lat="65.46434" lon="29.35237"/><trkpt lat="65.4647" lon="29.35237"/><trkpt lat="65.46484" lon="29.35226"/><trkpt lat="65.46513" lon="29.35185"/><trkpt lat="65.46538" lon="29.35177"/><trkpt lat="65.4655" lon="29.35185"/><trkpt lat="65.46568" lon="29.35209"/><trkpt lat="65.46585" lon="29.35213"/><trkpt lat="65.46607" lon="29.35207"/><trkpt lat="65.46619" lon="29.35213"/><trkpt lat="65.4664" lon="29.35215"/><trkpt lat="65.46661" lon="29.35223"/><trkpt lat="65.46672" lon="29.35239"/><trkpt lat="65.46685" lon="29.3527"/><trkpt lat="65.46703" lon="29.35296"/><trkpt lat="65.46705" lon="29.35354"/><trkpt lat="65.46712" lon="29.35385"/><trkpt lat="65.46729" lon="29.35386"/><trkpt lat="65.46737" lon="29.35368"/><trkpt lat="65.46739" lon="29.35367"/><trkpt lat="65.46739" lon="29.35367"/><trkpt lat="65.46747" lon="29.35363"/><trkpt lat="65.46905" lon="29.35512"/><trkpt lat="65.46945" lon="29.35547"/><trkpt lat="65.46945" lon="29.35547"/><trkpt lat="65.46957" lon="29.35558"/><trkpt lat="65.46983" lon="29.3556"/><trkpt lat="65.47012" lon="29.35577"/><trkpt lat="65.47069" lon="29.3562"/><trkpt lat="65.4709" lon="29.35625"/><trkpt lat="65.47113" lon="29.35619"/><trkpt lat="65.47162" lon="29.35623"/><trkpt lat="65.47197" lon="29.35619"/><trkpt lat="65.47235" lon="29.35661"/><trkpt lat="65.4726" lon="29.35666"/><trkpt lat="65.47275" lon="29.35692"/><trkpt lat="65.47302" lon="29.3571"/><trkpt lat="65.47315" lon="29.3574"/><trkpt lat="65.47357516963902" lon="29.357470861606505"/><trkpt lat="65.47357517008489" lon="29.357470861606505"/><trkpt lat="65.47363" lon="29.35748"/><trkpt lat="65.47542" lon="29.35878"/><trkpt lat="65.4755" lon="29.35908"/><trkpt lat="65.47558" lon="29.35934"/><trkpt lat="65.47576" lon="29.35962"/><trkpt lat="65.476" lon="29.35967"/><trkpt lat="65.47626" lon="29.35987"/><trkpt lat="65.47651" lon="29.35991"/><trkpt lat="65.47651" lon="29.35991"/><trkpt lat="65.47661" lon="29.35993"/><trkpt lat="65.47718" lon="29.35988"/><trkpt lat="65.47732" lon="29.36011"/><trkpt lat="65.47752" lon="29.36025"/><trkpt lat="65.47775" lon="29.3606"/><trkpt lat="65.47798" lon="29.36098"/><trkpt lat="65.47818" lon="29.36112"/><trkpt lat="65.47868" lon="29.36179"/><trkpt lat="65.47886" lon="29.36189"/><trkpt lat="65.47948" lon="29.36265"/><trkpt lat="65.47977" lon="29.36261"/><trkpt lat="65.4804" lon="29.36203"/><trkpt lat="65.48074" lon="29.36211"/><trkpt lat="65.48117" lon="29.36186"/><trkpt lat="65.48169" lon="29.36187"/><trkpt lat="65.48211" lon="29.36166"/><trkpt lat="65.4825" lon="29.36152"/><trkpt lat="65.48258" lon="29.36174"/><trkpt lat="65.48272" lon="29.36182"/><trkpt lat="65.48299" lon="29.36191"/><trkpt lat="65.48313" lon="29.36192"/><trkpt lat="65.48331" lon="29.36161"/><trkpt lat="65.48349" lon="29.36108"/><trkpt lat="65.48357" lon="29.36063"/><trkpt lat="65.48376" lon="29.36044"/><trkpt lat="65.48401" lon="29.35977"/><trkpt lat="65.48403" lon="29.35944"/><trkpt lat="65.48429" lon="29.35782"/><trkpt lat="65.48448" lon="29.35705"/><trkpt lat="65.48456" lon="29.35687"/><trkpt lat="65.48464" lon="29.35662"/><trkpt lat="65.48484" lon="29.35628"/><trkpt lat="65.48488" lon="29.35615"/><trkpt lat="65.48507" lon="29.35587"/><trkpt lat="65.48521" lon="29.35547"/><trkpt lat="65.48521" lon="29.35547"/><trkpt lat="65.48546" lon="29.35496"/><trkpt lat="65.48563" lon="29.35439"/><trkpt lat="65.48563" lon="29.35439"/><trkpt lat="65.48572" lon="29.35393"/><trkpt lat="65.48582" lon="29.3537"/><trkpt lat="65.48584" lon="29.35347"/><trkpt lat="65.48584" lon="29.35324"/><trkpt lat="65.4859" lon="29.35304"/><trkpt lat="65.48582" lon="29.35254"/><trkpt lat="65.4859" lon="29.35216"/><trkpt lat="65.48601" lon="29.35155"/><trkpt lat="65.48609" lon="29.35143"/><trkpt lat="65.48632" lon="29.35134"/><trkpt lat="65.48645" lon="29.35125"/><trkpt lat="65.4868" lon="29.35113"/><trkpt lat="65.4869" lon="29.35064"/><trkpt lat="65.48704" lon="29.35037"/><trkpt lat="65.48709" lon="29.35022"/><trkpt lat="65.48711" lon="29.34973"/><trkpt lat="65.48721" lon="29.34946"/><trkpt lat="65.48732" lon="29.34857"/><trkpt lat="65.48742" lon="29.34822"/><trkpt lat="65.48745" lon="29.34786"/><trkpt lat="65.4876" lon="29.34749"/><trkpt lat="65.488" lon="29.3473"/><trkpt lat="65.48846" lon="29.34747"/><trkpt lat="65.48871" lon="29.34753"/><trkpt lat="65.48883" lon="29.34745"/><trkpt lat="65.48904" lon="29.34706"/><trkpt lat="65.48919" lon="29.34695"/><trkpt lat="65.48928" lon="29.34682"/><trkpt lat="65.48939" lon="29.34628"/><trkpt lat="65.48949" lon="29.34616"/><trkpt lat="65.48964" lon="29.34603"/><trkpt lat="65.48977" lon="29.34586"/><trkpt lat="65.48986" lon="29.34586"/><trkpt lat="65.48996" lon="29.34595"/><trkpt lat="65.49008" lon="29.34614"/><trkpt lat="65.49013" lon="29.34633"/><trkpt lat="65.49016" lon="29.34668"/><trkpt lat="65.49015" lon="29.34702"/><trkpt lat="65.49015" lon="29.34747"/><trkpt lat="65.49019" lon="29.34773"/><trkpt lat="65.49029" lon="29.34805"/><trkpt lat="65.49039" lon="29.34814"/><trkpt lat="65.49039" lon="29.34814"/><trkpt lat="65.49061" lon="29.34845"/><trkpt lat="65.49063" lon="29.34862"/><trkpt lat="65.49061" lon="29.34883"/><trkpt lat="65.4907" lon="29.34905"/><trkpt lat="65.49071" lon="29.34917"/><trkpt lat="65.49069" lon="29.34938"/><trkpt lat="65.4907" lon="29.34948"/><trkpt lat="65.49081" lon="29.34979"/><trkpt lat="65.49093" lon="29.35"/><trkpt lat="65.49096" lon="29.35018"/><trkpt lat="65.49102" lon="29.35041"/><trkpt lat="65.49107" lon="29.35052"/><trkpt lat="65.49131" lon="29.35048"/><trkpt lat="65.49145" lon="29.35021"/><trkpt lat="65.49165" lon="29.34998"/><trkpt lat="65.49197" lon="29.34971"/><trkpt lat="65.49203" lon="29.34953"/><trkpt lat="65.49221" lon="29.34942"/><trkpt lat="65.49243" lon="29.34951"/><trkpt lat="65.49268" lon="29.34933"/><trkpt lat="65.49293" lon="29.34881"/><trkpt lat="65.49297" lon="29.34857"/><trkpt lat="65.49299" lon="29.34782"/><trkpt lat="65.49308" lon="29.34705"/><trkpt lat="65.49328" lon="29.3466"/><trkpt lat="65.49354" lon="29.34623"/><trkpt lat="65.49375" lon="29.34585"/><trkpt lat="65.49377" lon="29.3454"/><trkpt lat="65.49394" lon="29.3445"/><trkpt lat="65.49394" lon="29.34411"/><trkpt lat="65.49397" lon="29.34395"/><trkpt lat="65.49397" lon="29.34395"/><trkpt lat="65.49408" lon="29.34359"/><trkpt lat="65.49427" lon="29.34343"/><trkpt lat="65.49448" lon="29.34294"/><trkpt lat="65.49466" lon="29.34271"/><trkpt lat="65.49474" lon="29.34244"/><trkpt lat="65.49474" lon="29.34244"/><trkpt lat="65.4948" lon="29.34223"/><trkpt lat="65.49493" lon="29.34221"/><trkpt lat="65.49509" lon="29.34225"/><trkpt lat="65.4952" lon="29.3425"/><trkpt lat="65.49522" lon="29.34292"/><trkpt lat="65.49518" lon="29.3433"/><trkpt lat="65.49523" lon="29.3435"/><trkpt lat="65.49539" lon="29.34379"/><trkpt lat="65.49558" lon="29.34401"/><trkpt lat="65.4957" lon="29.34425"/><trkpt lat="65.49576" lon="29.34453"/><trkpt lat="65.49605" lon="29.34434"/><trkpt lat="65.49611" lon="29.34412"/><trkpt lat="65.49606" lon="29.34386"/><trkpt lat="65.49586" lon="29.34332"/><trkpt lat="65.49584" lon="29.34266"/><trkpt lat="65.49594" lon="29.34244"/><trkpt lat="65.49612" lon="29.34245"/><trkpt lat="65.4962" lon="29.34239"/><trkpt lat="65.49638" lon="29.34217"/><trkpt lat="65.49664" lon="29.34214"/><trkpt lat="65.49684" lon="29.34199"/><trkpt lat="65.49707" lon="29.34191"/><trkpt lat="65.49717" lon="29.3418"/><trkpt lat="65.4974" lon="29.34169"/><trkpt lat="65.49752" lon="29.34168"/><trkpt lat="65.49774" lon="29.34186"/><trkpt lat="65.49782" lon="29.34188"/><trkpt lat="65.498" lon="29.342"/><trkpt lat="65.49811" lon="29.34188"/><trkpt lat="65.49824" lon="29.34132"/><trkpt lat="65.49834" lon="29.34121"/><trkpt lat="65.49856" lon="29.34113"/><trkpt lat="65.49884" lon="29.34137"/><trkpt lat="65.49922" lon="29.34165"/><trkpt lat="65.49928" lon="29.3418"/><trkpt lat="65.49954" lon="29.34217"/><trkpt lat="65.49961" lon="29.34236"/><trkpt lat="65.49964218358832" lon="29.34237135891352"/><trkpt lat="65.49964218367325" lon="29.342371358913525"/><trkpt lat="65.49978" lon="29.34242"/><trkpt lat="65.49988" lon="29.34281"/><trkpt lat="65.49997" lon="29.34307"/><trkpt lat="65.49999" lon="29.34341"/><trkpt lat="65.50003" lon="29.34359"/><trkpt lat="65.50011" lon="29.34368"/><trkpt lat="65.50021" lon="29.34363"/><trkpt lat="65.50041" lon="29.34331"/><trkpt lat="65.50049" lon="29.34329"/><trkpt lat="65.50069" lon="29.34332"/><trkpt lat="65.50084" lon="29.34315"/><trkpt lat="65.50098" lon="29.34311"/><trkpt lat="65.50106" lon="29.34298"/><trkpt lat="65.50144" lon="29.34286"/><trkpt lat="65.50147" lon="29.34245"/><trkpt lat="65.50166" lon="29.34179"/><trkpt lat="65.50177" lon="29.34162"/><trkpt lat="65.50211" lon="29.34095"/><trkpt lat="65.5022" lon="29.34073"/><trkpt lat="65.50259" lon="29.34053"/><trkpt lat="65.50278" lon="29.34034"/><trkpt lat="65.50283" lon="29.34036"/><trkpt lat="65.50304" lon="29.34071"/><trkpt lat="65.5032" lon="29.34082"/><trkpt lat="65.50332" lon="29.34104"/><trkpt lat="65.50337" lon="29.34129"/><trkpt lat="65.50347" lon="29.34165"/><trkpt lat="65.50362" lon="29.34206"/><trkpt lat="65.50375" lon="29.34224"/><trkpt lat="65.50385" lon="29.34246"/><trkpt lat="65.50385" lon="29.34246"/><trkpt lat="65.50396" lon="29.34273"/><trkpt lat="65.50408" lon="29.34292"/><trkpt lat="65.50414" lon="29.34311"/><trkpt lat="65.50424" lon="29.34328"/><trkpt lat="65.50443" lon="29.34339"/><trkpt lat="65.50454" lon="29.34353"/><trkpt lat="65.50476" lon="29.34372"/><trkpt lat="65.50476" lon="29.34372"/><trkpt lat="65.50507" lon="29.34269"/><trkpt lat="65.50526" lon="29.34175"/><trkpt lat="65.5053130368694" lon="29.341594969151032"/><trkpt lat="65.50531303694757" lon="29.341594969151036"/><trkpt lat="65.50539" lon="29.34137"/><trkpt lat="65.50545" lon="29.34092"/><trkpt lat="65.50561" lon="29.34036"/><trkpt lat="65.50563" lon="29.34005"/><trkpt lat="65.5057" lon="29.33966"/><trkpt lat="65.50581" lon="29.33941"/><trkpt lat="65.50587" lon="29.33914"/><trkpt lat="65.50596" lon="29.33887"/><trkpt lat="65.50597" lon="29.33817"/><trkpt lat="65.50601" lon="29.33787"/><trkpt lat="65.50603" lon="29.33755"/><trkpt lat="65.50613" lon="29.33688"/><trkpt lat="65.50621" lon="29.33663"/><trkpt lat="65.50619" lon="29.336"/><trkpt lat="65.50622" lon="29.33546"/><trkpt lat="65.50615" lon="29.33505"/><trkpt lat="65.50615" lon="29.3347"/><trkpt lat="65.50618" lon="29.33416"/><trkpt lat="65.50612" lon="29.3335"/><trkpt lat="65.50612" lon="29.3335"/><trkpt lat="65.50611" lon="29.33332"/><trkpt lat="65.50613" lon="29.33299"/><trkpt lat="65.5061" lon="29.33257"/><trkpt lat="65.50613" lon="29.33214"/><trkpt lat="65.50603" lon="29.33136"/><trkpt lat="65.50606" lon="29.33104"/><trkpt lat="65.50616" lon="29.33066"/><trkpt lat="65.50635" lon="29.33029"/><trkpt lat="65.50647" lon="29.32939"/><trkpt lat="65.50654" lon="29.32924"/><trkpt lat="65.5066" lon="29.32892"/><trkpt lat="65.50662" lon="29.32791"/><trkpt lat="65.50659" lon="29.32766"/><trkpt lat="65.50662" lon="29.32696"/><trkpt lat="65.5067" lon="29.32658"/><trkpt lat="65.50671" lon="29.32634"/><trkpt lat="65.50679" lon="29.32606"/><trkpt lat="65.50716" lon="29.32484"/><trkpt lat="65.50716" lon="29.32484"/><trkpt lat="65.50723" lon="29.32458"/><trkpt lat="65.50726682665724" lon="29.32413347678092"/><trkpt lat="65.50727004258582" lon="29.324094483647038"/><trkpt lat="65.50727120106585" lon="29.32408043707665"/><trkpt lat="65.50727268756776" lon="29.32406241324086"/><trkpt lat="65.50731" lon="29.32361"/><trkpt lat="65.50744" lon="29.32337"/><trkpt lat="65.50761" lon="29.323"/><trkpt lat="65.50774" lon="29.32288"/><trkpt lat="65.50825" lon="29.32212"/><trkpt lat="65.50833" lon="29.3219"/><trkpt lat="65.50852" lon="29.32132"/><trkpt lat="65.50857" lon="29.32091"/><trkpt lat="65.50865" lon="29.32057"/><trkpt lat="65.50894" lon="29.32019"/><trkpt lat="65.50914" lon="29.31974"/><trkpt lat="65.50923" lon="29.31963"/><trkpt lat="65.50923" lon="29.31963"/><trkpt lat="65.50941" lon="29.31925"/><trkpt lat="65.5095" lon="29.3192"/><trkpt lat="65.50965" lon="29.31899"/><trkpt lat="65.50971" lon="29.31878"/><trkpt lat="65.50977" lon="29.3187"/><trkpt lat="65.50993" lon="29.3186"/><trkpt lat="65.51003" lon="29.31844"/><trkpt lat="65.51016" lon="29.31812"/><trkpt lat="65.51029" lon="29.31794"/><trkpt lat="65.51043" lon="29.31766"/><trkpt lat="65.51056" lon="29.3171"/><trkpt lat="65.51063" lon="29.31667"/><trkpt lat="65.51067" lon="29.31597"/><trkpt lat="65.51078" lon="29.31557"/><trkpt lat="65.51084" lon="29.31521"/><trkpt lat="65.5109" lon="29.31473"/><trkpt lat="65.51088" lon="29.31442"/><trkpt lat="65.51079" lon="29.31388"/><trkpt lat="65.5108" lon="29.31284"/><trkpt lat="65.51075" lon="29.31213"/><trkpt lat="65.51068" lon="29.31177"/><trkpt lat="65.51068" lon="29.31152"/><trkpt lat="65.51068" lon="29.31152"/><trkpt lat="65.51067" lon="29.31122"/><trkpt lat="65.5107" lon="29.3109"/><trkpt lat="65.51093" lon="29.30964"/><trkpt lat="65.51099" lon="29.30956"/><trkpt lat="65.51099" lon="29.30956"/><trkpt lat="65.51106" lon="29.30939"/><trkpt lat="65.51106" lon="29.30939"/><trkpt lat="65.51116" lon="29.30876"/><trkpt lat="65.51116" lon="29.30876"/><trkpt lat="65.51119" lon="29.3083"/><trkpt lat="65.51127" lon="29.30819"/><trkpt lat="65.51127" lon="29.30819"/><trkpt lat="65.51145" lon="29.30844"/><trkpt lat="65.51159" lon="29.30849"/><trkpt lat="65.51164" lon="29.30858"/><trkpt lat="65.51164" lon="29.30858"/><trkpt lat="65.51183" lon="29.30972"/><trkpt lat="65.51189" lon="29.30988"/><trkpt lat="65.51196" lon="29.30987"/><trkpt lat="65.51196" lon="29.30987"/><trkpt lat="65.51212" lon="29.30969"/><trkpt lat="65.51221" lon="29.30943"/><trkpt lat="65.51221" lon="29.30943"/><trkpt lat="65.51228" lon="29.30938"/><trkpt lat="65.51234" lon="29.30927"/><trkpt lat="65.51245" lon="29.30889"/><trkpt lat="65.51248148563985" lon="29.308800041029"/><trkpt lat="65.51248148570531" lon="29.308800041029"/><trkpt lat="65.51259" lon="29.30849"/><trkpt lat="65.51293" lon="29.30764"/><trkpt lat="65.51296" lon="29.30761"/><trkpt lat="65.51296" lon="29.30761"/><trkpt lat="65.51302" lon="29.30754"/><trkpt lat="65.51312" lon="29.30763"/><trkpt lat="65.51312" lon="29.30763"/><trkpt lat="65.51348" lon="29.30791"/><trkpt lat="65.51361" lon="29.30806"/><trkpt lat="65.51361" lon="29.30806"/><trkpt lat="65.51371" lon="29.30816"/><trkpt lat="65.51371" lon="29.30816"/><trkpt lat="65.51381" lon="29.30823"/><trkpt lat="65.51385" lon="29.30821"/><trkpt lat="65.51393" lon="29.30798"/><trkpt lat="65.51393" lon="29.30798"/><trkpt lat="65.51397" lon="29.30758"/><trkpt lat="65.51402" lon="29.30734"/><trkpt lat="65.51402" lon="29.30734"/><trkpt lat="65.51402" lon="29.3071"/><trkpt lat="65.51394" lon="29.3067"/><trkpt lat="65.51393" lon="29.30641"/><trkpt lat="65.51387" lon="29.30543"/><trkpt lat="65.51388" lon="29.30513"/><trkpt lat="65.51382" lon="29.30464"/><trkpt lat="65.51387" lon="29.30437"/><trkpt lat="65.51387" lon="29.30407"/><trkpt lat="65.51393" lon="29.30363"/><trkpt lat="65.51393" lon="29.30363"/><trkpt lat="65.51433" lon="29.30243"/><trkpt lat="65.51433" lon="29.30243"/><trkpt lat="65.51393" lon="29.30363"/><trkpt lat="65.51393" lon="29.30363"/><trkpt lat="65.51387" lon="29.30407"/><trkpt lat="65.51387" lon="29.30437"/><trkpt lat="65.51382" lon="29.30464"/><trkpt lat="65.51388" lon="29.30513"/><trkpt lat="65.51387" lon="29.30543"/><trkpt lat="65.51393" lon="29.30641"/><trkpt lat="65.51394" lon="29.3067"/><trkpt lat="65.51402" lon="29.3071"/><trkpt lat="65.51402" lon="29.30734"/><trkpt lat="65.51402" lon="29.30734"/><trkpt lat="65.51397" lon="29.30758"/><trkpt lat="65.51393" lon="29.30798"/><trkpt lat="65.51393" lon="29.30798"/><trkpt lat="65.51385" lon="29.30821"/><trkpt lat="65.51381" lon="29.30823"/><trkpt lat="65.51371" lon="29.30816"/><trkpt lat="65.51371" lon="29.30816"/><trkpt lat="65.51361" lon="29.30806"/><trkpt lat="65.51361" lon="29.30806"/><trkpt lat="65.51348" lon="29.30791"/><trkpt lat="65.51312" lon="29.30763"/><trkpt lat="65.51312" lon="29.30763"/><trkpt lat="65.51306" lon="29.30798"/><trkpt lat="65.51307" lon="29.30816"/><trkpt lat="65.51314" lon="29.30854"/><trkpt lat="65.51314" lon="29.3088"/><trkpt lat="65.5131" lon="29.30899"/><trkpt lat="65.51298" lon="29.30918"/><trkpt lat="65.51296" lon="29.30927"/><trkpt lat="65.51296" lon="29.30927"/><trkpt lat="65.51292" lon="29.30954"/><trkpt lat="65.51278" lon="29.30997"/><trkpt lat="65.51276" lon="29.31061"/><trkpt lat="65.51271" lon="29.31088"/><trkpt lat="65.51272" lon="29.31111"/><trkpt lat="65.51279" lon="29.31152"/><trkpt lat="65.51279" lon="29.31152"/><trkpt lat="65.5128" lon="29.31159"/><trkpt lat="65.51286" lon="29.31172"/><trkpt lat="65.51286" lon="29.31172"/><trkpt lat="65.51296" lon="29.3118"/><trkpt lat="65.51296" lon="29.3118"/><trkpt lat="65.51307" lon="29.31184"/><trkpt lat="65.51315" lon="29.3119"/><trkpt lat="65.51319" lon="29.31196"/><trkpt lat="65.51319" lon="29.31196"/><trkpt lat="65.51331" lon="29.31214"/><trkpt lat="65.51342" lon="29.31223"/><trkpt lat="65.51356" lon="29.31244"/><trkpt lat="65.51358" lon="29.31257"/><trkpt lat="65.51363" lon="29.31271"/><trkpt lat="65.51379" lon="29.31285"/><trkpt lat="65.51395" lon="29.31291"/><trkpt lat="65.51407" lon="29.31324"/><trkpt lat="65.51411" lon="29.31333"/><trkpt lat="65.51439" lon="29.31338"/><trkpt lat="65.51454" lon="29.31333"/><trkpt lat="65.51532" lon="29.31372"/><trkpt lat="65.51545" lon="29.31361"/><trkpt lat="65.51559" lon="29.31334"/><trkpt lat="65.51577" lon="29.31323"/><trkpt lat="65.51588" lon="29.31333"/><trkpt lat="65.51605" lon="29.31337"/><trkpt lat="65.51643" lon="29.31392"/><trkpt lat="65.51653" lon="29.31398"/><trkpt lat="65.51665" lon="29.31417"/><trkpt lat="65.51678" lon="29.31446"/><trkpt lat="65.51694" lon="29.31486"/><trkpt lat="65.5173" lon="29.3152"/><trkpt lat="65.51748" lon="29.31553"/><trkpt lat="65.51763" lon="29.31609"/><trkpt lat="65.5178" lon="29.31629"/><trkpt lat="65.51812" lon="29.31694"/><trkpt lat="65.51823" lon="29.31743"/><trkpt lat="65.51827" lon="29.31785"/><trkpt lat="65.51831" lon="29.31799"/><trkpt lat="65.51842" lon="29.31822"/><trkpt lat="65.51894" lon="29.3188"/><trkpt lat="65.51907" lon="29.31899"/><trkpt lat="65.51925" lon="29.31915"/><trkpt lat="65.51946" lon="29.31914"/><trkpt lat="65.51954" lon="29.31907"/><trkpt lat="65.51963" lon="29.31889"/><trkpt lat="65.51977" lon="29.31884"/><trkpt lat="65.51984" lon="29.31876"/><trkpt lat="65.51991" lon="29.31856"/><trkpt lat="65.52002" lon="29.31837"/><trkpt lat="65.52014" lon="29.31836"/><trkpt lat="65.52015879474865" lon="29.318375035798923"/></trkseg></trk></gpx>