<?xml version="1.0"?>
<gpx xmlns="http://www.topografix.com/GPX/1/1" xmlns:gpxx="http://www.garmin.com/xmlschemas/GpxExtensions/v3" creator="CALTOPO" version="1.1"><metadata><name><![CDATA[lavajarvi-kokalmus]]></name></metadata><trk><name>lavajarvi-kokalmus</name><trkseg><trkpt lat="65.42493794569396" lon="29.2267119884491"/><trkpt lat="65.42498615272365" lon="29.22752709250476"/><trkpt lat="65.42501" lon="29.22801"/><trkpt lat="65.42523" lon="29.22877"/><trkpt lat="65.42544" lon="29.2293"/><trkpt lat="65.42549" lon="29.22938"/><trkpt lat="65.4258" lon="29.22968"/><trkpt lat="65.42619" lon="29.2298"/><trkpt lat="65.42657" lon="29.23027"/><trkpt lat="65.42681" lon="29.23083"/><trkpt lat="65.42684965115579" lon="29.230960615572005"/><trkpt lat="65.42684965115579" lon="29.230960615572005"/><trkpt lat="65.42698" lon="29.23139"/><trkpt lat="65.42727" lon="29.23189"/><trkpt lat="65.42735" lon="29.23211"/><trkpt lat="65.42746" lon="29.23262"/><trkpt lat="65.42774" lon="29.23303"/><trkpt lat="65.42805" lon="29.23333"/><trkpt lat="65.42812" lon="29.23346"/><trkpt lat="65.42837" lon="29.23342"/><trkpt lat="65.42845" lon="29.23335"/><trkpt lat="65.42867" lon="29.23347"/><trkpt lat="65.42872" lon="29.23342"/><trkpt lat="65.42883" lon="29.23338"/><trkpt lat="65.42909" lon="29.2334"/><trkpt lat="65.42937" lon="29.23349"/><trkpt lat="65.4296" lon="29.23329"/><trkpt lat="65.42968" lon="29.2332"/><trkpt lat="65.42991" lon="29.23309"/><trkpt lat="65.42991" lon="29.23309"/><trkpt lat="65.42998" lon="29.2332"/><trkpt lat="65.43002" lon="29.23329"/><trkpt lat="65.43005" lon="29.23353"/><trkpt lat="65.43008" lon="29.23366"/><trkpt lat="65.43022" lon="29.23383"/><trkpt lat="65.43032" lon="29.234"/><trkpt lat="65.43046" lon="29.23453"/><trkpt lat="65.43053" lon="29.23455"/><trkpt lat="65.43062" lon="29.23448"/><trkpt lat="65.43068" lon="29.2343"/><trkpt lat="65.43087" lon="29.23351"/><trkpt lat="65.43087" lon="29.23351"/><trkpt lat="65.43118" lon="29.23324"/><trkpt lat="65.43134" lon="29.23298"/><trkpt lat="65.43151" lon="29.23287"/><trkpt lat="65.43168" lon="29.23282"/><trkpt lat="65.43183" lon="29.23288"/><trkpt lat="65.43194" lon="29.23301"/><trkpt lat="65.43245" lon="29.23398"/><trkpt lat="65.43258" lon="29.23429"/><trkpt lat="65.43278" lon="29.23487"/><trkpt lat="65.43297" lon="29.2354"/><trkpt lat="65.433" lon="29.23559"/><trkpt lat="65.43301" lon="29.237"/><trkpt lat="65.43291" lon="29.23765"/><trkpt lat="65.43291" lon="29.23783"/><trkpt lat="65.43294" lon="29.23807"/><trkpt lat="65.433" lon="29.23834"/><trkpt lat="65.43308" lon="29.23853"/><trkpt lat="65.4332" lon="29.23869"/><trkpt lat="65.43333" lon="29.23874"/><trkpt lat="65.43344" lon="29.23883"/><trkpt lat="65.43356" lon="29.23908"/><trkpt lat="65.4336" lon="29.23924"/><trkpt lat="65.43361" lon="29.23985"/><trkpt lat="65.43357" lon="29.24042"/><trkpt lat="65.43349" lon="29.24126"/><trkpt lat="65.43351" lon="29.24167"/><trkpt lat="65.43358" lon="29.24213"/><trkpt lat="65.43371" lon="29.24259"/><trkpt lat="65.43375" lon="29.24291"/><trkpt lat="65.43382" lon="29.24319"/><trkpt lat="65.43389" lon="29.24337"/><trkpt lat="65.43417" lon="29.24369"/><trkpt lat="65.43445" lon="29.24389"/><trkpt lat="65.43458" lon="29.24405"/><trkpt lat="65.43472" lon="29.24416"/><trkpt lat="65.43481" lon="29.24414"/><trkpt lat="65.43497" lon="29.24393"/><trkpt lat="65.43522" lon="29.24323"/><trkpt lat="65.43529" lon="29.2431"/><trkpt lat="65.43536" lon="29.24306"/><trkpt lat="65.43547" lon="29.24309"/><trkpt lat="65.43555" lon="29.24322"/><trkpt lat="65.43562" lon="29.24341"/><trkpt lat="65.43566" lon="29.24366"/><trkpt lat="65.43567" lon="29.24393"/><trkpt lat="65.43561" lon="29.24431"/><trkpt lat="65.43561" lon="29.24446"/><trkpt lat="65.43562347025112" lon="29.24455429174616"/><trkpt lat="65.43563" lon="29.2446"/><trkpt lat="65.43567" lon="29.24467"/><trkpt lat="65.43585" lon="29.24463"/><trkpt lat="65.4361" lon="29.2444"/><trkpt lat="65.43641" lon="29.2439"/><trkpt lat="65.4367" lon="29.243"/><trkpt lat="65.4368" lon="29.24277"/><trkpt lat="65.43705" lon="29.24255"/><trkpt lat="65.43718" lon="29.24239"/><trkpt lat="65.43736" lon="29.24193"/><trkpt lat="65.43756" lon="29.24158"/><trkpt lat="65.43769" lon="29.24144"/><trkpt lat="65.43798" lon="29.24122"/><trkpt lat="65.43817" lon="29.2411"/><trkpt lat="65.43831" lon="29.24105"/><trkpt lat="65.43844" lon="29.24107"/><trkpt lat="65.43878" lon="29.24129"/><trkpt lat="65.43891" lon="29.24148"/><trkpt lat="65.43903" lon="29.24176"/><trkpt lat="65.43913" lon="29.24214"/><trkpt lat="65.43926" lon="29.24236"/><trkpt lat="65.43935" lon="29.24235"/><trkpt lat="65.43934511636643" lon="29.24235364805641"/><trkpt lat="65.43936" lon="29.24245"/><trkpt lat="65.43936" lon="29.24245"/><trkpt lat="65.43943" lon="29.24287"/><trkpt lat="65.43943" lon="29.24287"/><trkpt lat="65.43947" lon="29.24318"/><trkpt lat="65.43947" lon="29.24318"/><trkpt lat="65.43901" lon="29.2435"/><trkpt lat="65.43887" lon="29.24372"/><trkpt lat="65.43871" lon="29.24375"/><trkpt lat="65.43848" lon="29.24376"/><trkpt lat="65.43829" lon="29.24384"/><trkpt lat="65.43797" lon="29.24385"/><trkpt lat="65.43782" lon="29.24372"/><trkpt lat="65.43756" lon="29.24379"/><trkpt lat="65.43747" lon="29.24372"/><trkpt lat="65.43739" lon="29.24362"/><trkpt lat="65.43729" lon="29.24365"/><trkpt lat="65.43722" lon="29.2439"/><trkpt lat="65.43711" lon="29.24401"/><trkpt lat="65.43691" lon="29.24396"/><trkpt lat="65.43672" lon="29.24422"/><trkpt lat="65.4366" lon="29.24449"/><trkpt lat="65.43622" lon="29.245"/><trkpt lat="65.43612" lon="29.24536"/><trkpt lat="65.43611" lon="29.24561"/><trkpt lat="65.43611" lon="29.24561"/><trkpt lat="65.4361" lon="29.24584"/><trkpt lat="65.43606" lon="29.24617"/><trkpt lat="65.43597" lon="29.24653"/><trkpt lat="65.43575" lon="29.24688"/><trkpt lat="65.43547" lon="29.247"/><trkpt lat="65.43525" lon="29.24731"/><trkpt lat="65.43513" lon="29.2476"/><trkpt lat="65.43508" lon="29.24801"/><trkpt lat="65.43489" lon="29.24855"/><trkpt lat="65.43478" lon="29.24914"/><trkpt lat="65.43474" lon="29.24954"/><trkpt lat="65.43474" lon="29.24982"/><trkpt lat="65.43476" lon="29.25026"/><trkpt lat="65.43467" lon="29.25075"/><trkpt lat="65.43465" lon="29.25113"/><trkpt lat="65.43459" lon="29.25143"/><trkpt lat="65.43438" lon="29.25189"/><trkpt lat="65.43432" lon="29.25219"/><trkpt lat="65.43433" lon="29.25282"/><trkpt lat="65.43429" lon="29.25318"/><trkpt lat="65.43417" lon="29.25337"/><trkpt lat="65.43406" lon="29.25389"/><trkpt lat="65.43405" lon="29.25429"/><trkpt lat="65.434" lon="29.25507"/><trkpt lat="65.43392" lon="29.25552"/><trkpt lat="65.43382" lon="29.25566"/><trkpt lat="65.43368" lon="29.25596"/><trkpt lat="65.43327" lon="29.2565"/><trkpt lat="65.43315" lon="29.25651"/><trkpt lat="65.43308" lon="29.25636"/><trkpt lat="65.43304" lon="29.25608"/><trkpt lat="65.43301" lon="29.25538"/><trkpt lat="65.43305" lon="29.25487"/><trkpt lat="65.43308" lon="29.25429"/><trkpt lat="65.43306" lon="29.25364"/><trkpt lat="65.43314" lon="29.2531"/><trkpt lat="65.43314" lon="29.25283"/><trkpt lat="65.43297" lon="29.25258"/><trkpt lat="65.43296" lon="29.25216"/><trkpt lat="65.43285" lon="29.25186"/><trkpt lat="65.43277" lon="29.25146"/><trkpt lat="65.43264" lon="29.25096"/><trkpt lat="65.4325" lon="29.25056"/><trkpt lat="65.43239" lon="29.25034"/><trkpt lat="65.43212" lon="29.25038"/><trkpt lat="65.43197" lon="29.25017"/><trkpt lat="65.43178" lon="29.25008"/><trkpt lat="65.43158" lon="29.25025"/><trkpt lat="65.4313" lon="29.25029"/><trkpt lat="65.43108" lon="29.25042"/><trkpt lat="65.43096" lon="29.25061"/><trkpt lat="65.43093" lon="29.25084"/><trkpt lat="65.43087" lon="29.25088"/><trkpt lat="65.43087" lon="29.25088"/><trkpt lat="65.43084" lon="29.25089"/><trkpt lat="65.43073" lon="29.2508"/><trkpt lat="65.43066" lon="29.25077"/><trkpt lat="65.43059" lon="29.25067"/><trkpt lat="65.43052" lon="29.25049"/><trkpt lat="65.4305" lon="29.25032"/><trkpt lat="65.43053" lon="29.25009"/><trkpt lat="65.43041" lon="29.2498"/><trkpt lat="65.43038" lon="29.2496"/><trkpt lat="65.43039" lon="29.24941"/><trkpt lat="65.43031" lon="29.24931"/><trkpt lat="65.42942" lon="29.2494"/><trkpt lat="65.42917" lon="29.24959"/><trkpt lat="65.42898" lon="29.24936"/><trkpt lat="65.42891" lon="29.24909"/><trkpt lat="65.42882" lon="29.24897"/><trkpt lat="65.42844" lon="29.24881"/><trkpt lat="65.42816" lon="29.24894"/><trkpt lat="65.428" lon="29.24894"/><trkpt lat="65.42788" lon="29.24904"/><trkpt lat="65.42782" lon="29.24902"/><trkpt lat="65.42759" lon="29.2488"/><trkpt lat="65.42759" lon="29.2488"/><trkpt lat="65.42726" lon="29.24836"/><trkpt lat="65.42687" lon="29.24792"/><trkpt lat="65.42652" lon="29.24742"/><trkpt lat="65.42631" lon="29.24724"/><trkpt lat="65.42614094736065" lon="29.247149576152676"/><trkpt lat="65.42614094736065" lon="29.247149576152676"/><trkpt lat="65.42588" lon="29.24701"/><trkpt lat="65.42571" lon="29.24737"/><trkpt lat="65.42569" lon="29.24776"/><trkpt lat="65.42552" lon="29.24857"/><trkpt lat="65.42537" lon="29.24896"/><trkpt lat="65.4252" lon="29.249"/><trkpt lat="65.42479" lon="29.24916"/><trkpt lat="65.42443" lon="29.24957"/><trkpt lat="65.42426" lon="29.24989"/><trkpt lat="65.42423" lon="29.25047"/><trkpt lat="65.42429" lon="29.25145"/><trkpt lat="65.42411" lon="29.25292"/><trkpt lat="65.42396" lon="29.25369"/><trkpt lat="65.42385" lon="29.25402"/><trkpt lat="65.42383" lon="29.25433"/><trkpt lat="65.4237" lon="29.25467"/><trkpt lat="65.42355" lon="29.25501"/><trkpt lat="65.42341" lon="29.25557"/><trkpt lat="65.42327" lon="29.25586"/><trkpt lat="65.42315" lon="29.25606"/><trkpt lat="65.42308" lon="29.25663"/><trkpt lat="65.42303" lon="29.25731"/><trkpt lat="65.42292" lon="29.25823"/><trkpt lat="65.42282" lon="29.25854"/><trkpt lat="65.42259" lon="29.259"/><trkpt lat="65.42255725349314" lon="29.259050608237864"/><trkpt lat="65.42255725367889" lon="29.259050608237864"/><trkpt lat="65.42226" lon="29.25951"/><trkpt lat="65.42203" lon="29.25962"/><trkpt lat="65.42193" lon="29.25941"/><trkpt lat="65.42193" lon="29.25941"/><trkpt lat="65.4218" lon="29.25918"/><trkpt lat="65.4218" lon="29.25918"/><trkpt lat="65.42173" lon="29.25917"/><trkpt lat="65.42173" lon="29.25917"/><trkpt lat="65.42160174414184" lon="29.259255503905436"/><trkpt lat="65.42160174414184" lon="29.259255503905436"/><trkpt lat="65.42143" lon="29.25937"/><trkpt lat="65.42127" lon="29.25938"/><trkpt lat="65.42117" lon="29.25949"/><trkpt lat="65.42109" lon="29.2595"/><trkpt lat="65.42109" lon="29.2595"/><trkpt lat="65.42109" lon="29.2595"/><trkpt lat="65.42081" lon="29.26163"/><trkpt lat="65.42082" lon="29.26188"/><trkpt lat="65.42072" lon="29.26263"/><trkpt lat="65.42063" lon="29.2631"/><trkpt lat="65.42062" lon="29.26344"/><trkpt lat="65.42054" lon="29.26412"/><trkpt lat="65.42054118144372" lon="29.264156624755287"/><trkpt lat="65.42054118144416" lon="29.264156624755287"/><trkpt lat="65.42056" lon="29.26474"/><trkpt lat="65.42055" lon="29.26604"/><trkpt lat="65.42046" lon="29.2668"/><trkpt lat="65.42043" lon="29.2673"/><trkpt lat="65.4204" lon="29.26758"/><trkpt lat="65.4204" lon="29.26758"/><trkpt lat="65.42037" lon="29.26783"/><trkpt lat="65.42039" lon="29.26831"/><trkpt lat="65.42037" lon="29.26859"/><trkpt lat="65.42029" lon="29.26908"/><trkpt lat="65.42033" lon="29.26982"/><trkpt lat="65.42034" lon="29.2704"/><trkpt lat="65.42042" lon="29.27118"/><trkpt lat="65.4204" lon="29.27238"/><trkpt lat="65.42043" lon="29.27426"/><trkpt lat="65.42036" lon="29.2749"/><trkpt lat="65.42022" lon="29.27549"/><trkpt lat="65.42019" lon="29.27571"/><trkpt lat="65.42018" lon="29.27604"/><trkpt lat="65.42014" lon="29.2765"/><trkpt lat="65.42002" lon="29.27801"/><trkpt lat="65.42002" lon="29.27837"/><trkpt lat="65.42006" lon="29.27888"/><trkpt lat="65.42011" lon="29.27996"/><trkpt lat="65.42006" lon="29.28053"/><trkpt lat="65.42008" lon="29.28087"/><trkpt lat="65.41999" lon="29.28185"/><trkpt lat="65.41994" lon="29.28226"/><trkpt lat="65.41997" lon="29.28256"/><trkpt lat="65.42006" lon="29.28295"/><trkpt lat="65.42007" lon="29.28315"/><trkpt lat="65.42013" lon="29.28364"/><trkpt lat="65.42022" lon="29.28507"/><trkpt lat="65.42037" lon="29.28633"/><trkpt lat="65.42049" lon="29.28762"/><trkpt lat="65.42054" lon="29.28864"/><trkpt lat="65.4206" lon="29.28904"/><trkpt lat="65.42062" lon="29.2892"/><trkpt lat="65.42073" lon="29.28955"/><trkpt lat="65.42073" lon="29.28955"/><trkpt lat="65.42079" lon="29.2898"/><trkpt lat="65.42079" lon="29.28987"/><trkpt lat="65.42087" lon="29.29012"/><trkpt lat="65.42099" lon="29.29067"/><trkpt lat="65.42111" lon="29.29142"/><trkpt lat="65.42103" lon="29.29202"/><trkpt lat="65.42102" lon="29.29256"/><trkpt lat="65.42097" lon="29.29296"/><trkpt lat="65.42084" lon="29.29344"/><trkpt lat="65.42059" lon="29.29402"/><trkpt lat="65.42041" lon="29.29419"/><trkpt lat="65.42038" lon="29.29463"/><trkpt lat="65.42029" lon="29.29527"/><trkpt lat="65.42018" lon="29.29549"/><trkpt lat="65.42006" lon="29.29596"/><trkpt lat="65.41984" lon="29.29615"/><trkpt lat="65.41971" lon="29.29635"/><trkpt lat="65.41958" lon="29.2967"/><trkpt lat="65.41947" lon="29.29684"/><trkpt lat="65.41924" lon="29.29737"/><trkpt lat="65.41922" lon="29.29768"/><trkpt lat="65.41913" lon="29.2981"/><trkpt lat="65.41913" lon="29.29844"/><trkpt lat="65.41911" lon="29.29869"/><trkpt lat="65.41898" lon="29.29944"/><trkpt lat="65.41892" lon="29.29964"/><trkpt lat="65.41893" lon="29.30003"/><trkpt lat="65.4189" lon="29.30024"/><trkpt lat="65.41891" lon="29.30051"/><trkpt lat="65.41895" lon="29.30083"/><trkpt lat="65.41898" lon="29.30121"/><trkpt lat="65.41914" lon="29.30171"/><trkpt lat="65.41916" lon="29.302"/><trkpt lat="65.41916" lon="29.30237"/><trkpt lat="65.41918" lon="29.30264"/><trkpt lat="65.41935" lon="29.3035"/><trkpt lat="65.41941" lon="29.30421"/><trkpt lat="65.4195" lon="29.30456"/><trkpt lat="65.4196" lon="29.30518"/><trkpt lat="65.4196" lon="29.30604"/><trkpt lat="65.41955" lon="29.30636"/><trkpt lat="65.41952" lon="29.30686"/><trkpt lat="65.4194" lon="29.3073"/><trkpt lat="65.41934" lon="29.30742"/><trkpt lat="65.41929" lon="29.30761"/><trkpt lat="65.41915" lon="29.30789"/><trkpt lat="65.41909" lon="29.30807"/><trkpt lat="65.41901" lon="29.30844"/><trkpt lat="65.41895" lon="29.30868"/><trkpt lat="65.41896" lon="29.30885"/><trkpt lat="65.41906" lon="29.30907"/><trkpt lat="65.41917" lon="29.30943"/><trkpt lat="65.41933" lon="29.31029"/><trkpt lat="65.41939" lon="29.31073"/><trkpt lat="65.41939" lon="29.31152"/><trkpt lat="65.41939" lon="29.31152"/><trkpt lat="65.41946" lon="29.31206"/><trkpt lat="65.41947" lon="29.31241"/><trkpt lat="65.41945" lon="29.31267"/><trkpt lat="65.41943" lon="29.31362"/><trkpt lat="65.41943" lon="29.31457"/><trkpt lat="65.41938" lon="29.31488"/><trkpt lat="65.41938" lon="29.31488"/><trkpt lat="65.41938" lon="29.31488"/><trkpt lat="65.41938" lon="29.31488"/><trkpt lat="65.41938" lon="29.31488"/><trkpt lat="65.41929" lon="29.3152"/><trkpt lat="65.41925" lon="29.31545"/><trkpt lat="65.4192" lon="29.31618"/><trkpt lat="65.41923" lon="29.3166"/><trkpt lat="65.41919" lon="29.31701"/><trkpt lat="65.41923" lon="29.31764"/><trkpt lat="65.41934" lon="29.31814"/><trkpt lat="65.41936" lon="29.31848"/><trkpt lat="65.41941" lon="29.31869"/><trkpt lat="65.41952" lon="29.31876"/><trkpt lat="65.41989" lon="29.31834"/><trkpt lat="65.42016" lon="29.31834"/><trkpt lat="65.42038" lon="29.31845"/><trkpt lat="65.42038" lon="29.31845"/><trkpt lat="65.42038" lon="29.31845"/><trkpt lat="65.42057" lon="29.31932"/><trkpt lat="65.42056" lon="29.31956"/><trkpt lat="65.4206" lon="29.32025"/><trkpt lat="65.42067" lon="29.32071"/><trkpt lat="65.42071" lon="29.32131"/><trkpt lat="65.42077" lon="29.32175"/><trkpt lat="65.42078" lon="29.32199"/><trkpt lat="65.42076" lon="29.32248"/><trkpt lat="65.42079" lon="29.32306"/><trkpt lat="65.42073" lon="29.32361"/><trkpt lat="65.42073" lon="29.32413"/><trkpt lat="65.42065" lon="29.32493"/><trkpt lat="65.42049" lon="29.32565"/><trkpt lat="65.42044" lon="29.32657"/><trkpt lat="65.42038" lon="29.32728"/><trkpt lat="65.42036" lon="29.32741"/><trkpt lat="65.42026" lon="29.3277"/><trkpt lat="65.4202" lon="29.32848"/><trkpt lat="65.42015" lon="29.32886"/><trkpt lat="65.4202" lon="29.32923"/><trkpt lat="65.42031" lon="29.32967"/><trkpt lat="65.42033" lon="29.33029"/><trkpt lat="65.4205" lon="29.33209"/><trkpt lat="65.42061" lon="29.3326"/><trkpt lat="65.42057" lon="29.333"/><trkpt lat="65.42067" lon="29.3335"/><trkpt lat="65.42067" lon="29.3335"/><trkpt lat="65.42081" lon="29.33413"/><trkpt lat="65.42082" lon="29.33481"/><trkpt lat="65.42089" lon="29.33564"/><trkpt lat="65.42089" lon="29.33603"/><trkpt lat="65.42094" lon="29.3367"/><trkpt lat="65.421" lon="29.33702"/><trkpt lat="65.42106" lon="29.33729"/><trkpt lat="65.42109" lon="29.33733"/><trkpt lat="65.42127" lon="29.33787"/><trkpt lat="65.42131" lon="29.33838"/><trkpt lat="65.4215" lon="29.33897"/><trkpt lat="65.42151" lon="29.33919"/><trkpt lat="65.42155" lon="29.33953"/><trkpt lat="65.42173" lon="29.33993"/><trkpt lat="65.42173" lon="29.33993"/><trkpt lat="65.42194" lon="29.34026"/><trkpt lat="65.42201" lon="29.3408"/><trkpt lat="65.42211" lon="29.34122"/><trkpt lat="65.42246" lon="29.34165"/><trkpt lat="65.42252" lon="29.34188"/><trkpt lat="65.42265" lon="29.34248"/><trkpt lat="65.42265" lon="29.34296"/><trkpt lat="65.42271" lon="29.34321"/><trkpt lat="65.42286" lon="29.34334"/><trkpt lat="65.423" lon="29.34334"/><trkpt lat="65.42322" lon="29.34326"/><trkpt lat="65.42339" lon="29.34314"/><trkpt lat="65.42345" lon="29.34283"/><trkpt lat="65.42357" lon="29.34262"/><trkpt lat="65.4237" lon="29.34228"/><trkpt lat="65.424" lon="29.34199"/><trkpt lat="65.42405" lon="29.34198"/><trkpt lat="65.42413" lon="29.34206"/><trkpt lat="65.42426" lon="29.3423"/><trkpt lat="65.42437" lon="29.34234"/><trkpt lat="65.42448" lon="29.34217"/><trkpt lat="65.42462" lon="29.34202"/><trkpt lat="65.42471" lon="29.34197"/><trkpt lat="65.42486" lon="29.34205"/><trkpt lat="65.42514" lon="29.34227"/><trkpt lat="65.42533" lon="29.34219"/><trkpt lat="65.4256" lon="29.34222"/><trkpt lat="65.42574" lon="29.34218"/><trkpt lat="65.42581" lon="29.34222"/><trkpt lat="65.42589" lon="29.34242"/><trkpt lat="65.42597" lon="29.34248"/><trkpt lat="65.42606" lon="29.3426"/><trkpt lat="65.42626" lon="29.34276"/><trkpt lat="65.42637" lon="29.34269"/><trkpt lat="65.42644" lon="29.3425"/><trkpt lat="65.42654" lon="29.34217"/><trkpt lat="65.42666" lon="29.34195"/><trkpt lat="65.4268" lon="29.34193"/><trkpt lat="65.42707" lon="29.34229"/><trkpt lat="65.42712" lon="29.34232"/><trkpt lat="65.42719" lon="29.34244"/><trkpt lat="65.42726" lon="29.34244"/><trkpt lat="65.42729" lon="29.34253"/><trkpt lat="65.42787" lon="29.34297"/><trkpt lat="65.42799" lon="29.34338"/><trkpt lat="65.4281" lon="29.34344"/><trkpt lat="65.42825" lon="29.34329"/><trkpt lat="65.42839" lon="29.34298"/><trkpt lat="65.4286" lon="29.34274"/><trkpt lat="65.42877" lon="29.34246"/><trkpt lat="65.42908" lon="29.34181"/><trkpt lat="65.42996" lon="29.34049"/><trkpt lat="65.43038" lon="29.34025"/><trkpt lat="65.43087" lon="29.3403"/><trkpt lat="65.43087" lon="29.3403"/><trkpt lat="65.43108" lon="29.34033"/><trkpt lat="65.43168" lon="29.33994"/><trkpt lat="65.43178" lon="29.33992"/><trkpt lat="65.43199" lon="29.34006"/><trkpt lat="65.43219" lon="29.34014"/><trkpt lat="65.43254" lon="29.33999"/><trkpt lat="65.43275" lon="29.33962"/><trkpt lat="65.43289" lon="29.33933"/><trkpt lat="65.43319" lon="29.33891"/><trkpt lat="65.43324" lon="29.33876"/><trkpt lat="65.43327" lon="29.33857"/><trkpt lat="65.43328" lon="29.33808"/><trkpt lat="65.43338" lon="29.33722"/><trkpt lat="65.4334" lon="29.33672"/><trkpt lat="65.43348" lon="29.3362"/><trkpt lat="65.43349" lon="29.33591"/><trkpt lat="65.43368" lon="29.33517"/><trkpt lat="65.43387" lon="29.33452"/><trkpt lat="65.43391" lon="29.33446"/><trkpt lat="65.43401" lon="29.3344"/><trkpt lat="65.43423" lon="29.33439"/><trkpt lat="65.43451" lon="29.33446"/><trkpt lat="65.43465" lon="29.3346"/><trkpt lat="65.43487" lon="29.33471"/><trkpt lat="65.43495" lon="29.33497"/><trkpt lat="65.43501" lon="29.33564"/><trkpt lat="65.43503" lon="29.33608"/><trkpt lat="65.43515" lon="29.33688"/><trkpt lat="65.43535" lon="29.33741"/><trkpt lat="65.43553" lon="29.33778"/><trkpt lat="65.43586" lon="29.33872"/><trkpt lat="65.43589" lon="29.33895"/><trkpt lat="65.43589" lon="29.33972"/><trkpt lat="65.43586" lon="29.34033"/><trkpt lat="65.43582" lon="29.34085"/><trkpt lat="65.43565" lon="29.34159"/><trkpt lat="65.43568" lon="29.34212"/><trkpt lat="65.43562" lon="29.34233"/><trkpt lat="65.43563" lon="29.34254"/><trkpt lat="65.43573" lon="29.34306"/><trkpt lat="65.43575" lon="29.34331"/><trkpt lat="65.43606" lon="29.34414"/><trkpt lat="65.43636" lon="29.3447"/><trkpt lat="65.43662" lon="29.34537"/><trkpt lat="65.4367" lon="29.34566"/><trkpt lat="65.43676" lon="29.34622"/><trkpt lat="65.43681" lon="29.34747"/><trkpt lat="65.43692" lon="29.34806"/><trkpt lat="65.43693" lon="29.34865"/><trkpt lat="65.43697" lon="29.3493"/><trkpt lat="65.43699" lon="29.34942"/><trkpt lat="65.43715" lon="29.34994"/><trkpt lat="65.43715" lon="29.35014"/><trkpt lat="65.43695" lon="29.35105"/><trkpt lat="65.43686" lon="29.35129"/><trkpt lat="65.4368" lon="29.35164"/><trkpt lat="65.43667" lon="29.35195"/><trkpt lat="65.43666" lon="29.35219"/><trkpt lat="65.43667" lon="29.35264"/><trkpt lat="65.43664" lon="29.35289"/><trkpt lat="65.43655" lon="29.35313"/><trkpt lat="65.4365" lon="29.35338"/><trkpt lat="65.43652" lon="29.35359"/><trkpt lat="65.4366" lon="29.35372"/><trkpt lat="65.43682" lon="29.35379"/><trkpt lat="65.43693" lon="29.35378"/><trkpt lat="65.43703" lon="29.35386"/><trkpt lat="65.43713" lon="29.354"/><trkpt lat="65.43718" lon="29.3542"/><trkpt lat="65.4373" lon="29.35438"/><trkpt lat="65.43735" lon="29.35465"/><trkpt lat="65.43738" lon="29.35502"/><trkpt lat="65.4375" lon="29.35547"/><trkpt lat="65.4375" lon="29.35547"/><trkpt lat="65.43761" lon="29.3559"/><trkpt lat="65.43762" lon="29.35608"/><trkpt lat="65.43758" lon="29.35639"/><trkpt lat="65.43761" lon="29.35662"/><trkpt lat="65.43771" lon="29.35696"/><trkpt lat="65.43788" lon="29.35725"/><trkpt lat="65.43803" lon="29.35742"/><trkpt lat="65.43825" lon="29.35737"/><trkpt lat="65.43852" lon="29.35707"/><trkpt lat="65.43876" lon="29.35701"/><trkpt lat="65.43913" lon="29.35714"/><trkpt lat="65.43932" lon="29.35712"/><trkpt lat="65.43957" lon="29.35696"/><trkpt lat="65.43997" lon="29.35638"/><trkpt lat="65.44" lon="29.35637"/><trkpt lat="65.44" lon="29.35637"/><trkpt lat="65.44027" lon="29.35626"/><trkpt lat="65.44047" lon="29.3561"/><trkpt lat="65.44091" lon="29.35571"/><trkpt lat="65.44109" lon="29.35547"/><trkpt lat="65.44109" lon="29.35547"/><trkpt lat="65.44122" lon="29.35512"/><trkpt lat="65.44197" lon="29.35451"/><trkpt lat="65.44211" lon="29.35455"/><trkpt lat="65.4422" lon="29.35481"/><trkpt lat="65.44255" lon="29.35504"/><trkpt lat="65.44267" lon="29.35506"/><trkpt lat="65.44273" lon="29.35512"/><trkpt lat="65.44278" lon="29.35537"/><trkpt lat="65.44282" lon="29.35547"/><trkpt lat="65.44282" lon="29.35547"/><trkpt lat="65.44299" lon="29.35594"/><trkpt lat="65.44307" lon="29.35627"/><trkpt lat="65.4431" lon="29.35717"/><trkpt lat="65.44321" lon="29.3575"/><trkpt lat="65.44347" lon="29.358"/><trkpt lat="65.44355" lon="29.35834"/><trkpt lat="65.44364" lon="29.35841"/><trkpt lat="65.44374" lon="29.35844"/><trkpt lat="65.44401" lon="29.35842"/><trkpt lat="65.44427" lon="29.35862"/><trkpt lat="65.44432" lon="29.35874"/><trkpt lat="65.44434" lon="29.35904"/><trkpt lat="65.44438" lon="29.35914"/><trkpt lat="65.44485" lon="29.36001"/><trkpt lat="65.44487" lon="29.36022"/><trkpt lat="65.44485" lon="29.36081"/><trkpt lat="65.44493" lon="29.36135"/><trkpt lat="65.44518" lon="29.36188"/><trkpt lat="65.4453" lon="29.36202"/><trkpt lat="65.44545" lon="29.36207"/><trkpt lat="65.44572" lon="29.36223"/><trkpt lat="65.44587" lon="29.36227"/><trkpt lat="65.44611" lon="29.36226"/><trkpt lat="65.44637" lon="29.36192"/><trkpt lat="65.44645" lon="29.3619"/><trkpt lat="65.44664" lon="29.36174"/><trkpt lat="65.44675" lon="29.3617"/><trkpt lat="65.44688" lon="29.36154"/><trkpt lat="65.44693" lon="29.36135"/><trkpt lat="65.44694" lon="29.36109"/><trkpt lat="65.44698" lon="29.36083"/><trkpt lat="65.44704" lon="29.3607"/><trkpt lat="65.44711" lon="29.36027"/><trkpt lat="65.44712" lon="29.36003"/><trkpt lat="65.44709" lon="29.3598"/><trkpt lat="65.44701" lon="29.35944"/><trkpt lat="65.44692" lon="29.35911"/><trkpt lat="65.44694" lon="29.35889"/><trkpt lat="65.44706" lon="29.3585"/><trkpt lat="65.44721" lon="29.35811"/><trkpt lat="65.44749" lon="29.35758"/><trkpt lat="65.4477" lon="29.3573"/><trkpt lat="65.44812" lon="29.35701"/><trkpt lat="65.44839" lon="29.35678"/><trkpt lat="65.44868" lon="29.35668"/><trkpt lat="65.44913" lon="29.35663"/><trkpt lat="65.44913" lon="29.35663"/><trkpt lat="65.44929" lon="29.35661"/><trkpt lat="65.44959" lon="29.35666"/><trkpt lat="65.44985" lon="29.35684"/><trkpt lat="65.45023" lon="29.35714"/><trkpt lat="65.45023" lon="29.35714"/><trkpt lat="65.45035" lon="29.35727"/><trkpt lat="65.45044" lon="29.35779"/><trkpt lat="65.45055" lon="29.35806"/><trkpt lat="65.45069" lon="29.35825"/><trkpt lat="65.45089" lon="29.35881"/><trkpt lat="65.45106" lon="29.35965"/><trkpt lat="65.4512" lon="29.35997"/><trkpt lat="65.45142" lon="29.36018"/><trkpt lat="65.45175" lon="29.36058"/><trkpt lat="65.45215" lon="29.36094"/><trkpt lat="65.45273" lon="29.36109"/><trkpt lat="65.4529" lon="29.3612"/><trkpt lat="65.4529" lon="29.3612"/><trkpt lat="65.45295" lon="29.36153"/><trkpt lat="65.45307" lon="29.36209"/><trkpt lat="65.45319" lon="29.36246"/><trkpt lat="65.45329" lon="29.36297"/><trkpt lat="65.45333" lon="29.36328"/><trkpt lat="65.45333" lon="29.36328"/><trkpt lat="65.45333" lon="29.36347"/><trkpt lat="65.45327" lon="29.36371"/><trkpt lat="65.45328" lon="29.36402"/><trkpt lat="65.45328" lon="29.36402"/><trkpt lat="65.45332" lon="29.36455"/><trkpt lat="65.45332" lon="29.36455"/><trkpt lat="65.45324" lon="29.36536"/><trkpt lat="65.45326" lon="29.36582"/><trkpt lat="65.45326" lon="29.36601"/><trkpt lat="65.453228413027" lon="29.36622208396156"/><trkpt lat="65.45322841305018" lon="29.36622208396156"/><trkpt lat="65.45326" lon="29.36601"/><trkpt lat="65.45326" lon="29.36582"/><trkpt lat="65.45324" lon="29.36536"/><trkpt lat="65.45332" lon="29.36455"/><trkpt lat="65.45332" lon="29.36455"/><trkpt lat="65.45328" lon="29.36402"/><trkpt lat="65.45328" lon="29.36402"/><trkpt lat="65.45327" lon="29.36371"/><trkpt lat="65.45333" lon="29.36347"/><trkpt lat="65.45333" lon="29.36328"/><trkpt lat="65.45333" lon="29.36328"/><trkpt lat="65.45329" lon="29.36297"/><trkpt lat="65.45319" lon="29.36246"/><trkpt lat="65.45307" lon="29.36209"/><trkpt lat="65.45295" lon="29.36153"/><trkpt lat="65.4529" lon="29.3612"/><trkpt lat="65.4529" lon="29.3612"/><trkpt lat="65.45281" lon="29.36078"/><trkpt lat="65.45278" lon="29.36053"/><trkpt lat="65.45283" lon="29.36006"/><trkpt lat="65.45285" lon="29.35971"/><trkpt lat="65.45283" lon="29.35924"/><trkpt lat="65.45277" lon="29.35852"/><trkpt lat="65.45276" lon="29.35748"/><trkpt lat="65.45276" lon="29.35748"/><trkpt lat="65.45276" lon="29.35706"/><trkpt lat="65.45263" lon="29.35643"/><trkpt lat="65.45261" lon="29.356"/><trkpt lat="65.45256" lon="29.35547"/><trkpt lat="65.45256" lon="29.35547"/><trkpt lat="65.45247" lon="29.3551"/><trkpt lat="65.45243" lon="29.35451"/><trkpt lat="65.45243" lon="29.35451"/><trkpt lat="65.45238" lon="29.35393"/><trkpt lat="65.45241" lon="29.35292"/><trkpt lat="65.45232" lon="29.35173"/><trkpt lat="65.45233" lon="29.35129"/><trkpt lat="65.45223" lon="29.35072"/><trkpt lat="65.45225" lon="29.35035"/><trkpt lat="65.45219" lon="29.34958"/><trkpt lat="65.45228" lon="29.34896"/><trkpt lat="65.45228" lon="29.34835"/><trkpt lat="65.45232" lon="29.34771"/><trkpt lat="65.45243" lon="29.34727"/><trkpt lat="65.45247" lon="29.34693"/><trkpt lat="65.45262" lon="29.34635"/><trkpt lat="65.45263" lon="29.34607"/><trkpt lat="65.45262" lon="29.34563"/><trkpt lat="65.45252" lon="29.34489"/><trkpt lat="65.4525" lon="29.34429"/><trkpt lat="65.45257" lon="29.34384"/><trkpt lat="65.45273" lon="29.34324"/><trkpt lat="65.45273" lon="29.34324"/><trkpt lat="65.45289" lon="29.34272"/><trkpt lat="65.45298" lon="29.34249"/><trkpt lat="65.4531" lon="29.3423"/><trkpt lat="65.45321" lon="29.34217"/><trkpt lat="65.45333" lon="29.34213"/><trkpt lat="65.45361" lon="29.34212"/><trkpt lat="65.45361" lon="29.34212"/><trkpt lat="65.45361" lon="29.34212"/><trkpt lat="65.45394" lon="29.34253"/><trkpt lat="65.45409" lon="29.34286"/><trkpt lat="65.45418" lon="29.3428"/><trkpt lat="65.45419115641124" lon="29.342774499631428"/></trkseg></trk></gpx>