<?xml version="1.0"?>
<gpx xmlns="http://www.topografix.com/GPX/1/1" xmlns:gpxx="http://www.garmin.com/xmlschemas/GpxExtensions/v3" creator="CALTOPO" version="1.1"><metadata><name><![CDATA[peranka-hevonperse]]></name></metadata><trk><name>peranka-hevonperse</name><trkseg><trkpt lat="65.3942681145146" lon="29.03436524942249"/><trkpt lat="65.39423960601528" lon="29.0343788837657"/><trkpt lat="65.39423960601528" lon="29.0343788837657"/><trkpt lat="65.39424" lon="29.03438"/><trkpt lat="65.39428" lon="29.03465"/><trkpt lat="65.3943" lon="29.03467"/><trkpt lat="65.3943" lon="29.03467"/><trkpt lat="65.39456" lon="29.03493"/><trkpt lat="65.39477" lon="29.03519"/><trkpt lat="65.39499" lon="29.03538"/><trkpt lat="65.39513" lon="29.03544"/><trkpt lat="65.39534" lon="29.03565"/><trkpt lat="65.39557" lon="29.03561"/><trkpt lat="65.3958" lon="29.03576"/><trkpt lat="65.39648" lon="29.03593"/><trkpt lat="65.39669" lon="29.03588"/><trkpt lat="65.39699" lon="29.03592"/><trkpt lat="65.39721" lon="29.03577"/><trkpt lat="65.39733" lon="29.03564"/><trkpt lat="65.39736" lon="29.03566"/><trkpt lat="65.39743" lon="29.03563"/><trkpt lat="65.39755" lon="29.03612"/><trkpt lat="65.39758" lon="29.03682"/><trkpt lat="65.3977" lon="29.03741"/><trkpt lat="65.398" lon="29.03854"/><trkpt lat="65.39812" lon="29.0392"/><trkpt lat="65.39819" lon="29.03929"/><trkpt lat="65.39864" lon="29.04084"/><trkpt lat="65.3988" lon="29.04117"/><trkpt lat="65.39889" lon="29.04145"/><trkpt lat="65.39898" lon="29.04153"/><trkpt lat="65.3991" lon="29.04171"/><trkpt lat="65.39917" lon="29.04186"/><trkpt lat="65.39938" lon="29.04195"/><trkpt lat="65.39954" lon="29.04208"/><trkpt lat="65.39963" lon="29.04248"/><trkpt lat="65.39976" lon="29.0433"/><trkpt lat="65.3998" lon="29.0434"/><trkpt lat="65.39982" lon="29.04374"/><trkpt lat="65.3997" lon="29.04399"/><trkpt lat="65.39967" lon="29.04422"/><trkpt lat="65.39968" lon="29.04438"/><trkpt lat="65.39985" lon="29.04482"/><trkpt lat="65.39993" lon="29.0452"/><trkpt lat="65.39995" lon="29.04557"/><trkpt lat="65.39995" lon="29.04649"/><trkpt lat="65.40005" lon="29.04785"/><trkpt lat="65.40005" lon="29.04785"/><trkpt lat="65.40008" lon="29.04813"/><trkpt lat="65.40022" lon="29.04878"/><trkpt lat="65.40038" lon="29.04912"/><trkpt lat="65.40043" lon="29.04936"/><trkpt lat="65.40039" lon="29.04958"/><trkpt lat="65.40033" lon="29.0497"/><trkpt lat="65.40031" lon="29.04998"/><trkpt lat="65.40034" lon="29.05051"/><trkpt lat="65.40038" lon="29.0507"/><trkpt lat="65.40044" lon="29.05129"/><trkpt lat="65.40044" lon="29.05148"/><trkpt lat="65.40061" lon="29.05235"/><trkpt lat="65.40065" lon="29.05316"/><trkpt lat="65.40075" lon="29.05366"/><trkpt lat="65.40088" lon="29.05397"/><trkpt lat="65.40114" lon="29.05413"/><trkpt lat="65.40128" lon="29.05418"/><trkpt lat="65.40157" lon="29.05412"/><trkpt lat="65.40187152877826" lon="29.054943090996073"/><trkpt lat="65.40194" lon="29.05513"/><trkpt lat="65.402" lon="29.05545"/><trkpt lat="65.40207" lon="29.05551"/><trkpt lat="65.40213" lon="29.05563"/><trkpt lat="65.4024" lon="29.05649"/><trkpt lat="65.4026" lon="29.05693"/><trkpt lat="65.40275" lon="29.05745"/><trkpt lat="65.40273" lon="29.05806"/><trkpt lat="65.40272" lon="29.0581"/><trkpt lat="65.40268" lon="29.05851"/><trkpt lat="65.40266" lon="29.05873"/><trkpt lat="65.40263" lon="29.05917"/><trkpt lat="65.4027" lon="29.05975"/><trkpt lat="65.4027" lon="29.06024"/><trkpt lat="65.4028" lon="29.06158"/><trkpt lat="65.40279" lon="29.06163"/><trkpt lat="65.40281" lon="29.06176"/><trkpt lat="65.40285" lon="29.06179"/><trkpt lat="65.4029" lon="29.06202"/><trkpt lat="65.40291" lon="29.06213"/><trkpt lat="65.40296" lon="29.06247"/><trkpt lat="65.40296" lon="29.06279"/><trkpt lat="65.40268" lon="29.06351"/><trkpt lat="65.4026" lon="29.06409"/><trkpt lat="65.40261" lon="29.06425"/><trkpt lat="65.4027" lon="29.06436"/><trkpt lat="65.40278" lon="29.06439"/><trkpt lat="65.40287" lon="29.06463"/><trkpt lat="65.40291" lon="29.06492"/><trkpt lat="65.40294" lon="29.065"/><trkpt lat="65.40296" lon="29.06537"/><trkpt lat="65.40289" lon="29.06581"/><trkpt lat="65.40282" lon="29.06602"/><trkpt lat="65.40279" lon="29.06607"/><trkpt lat="65.40272" lon="29.06629"/><trkpt lat="65.40259" lon="29.06664"/><trkpt lat="65.40248" lon="29.06676"/><trkpt lat="65.40239" lon="29.06697"/><trkpt lat="65.40239" lon="29.06724"/><trkpt lat="65.40244" lon="29.06777"/><trkpt lat="65.40243" lon="29.06791"/><trkpt lat="65.40244" lon="29.06865"/><trkpt lat="65.40247" lon="29.06898"/><trkpt lat="65.40247" lon="29.06931"/><trkpt lat="65.4025" lon="29.06953"/><trkpt lat="65.40249" lon="29.06982"/><trkpt lat="65.40249" lon="29.06982"/><trkpt lat="65.40248" lon="29.06998"/><trkpt lat="65.40245" lon="29.0702"/><trkpt lat="65.40254" lon="29.0708"/><trkpt lat="65.40255" lon="29.07093"/><trkpt lat="65.40262" lon="29.07117"/><trkpt lat="65.40265" lon="29.07134"/><trkpt lat="65.40269" lon="29.07142"/><trkpt lat="65.40278" lon="29.07167"/><trkpt lat="65.40271" lon="29.07184"/><trkpt lat="65.40261" lon="29.07179"/><trkpt lat="65.40251" lon="29.072"/><trkpt lat="65.40254" lon="29.07207"/><trkpt lat="65.40252" lon="29.07241"/><trkpt lat="65.40249" lon="29.07243"/><trkpt lat="65.40238" lon="29.07266"/><trkpt lat="65.40234" lon="29.07269"/><trkpt lat="65.40217" lon="29.07297"/><trkpt lat="65.40213" lon="29.0732"/><trkpt lat="65.40216" lon="29.07343"/><trkpt lat="65.40215" lon="29.07355"/><trkpt lat="65.402" lon="29.07354"/><trkpt lat="65.40198" lon="29.07344"/><trkpt lat="65.40187" lon="29.07363"/><trkpt lat="65.4018" lon="29.07379"/><trkpt lat="65.40179" lon="29.074"/><trkpt lat="65.40165" lon="29.07432"/><trkpt lat="65.40162" lon="29.0745"/><trkpt lat="65.40163" lon="29.07565"/><trkpt lat="65.40161" lon="29.07623"/><trkpt lat="65.40162" lon="29.07629"/><trkpt lat="65.40161" lon="29.07642"/><trkpt lat="65.40166" lon="29.07685"/><trkpt lat="65.40172" lon="29.07699"/><trkpt lat="65.40184" lon="29.07756"/><trkpt lat="65.40194" lon="29.07817"/><trkpt lat="65.40201" lon="29.07849"/><trkpt lat="65.40195" lon="29.0787"/><trkpt lat="65.40196" lon="29.07881"/><trkpt lat="65.40205" lon="29.07911"/><trkpt lat="65.40202" lon="29.07921"/><trkpt lat="65.40156" lon="29.0799"/><trkpt lat="65.40152" lon="29.08"/><trkpt lat="65.40163" lon="29.08096"/><trkpt lat="65.40163" lon="29.08118"/><trkpt lat="65.40153" lon="29.08195"/><trkpt lat="65.40154" lon="29.08208"/><trkpt lat="65.40153" lon="29.08218"/><trkpt lat="65.40148" lon="29.08248"/><trkpt lat="65.40133" lon="29.08301"/><trkpt lat="65.40131" lon="29.0847"/><trkpt lat="65.40115" lon="29.08534"/><trkpt lat="65.40101" lon="29.08598"/><trkpt lat="65.40081" lon="29.08704"/><trkpt lat="65.40073" lon="29.08727"/><trkpt lat="65.40073" lon="29.08727"/><trkpt lat="65.40073" lon="29.08727"/><trkpt lat="65.40081" lon="29.08732"/><trkpt lat="65.40085" lon="29.08762"/><trkpt lat="65.4008" lon="29.08809"/><trkpt lat="65.4008" lon="29.08809"/><trkpt lat="65.40097108118499" lon="29.090849613896992"/><trkpt lat="65.40097" lon="29.09085"/><trkpt lat="65.40112" lon="29.09132"/><trkpt lat="65.40133" lon="29.0918"/><trkpt lat="65.40133" lon="29.0918"/><trkpt lat="65.40158165064983" lon="29.09241115157812"/><trkpt lat="65.40158165145739" lon="29.092411151578123"/><trkpt lat="65.40175" lon="29.09282"/><trkpt lat="65.40184" lon="29.0931"/><trkpt lat="65.40184" lon="29.0931"/><trkpt lat="65.40243" lon="29.09294"/><trkpt lat="65.40273" lon="29.09305"/><trkpt lat="65.40344" lon="29.09376"/><trkpt lat="65.40344" lon="29.09376"/><trkpt lat="65.40372" lon="29.09399"/><trkpt lat="65.40408" lon="29.09441"/><trkpt lat="65.40497" lon="29.09571"/><trkpt lat="65.40516" lon="29.09591"/><trkpt lat="65.40516" lon="29.09591"/><trkpt lat="65.4052" lon="29.09647"/><trkpt lat="65.40502" lon="29.09763"/><trkpt lat="65.40503" lon="29.09846"/><trkpt lat="65.40497" lon="29.09924"/><trkpt lat="65.40488" lon="29.09996"/><trkpt lat="65.4049" lon="29.10168"/><trkpt lat="65.40475" lon="29.10235"/><trkpt lat="65.4042" lon="29.10367"/><trkpt lat="65.40398" lon="29.10456"/><trkpt lat="65.40402" lon="29.10521"/><trkpt lat="65.40402" lon="29.10679"/><trkpt lat="65.40407" lon="29.10735"/><trkpt lat="65.40405" lon="29.10922"/><trkpt lat="65.40405" lon="29.10922"/><trkpt lat="65.40405" lon="29.10922"/><trkpt lat="65.40382882897654" lon="29.109542369842533"/></trkseg></trk></gpx>