<?xml version="1.0" encoding="UTF-8"?>
<gpx xmlns="http://www.topografix.com/GPX/1/1" xmlns:xsi="http://www.w3.org/2001/XMLSchema-instance" xsi:schemaLocation="http://www.topografix.com/GPX/1/1 http://www.topografix.com/GPX/1/1/gpx.xsd" version="1.1" creator="overpass-turbo"><metadata><desc>Filtered OSM data converted to GPX by overpass turbo</desc><copyright author="The data included in this document is from www.openstreetmap.org. The data is made available under ODbL."/><time>2025-06-30T06:11:15Z</time></metadata><trk><name>Tampere-Jyväskylä</name><desc>name=Tampere-Jyväskylä
note=The route is supposed to start at "Tampere Järvensivu", which isn't easy to exactly locate
route=railway
type=route</desc><link href="http://osm.org/browse/relation/1019948"/><trkseg><trkpt lat="61.4915404" lon="23.7825329"/><trkpt lat="61.4915173" lon="23.7831449"/><trkpt lat="61.4914631" lon="23.7842526"/><trkpt lat="61.4914431" lon="23.7847806"/><trkpt lat="61.4914373" lon="23.7850345"/><trkpt lat="61.4914354" lon="23.7851204"/><trkpt lat="61.4913819" lon="23.7876223"/><trkpt lat="61.4913683" lon="23.7888253"/><trkpt lat="61.4913723" lon="23.7894788"/><trkpt lat="61.4913859" lon="23.7901282"/><trkpt lat="61.491394" lon="23.790469"/><trkpt lat="61.4915206" lon="23.7938711"/><trkpt lat="61.4915471" lon="23.7948061"/><trkpt lat="61.4915538" lon="23.7957404"/><trkpt lat="61.4915413" lon="23.7964084"/><trkpt lat="61.4915166" lon="23.7970793"/><trkpt lat="61.4914783" lon="23.7976748"/><trkpt lat="61.4914198" lon="23.798319"/><trkpt lat="61.4913359" lon="23.7990723"/><trkpt lat="61.4912685" lon="23.7995537"/><trkpt lat="61.4911915" lon="23.8000654"/><trkpt lat="61.4910945" lon="23.8006158"/><trkpt lat="61.4909903" lon="23.801157"/><trkpt lat="61.4909021" lon="23.8015792"/><trkpt lat="61.4905281" lon="23.803321"/><trkpt lat="61.4897607" lon="23.806855"/><trkpt lat="61.4894609" lon="23.8082245"/><trkpt lat="61.4891301" lon="23.8097552"/><trkpt lat="61.4889941" lon="23.8104087"/><trkpt lat="61.4887818" lon="23.8115848"/><trkpt lat="61.4886751" lon="23.8123152"/><trkpt lat="61.4885719" lon="23.813121"/><trkpt lat="61.488491" lon="23.8138556"/><trkpt lat="61.4884277" lon="23.8145755"/><trkpt lat="61.4883796" lon="23.8152167"/><trkpt lat="61.4883362" lon="23.815966"/><trkpt lat="61.4883151" lon="23.816595"/><trkpt lat="61.4882963" lon="23.8172804"/><trkpt lat="61.4882963" lon="23.8179069"/><trkpt lat="61.4883045" lon="23.8185457"/><trkpt lat="61.4883256" lon="23.8193024"/><trkpt lat="61.488355" lon="23.8199899"/><trkpt lat="61.4884349" lon="23.8215308"/><trkpt lat="61.4885354" lon="23.823256"/><trkpt lat="61.4886069" lon="23.8244983"/><trkpt lat="61.4886845" lon="23.8257979"/><trkpt lat="61.4888013" lon="23.8280791"/><trkpt lat="61.48883" lon="23.8290685"/><trkpt lat="61.4888444" lon="23.8299122"/><trkpt lat="61.4888462" lon="23.8308232"/><trkpt lat="61.4888253" lon="23.8317689"/><trkpt lat="61.4888033" lon="23.832544"/><trkpt lat="61.4887715" lon="23.8333102"/><trkpt lat="61.4887204" lon="23.8342524"/><trkpt lat="61.4886342" lon="23.8356151"/><trkpt lat="61.4884707" lon="23.838171"/><trkpt lat="61.4883323" lon="23.8403204"/><trkpt lat="61.4882676" lon="23.8412012"/><trkpt lat="61.4882012" lon="23.8418939"/><trkpt lat="61.488088" lon="23.8426768"/><trkpt lat="61.4879514" lon="23.8435275"/><trkpt lat="61.4878041" lon="23.844303"/><trkpt lat="61.4877459" lon="23.8445746"/><trkpt lat="61.4877209" lon="23.8446928"/><trkpt lat="61.4876351" lon="23.8450747"/><trkpt lat="61.4873617" lon="23.8463161"/><trkpt lat="61.4870411" lon="23.8477284"/><trkpt lat="61.486732" lon="23.8491288"/><trkpt lat="61.4865235" lon="23.8500442"/><trkpt lat="61.4862737" lon="23.8511447"/><trkpt lat="61.486065" lon="23.8520348"/><trkpt lat="61.4858207" lon="23.8530031"/><trkpt lat="61.4856219" lon="23.8538646"/><trkpt lat="61.4854467" lon="23.85475"/><trkpt lat="61.4853047" lon="23.8555079"/><trkpt lat="61.4849662" lon="23.8576744"/><trkpt lat="61.4847903" lon="23.8587997"/><trkpt lat="61.4840439" lon="23.8635238"/><trkpt lat="61.4837133" lon="23.8657209"/><trkpt lat="61.4835737" lon="23.866702"/><trkpt lat="61.4834884" lon="23.8674215"/><trkpt lat="61.4834495" lon="23.8678012"/><trkpt lat="61.4833451" lon="23.868865"/><trkpt lat="61.4832781" lon="23.8696819"/><trkpt lat="61.4832097" lon="23.8707857"/><trkpt lat="61.483166" lon="23.8717963"/><trkpt lat="61.4831411" lon="23.8726065"/><trkpt lat="61.4831128" lon="23.8740331"/><trkpt lat="61.483107" lon="23.8744479"/><trkpt lat="61.4831062" lon="23.8745028"/><trkpt lat="61.4829571" lon="23.8850955"/><trkpt lat="61.4828661" lon="23.891327"/><trkpt lat="61.4828381" lon="23.8924454"/><trkpt lat="61.4828141" lon="23.8931131"/><trkpt lat="61.4827726" lon="23.8939541"/><trkpt lat="61.4827209" lon="23.894753"/><trkpt lat="61.4826404" lon="23.8957197"/><trkpt lat="61.4822598" lon="23.8996204"/><trkpt lat="61.4820364" lon="23.9017891"/><trkpt lat="61.4816542" lon="23.9054706"/><trkpt lat="61.481568" lon="23.9062803"/><trkpt lat="61.4814759" lon="23.9071672"/><trkpt lat="61.4813093" lon="23.9087266"/><trkpt lat="61.4808696" lon="23.9130461"/><trkpt lat="61.4806514" lon="23.9151081"/><trkpt lat="61.4800325" lon="23.9210769"/><trkpt lat="61.4799547" lon="23.9217984"/><trkpt lat="61.4797898" lon="23.9234242"/><trkpt lat="61.4796533" lon="23.9247695"/><trkpt lat="61.4795832" lon="23.9255342"/><trkpt lat="61.4795262" lon="23.9262413"/><trkpt lat="61.4794923" lon="23.9268446"/><trkpt lat="61.4794608" lon="23.9274769"/><trkpt lat="61.4794396" lon="23.9280939"/><trkpt lat="61.4794321" lon="23.9288757"/><trkpt lat="61.4794384" lon="23.9295241"/><trkpt lat="61.4794509" lon="23.93"/><trkpt lat="61.4794721" lon="23.9304889"/><trkpt lat="61.4794958" lon="23.9309308"/><trkpt lat="61.479512" lon="23.9311595"/><trkpt lat="61.4795395" lon="23.9315153"/><trkpt lat="61.4795581" lon="23.9317551"/><trkpt lat="61.4796206" lon="23.9324368"/><trkpt lat="61.4797028" lon="23.9331818"/><trkpt lat="61.4797839" lon="23.9337832"/><trkpt lat="61.4798763" lon="23.9344107"/><trkpt lat="61.4799912" lon="23.9350748"/><trkpt lat="61.4801012" lon="23.9356415"/><trkpt lat="61.4802234" lon="23.9361965"/><trkpt lat="61.4803857" lon="23.9368789"/><trkpt lat="61.4805142" lon="23.9373704"/><trkpt lat="61.4806653" lon="23.9378934"/><trkpt lat="61.4808263" lon="23.9384006"/><trkpt lat="61.4810355" lon="23.9390481"/><trkpt lat="61.4812062" lon="23.9395435"/><trkpt lat="61.481579" lon="23.9406175"/><trkpt lat="61.4823778" lon="23.9428784"/><trkpt lat="61.4825468" lon="23.9433618"/><trkpt lat="61.4830264" lon="23.9448082"/><trkpt lat="61.483327" lon="23.9458389"/><trkpt lat="61.4836991" lon="23.9472265"/><trkpt lat="61.4840042" lon="23.9485592"/><trkpt lat="61.4840865" lon="23.9489374"/><trkpt lat="61.4843866" lon="23.9504822"/><trkpt lat="61.4847246" lon="23.9526017"/><trkpt lat="61.4849655" lon="23.9540718"/><trkpt lat="61.4851059" lon="23.9548559"/><trkpt lat="61.4852486" lon="23.9555372"/><trkpt lat="61.4853499" lon="23.9560208"/><trkpt lat="61.4855022" lon="23.9566454"/><trkpt lat="61.4856926" lon="23.9573268"/><trkpt lat="61.485836" lon="23.9577869"/><trkpt lat="61.4859667" lon="23.958206"/><trkpt lat="61.4862297" lon="23.9589154"/><trkpt lat="61.4862833" lon="23.9590593"/><trkpt lat="61.4868453" lon="23.9604404"/><trkpt lat="61.4870378" lon="23.9608602"/><trkpt lat="61.487235" lon="23.9612927"/><trkpt lat="61.4876902" lon="23.9622064"/><trkpt lat="61.4881302" lon="23.962987"/><trkpt lat="61.4885446" lon="23.9637083"/><trkpt lat="61.4888218" lon="23.9641498"/><trkpt lat="61.4908956" lon="23.9674638"/><trkpt lat="61.4915106" lon="23.9685415"/><trkpt lat="61.4917782" lon="23.9690818"/><trkpt lat="61.4920009" lon="23.9695847"/><trkpt lat="61.4922595" lon="23.9701962"/><trkpt lat="61.4924752" lon="23.9708071"/><trkpt lat="61.4926321" lon="23.9712858"/><trkpt lat="61.49278" lon="23.9717659"/><trkpt lat="61.493268" lon="23.9734932"/><trkpt lat="61.4943431" lon="23.9772234"/><trkpt lat="61.4949254" lon="23.9791837"/><trkpt lat="61.4950739" lon="23.9797669"/><trkpt lat="61.495224" lon="23.9803597"/><trkpt lat="61.4953884" lon="23.9810757"/><trkpt lat="61.49603" lon="23.9841068"/><trkpt lat="61.4961175" lon="23.984508"/><trkpt lat="61.4962692" lon="23.9852094"/><trkpt lat="61.4966552" lon="23.9867801"/><trkpt lat="61.49707" lon="23.988217"/><trkpt lat="61.4973286" lon="23.9889776"/><trkpt lat="61.4975932" lon="23.9896925"/><trkpt lat="61.4981144" lon="23.9909492"/><trkpt lat="61.4985138" lon="23.9918009"/><trkpt lat="61.4990382" lon="23.9927464"/><trkpt lat="61.4995993" lon="23.9936507"/><trkpt lat="61.500372" lon="23.9946977"/><trkpt lat="61.5012973" lon="23.995702"/><trkpt lat="61.5031837" lon="23.997381"/><trkpt lat="61.5054281" lon="23.9993791"/><trkpt lat="61.5057517" lon="23.9996987"/><trkpt lat="61.5062137" lon="24.0002349"/><trkpt lat="61.506681" lon="24.0008062"/><trkpt lat="61.5080734" lon="24.0025748"/><trkpt lat="61.5083259" lon="24.0028929"/><trkpt lat="61.5090417" lon="24.0037365"/><trkpt lat="61.5096418" lon="24.004377"/><trkpt lat="61.5102222" lon="24.0049067"/><trkpt lat="61.5109833" lon="24.0055007"/><trkpt lat="61.5116082" lon="24.0059102"/><trkpt lat="61.5121551" lon="24.0062035"/><trkpt lat="61.5127065" lon="24.0064611"/><trkpt lat="61.5133825" lon="24.006707"/><trkpt lat="61.5140921" lon="24.0068714"/><trkpt lat="61.5146818" lon="24.0069667"/><trkpt lat="61.5152743" lon="24.0069875"/><trkpt lat="61.5165191" lon="24.00697"/><trkpt lat="61.5177832" lon="24.0069494"/><trkpt lat="61.5194425" lon="24.0069501"/><trkpt lat="61.5197423" lon="24.0069411"/><trkpt lat="61.5204063" lon="24.0069263"/><trkpt lat="61.5210839" lon="24.0069112"/><trkpt lat="61.5218968" lon="24.0069685"/><trkpt lat="61.5221906" lon="24.0070023"/><trkpt lat="61.522582" lon="24.0071228"/><trkpt lat="61.5229714" lon="24.0072657"/><trkpt lat="61.5237354" lon="24.0076777"/><trkpt lat="61.524316" lon="24.008108"/><trkpt lat="61.5256112" lon="24.0093022"/><trkpt lat="61.5259871" lon="24.0096924"/><trkpt lat="61.5269413" lon="24.0108147"/><trkpt lat="61.5279786" lon="24.0123237"/><trkpt lat="61.5282589" lon="24.0127712"/><trkpt lat="61.5288634" lon="24.0139029"/><trkpt lat="61.5292242" lon="24.014748"/><trkpt lat="61.5296052" lon="24.0156948"/><trkpt lat="61.529934" lon="24.0167934"/><trkpt lat="61.5303051" lon="24.0182553"/><trkpt lat="61.5318208" lon="24.0255846"/><trkpt lat="61.5323339" lon="24.0275831"/><trkpt lat="61.5329632" lon="24.0296135"/><trkpt lat="61.5335895" lon="24.0313015"/><trkpt lat="61.5343031" lon="24.0328746"/><trkpt lat="61.5350325" lon="24.0343278"/><trkpt lat="61.5354973" lon="24.0351285"/><trkpt lat="61.5357871" lon="24.0355886"/><trkpt lat="61.5361836" lon="24.0362034"/><trkpt lat="61.5367173" lon="24.0369852"/><trkpt lat="61.5369365" lon="24.0372998"/><trkpt lat="61.5374797" lon="24.0380896"/><trkpt lat="61.5380275" lon="24.0389132"/><trkpt lat="61.5382531" lon="24.0392962"/><trkpt lat="61.538387" lon="24.039525"/><trkpt lat="61.5386419" lon="24.0400262"/><trkpt lat="61.5388535" lon="24.0404554"/><trkpt lat="61.53907" lon="24.0409766"/><trkpt lat="61.5393723" lon="24.0417282"/><trkpt lat="61.5395814" lon="24.0423578"/><trkpt lat="61.5398247" lon="24.0431605"/><trkpt lat="61.5399665" lon="24.0436586"/><trkpt lat="61.5400928" lon="24.0441686"/><trkpt lat="61.5404677" lon="24.045912"/><trkpt lat="61.5407384" lon="24.0472276"/><trkpt lat="61.5410496" lon="24.0487712"/><trkpt lat="61.5424137" lon="24.0557618"/><trkpt lat="61.5427942" lon="24.0577117"/><trkpt lat="61.5438899" lon="24.0634691"/><trkpt lat="61.5441107" lon="24.0645225"/><trkpt lat="61.5445014" lon="24.0658541"/><trkpt lat="61.544817" lon="24.0667952"/><trkpt lat="61.5451698" lon="24.0677641"/><trkpt lat="61.545698" lon="24.0689488"/><trkpt lat="61.54686" lon="24.0712288"/><trkpt lat="61.5473322" lon="24.0722105"/><trkpt lat="61.5478287" lon="24.0733217"/><trkpt lat="61.5482012" lon="24.0743952"/><trkpt lat="61.5484935" lon="24.0753442"/><trkpt lat="61.5488228" lon="24.0766672"/><trkpt lat="61.5490541" lon="24.0777283"/><trkpt lat="61.5493517" lon="24.079382"/><trkpt lat="61.5494677" lon="24.0801188"/><trkpt lat="61.5501775" lon="24.0846288"/><trkpt lat="61.5506967" lon="24.0878114"/><trkpt lat="61.5508047" lon="24.0885139"/><trkpt lat="61.5516144" lon="24.0935048"/><trkpt lat="61.5519414" lon="24.0951012"/><trkpt lat="61.5521522" lon="24.0959527"/><trkpt lat="61.5523748" lon="24.0967802"/><trkpt lat="61.552768" lon="24.0980401"/><trkpt lat="61.5529831" lon="24.0986411"/><trkpt lat="61.5532046" lon="24.0992535"/><trkpt lat="61.553507" lon="24.0999731"/><trkpt lat="61.5538227" lon="24.1006592"/><trkpt lat="61.5541807" lon="24.1013799"/><trkpt lat="61.554546" lon="24.1020652"/><trkpt lat="61.5547639" lon="24.1024758"/><trkpt lat="61.5566472" lon="24.106025"/><trkpt lat="61.5587546" lon="24.1098837"/><trkpt lat="61.5594" lon="24.1109542"/><trkpt lat="61.5600689" lon="24.1119645"/><trkpt lat="61.5609164" lon="24.1131357"/><trkpt lat="61.5642374" lon="24.1175835"/><trkpt lat="61.5660301" lon="24.1199958"/><trkpt lat="61.5786584" lon="24.1368946"/><trkpt lat="61.5849445" lon="24.1453303"/><trkpt lat="61.5914766" lon="24.1540868"/><trkpt lat="61.5975484" lon="24.1622348"/><trkpt lat="61.6006436" lon="24.166389"/><trkpt lat="61.6014043" lon="24.1674755"/><trkpt lat="61.6020489" lon="24.1685193"/><trkpt lat="61.6024942" lon="24.1694021"/><trkpt lat="61.6029677" lon="24.1704408"/><trkpt lat="61.6033667" lon="24.1713812"/><trkpt lat="61.6037501" lon="24.1724678"/><trkpt lat="61.6042346" lon="24.1739587"/><trkpt lat="61.6046301" lon="24.1754603"/><trkpt lat="61.6049116" lon="24.1765435"/><trkpt lat="61.6054873" lon="24.1786765"/><trkpt lat="61.605816" lon="24.17977"/><trkpt lat="61.6062397" lon="24.1810661"/><trkpt lat="61.6069966" lon="24.1832373"/><trkpt lat="61.6075833" lon="24.1849218"/><trkpt lat="61.607995" lon="24.1862001"/><trkpt lat="61.6084762" lon="24.1879898"/><trkpt lat="61.6088489" lon="24.1898412"/><trkpt lat="61.6091046" lon="24.191592"/><trkpt lat="61.6093394" lon="24.1938175"/><trkpt lat="61.6094828" lon="24.1952921"/><trkpt lat="61.6096785" lon="24.1969926"/><trkpt lat="61.6098838" lon="24.1983229"/><trkpt lat="61.6101266" lon="24.1995997"/><trkpt lat="61.6111602" lon="24.2040971"/><trkpt lat="61.6116305" lon="24.2060149"/><trkpt lat="61.6120189" lon="24.2073722"/><trkpt lat="61.6122104" lon="24.2079669"/><trkpt lat="61.6124167" lon="24.2085631"/><trkpt lat="61.6131837" lon="24.2105505"/><trkpt lat="61.6160764" lon="24.2179258"/><trkpt lat="61.6166255" lon="24.219478"/><trkpt lat="61.6168545" lon="24.2202626"/><trkpt lat="61.6170719" lon="24.2210634"/><trkpt lat="61.6173272" lon="24.222175"/><trkpt lat="61.6175126" lon="24.2231077"/><trkpt lat="61.6177136" lon="24.2243087"/><trkpt lat="61.6178021" lon="24.2249385"/><trkpt lat="61.6178806" lon="24.2255841"/><trkpt lat="61.6179452" lon="24.2262292"/><trkpt lat="61.6180118" lon="24.2269631"/><trkpt lat="61.6180894" lon="24.2282221"/><trkpt lat="61.6181287" lon="24.2295401"/><trkpt lat="61.6181524" lon="24.2312544"/><trkpt lat="61.6182171" lon="24.2389864"/><trkpt lat="61.6182596" lon="24.2420462"/><trkpt lat="61.6182927" lon="24.2451039"/><trkpt lat="61.6183208" lon="24.2478719"/><trkpt lat="61.6183493" lon="24.2506448"/><trkpt lat="61.6183861" lon="24.2544031"/><trkpt lat="61.6184229" lon="24.2581606"/><trkpt lat="61.6184486" lon="24.260072"/><trkpt lat="61.6184728" lon="24.2609556"/><trkpt lat="61.6185283" lon="24.2619871"/><trkpt lat="61.6186015" lon="24.2630082"/><trkpt lat="61.6187006" lon="24.2639518"/><trkpt lat="61.6188059" lon="24.2647802"/><trkpt lat="61.6190149" lon="24.266064"/><trkpt lat="61.6192566" lon="24.2673282"/><trkpt lat="61.6195333" lon="24.2685169"/><trkpt lat="61.6198188" lon="24.2696756"/><trkpt lat="61.6204226" lon="24.2720938"/><trkpt lat="61.6211027" lon="24.2747766"/><trkpt lat="61.6211119" lon="24.274814"/><trkpt lat="61.6247367" lon="24.2894623"/><trkpt lat="61.6250531" lon="24.2906721"/><trkpt lat="61.625346" lon="24.2917109"/><trkpt lat="61.625746" lon="24.2929528"/><trkpt lat="61.6262055" lon="24.2942357"/><trkpt lat="61.6264684" lon="24.2949058"/><trkpt lat="61.6267395" lon="24.295556"/><trkpt lat="61.6272477" lon="24.2967193"/><trkpt lat="61.6278964" lon="24.2979881"/><trkpt lat="61.6288593" lon="24.299592"/><trkpt lat="61.6294795" lon="24.3005269"/><trkpt lat="61.6294928" lon="24.3005469"/><trkpt lat="61.6305653" lon="24.3022257"/><trkpt lat="61.6309331" lon="24.3027936"/><trkpt lat="61.6315998" lon="24.3039662"/><trkpt lat="61.6322321" lon="24.3053022"/><trkpt lat="61.6328551" lon="24.3068473"/><trkpt lat="61.6332511" lon="24.3081981"/><trkpt lat="61.6336047" lon="24.309736"/><trkpt lat="61.6338662" lon="24.3110903"/><trkpt lat="61.6340422" lon="24.3123938"/><trkpt lat="61.6341566" lon="24.3135579"/><trkpt lat="61.6342333" lon="24.3149605"/><trkpt lat="61.6342566" lon="24.3162477"/><trkpt lat="61.6342243" lon="24.3201762"/><trkpt lat="61.6342456" lon="24.3217892"/><trkpt lat="61.6343159" lon="24.3232637"/><trkpt lat="61.6344309" lon="24.324582"/><trkpt lat="61.6345186" lon="24.3253193"/><trkpt lat="61.6347737" lon="24.3268601"/><trkpt lat="61.6350573" lon="24.3282767"/><trkpt lat="61.6354364" lon="24.3297545"/><trkpt lat="61.635804" lon="24.3310471"/><trkpt lat="61.6370593" lon="24.3346926"/><trkpt lat="61.6374291" lon="24.3359963"/><trkpt lat="61.637774" lon="24.3374374"/><trkpt lat="61.6405686" lon="24.3496281"/><trkpt lat="61.6409362" lon="24.3511289"/><trkpt lat="61.6413247" lon="24.3524364"/><trkpt lat="61.6416939" lon="24.3535063"/><trkpt lat="61.6420962" lon="24.3545454"/><trkpt lat="61.6425132" lon="24.3554193"/><trkpt lat="61.6429509" lon="24.3562686"/><trkpt lat="61.6436072" lon="24.3573399"/><trkpt lat="61.6446602" lon="24.3587924"/><trkpt lat="61.6448879" lon="24.3591003"/><trkpt lat="61.6453186" lon="24.3596489"/><trkpt lat="61.6468351" lon="24.3617504"/><trkpt lat="61.6473223" lon="24.362522"/><trkpt lat="61.6477323" lon="24.3633359"/><trkpt lat="61.6494868" lon="24.366769"/><trkpt lat="61.6508372" lon="24.3694939"/><trkpt lat="61.6515055" lon="24.3708624"/><trkpt lat="61.6516615" lon="24.3711819"/><trkpt lat="61.6520912" lon="24.3720621"/><trkpt lat="61.652175" lon="24.3722284"/><trkpt lat="61.6524021" lon="24.3726902"/><trkpt lat="61.6528438" lon="24.3735885"/><trkpt lat="61.6537411" lon="24.3754229"/><trkpt lat="61.6542714" lon="24.3764807"/><trkpt lat="61.6548735" lon="24.3776839"/><trkpt lat="61.6555571" lon="24.3791018"/><trkpt lat="61.6565536" lon="24.3811209"/><trkpt lat="61.6568522" lon="24.3817003"/><trkpt lat="61.6571532" lon="24.3823414"/><trkpt lat="61.657357" lon="24.3828422"/><trkpt lat="61.6575325" lon="24.3833159"/><trkpt lat="61.657757" lon="24.3839925"/><trkpt lat="61.6579538" lon="24.3847279"/><trkpt lat="61.6581274" lon="24.3854571"/><trkpt lat="61.6582206" lon="24.3859627"/><trkpt lat="61.6583108" lon="24.386551"/><trkpt lat="61.6583921" lon="24.387155"/><trkpt lat="61.6587014" lon="24.3900069"/><trkpt lat="61.6589482" lon="24.3923491"/><trkpt lat="61.6590606" lon="24.3933974"/><trkpt lat="61.6592909" lon="24.3955266"/><trkpt lat="61.6593853" lon="24.3965582"/><trkpt lat="61.6594053" lon="24.3968601"/><trkpt lat="61.6594298" lon="24.3974563"/><trkpt lat="61.6594462" lon="24.3982254"/><trkpt lat="61.6594509" lon="24.3990583"/><trkpt lat="61.6594194" lon="24.3999215"/><trkpt lat="61.659338" lon="24.4010915"/><trkpt lat="61.6591489" lon="24.4025757"/><trkpt lat="61.6588136" lon="24.4047149"/><trkpt lat="61.6585288" lon="24.4065199"/><trkpt lat="61.6583648" lon="24.4078327"/><trkpt lat="61.6582696" lon="24.4089197"/><trkpt lat="61.6582412" lon="24.4095054"/><trkpt lat="61.6582112" lon="24.4104005"/><trkpt lat="61.6582089" lon="24.4116516"/><trkpt lat="61.6582115" lon="24.4118429"/><trkpt lat="61.6582519" lon="24.413039"/><trkpt lat="61.6583313" lon="24.4140831"/><trkpt lat="61.6584204" lon="24.4148259"/><trkpt lat="61.6584989" lon="24.4153845"/><trkpt lat="61.6585814" lon="24.415876"/><trkpt lat="61.6586651" lon="24.4163418"/><trkpt lat="61.6588407" lon="24.4172932"/><trkpt lat="61.6590665" lon="24.4182758"/><trkpt lat="61.6593234" lon="24.4191742"/><trkpt lat="61.6596149" lon="24.4200802"/><trkpt lat="61.659805" lon="24.4205869"/><trkpt lat="61.6599982" lon="24.4210687"/><trkpt lat="61.6603918" lon="24.4219131"/><trkpt lat="61.660989" lon="24.4229739"/><trkpt lat="61.6613162" lon="24.4234514"/><trkpt lat="61.6614567" lon="24.4236524"/><trkpt lat="61.6616708" lon="24.4239291"/><trkpt lat="61.6624506" lon="24.4248351"/><trkpt lat="61.6629" lon="24.4253585"/><trkpt lat="61.6648677" lon="24.42748"/><trkpt lat="61.6658431" lon="24.4285962"/><trkpt lat="61.666594" lon="24.4296387"/><trkpt lat="61.6674761" lon="24.4310671"/><trkpt lat="61.6681485" lon="24.4323074"/><trkpt lat="61.6687643" lon="24.4336491"/><trkpt lat="61.6688827" lon="24.4339292"/><trkpt lat="61.6691768" lon="24.4346521"/><trkpt lat="61.6694489" lon="24.4353797"/><trkpt lat="61.66992" lon="24.4366976"/><trkpt lat="61.670121" lon="24.4373068"/><trkpt lat="61.6705541" lon="24.4386632"/><trkpt lat="61.6717447" lon="24.4424319"/><trkpt lat="61.673317" lon="24.447366"/><trkpt lat="61.6749063" lon="24.4523673"/><trkpt lat="61.6767483" lon="24.4580732"/><trkpt lat="61.6770947" lon="24.4590402"/><trkpt lat="61.6774372" lon="24.4599319"/><trkpt lat="61.6777083" lon="24.4605612"/><trkpt lat="61.6780205" lon="24.4612635"/><trkpt lat="61.6784572" lon="24.4621699"/><trkpt lat="61.6795639" lon="24.4642829"/><trkpt lat="61.6800009" lon="24.4651535"/><trkpt lat="61.6802565" lon="24.4657391"/><trkpt lat="61.6806448" lon="24.4667878"/><trkpt lat="61.6808679" lon="24.4674825"/><trkpt lat="61.6812511" lon="24.468903"/><trkpt lat="61.6814986" lon="24.4700368"/><trkpt lat="61.6817018" lon="24.4712781"/><trkpt lat="61.6818598" lon="24.4726774"/><trkpt lat="61.6819672" lon="24.4742383"/><trkpt lat="61.6819927" lon="24.4752352"/><trkpt lat="61.6820012" lon="24.4766189"/><trkpt lat="61.6820055" lon="24.4790746"/><trkpt lat="61.682026" lon="24.4802765"/><trkpt lat="61.6820909" lon="24.4817493"/><trkpt lat="61.6821625" lon="24.4826408"/><trkpt lat="61.6822419" lon="24.4835191"/><trkpt lat="61.6823355" lon="24.4842448"/><trkpt lat="61.6824401" lon="24.4849755"/><trkpt lat="61.6826915" lon="24.4864127"/><trkpt lat="61.6829387" lon="24.4875798"/><trkpt lat="61.6833966" lon="24.4893667"/><trkpt lat="61.6855471" lon="24.4974758"/><trkpt lat="61.6859098" lon="24.4987783"/><trkpt lat="61.6862115" lon="24.4999002"/><trkpt lat="61.6862539" lon="24.5000579"/><trkpt lat="61.6880316" lon="24.5066696"/><trkpt lat="61.6886085" lon="24.5088242"/><trkpt lat="61.6889639" lon="24.5101389"/><trkpt lat="61.6892241" lon="24.5112188"/><trkpt lat="61.6894772" lon="24.5124985"/><trkpt lat="61.6897253" lon="24.5140889"/><trkpt lat="61.6898341" lon="24.514959"/><trkpt lat="61.6899067" lon="24.5156522"/><trkpt lat="61.6899664" lon="24.5163832"/><trkpt lat="61.6900365" lon="24.5177396"/><trkpt lat="61.6900614" lon="24.5188447"/><trkpt lat="61.6900695" lon="24.5192713"/><trkpt lat="61.6900826" lon="24.5209085"/><trkpt lat="61.6901393" lon="24.5280341"/><trkpt lat="61.6901681" lon="24.5287899"/><trkpt lat="61.6901977" lon="24.5292437"/><trkpt lat="61.6902387" lon="24.529702"/><trkpt lat="61.6903198" lon="24.530485"/><trkpt lat="61.6904687" lon="24.5314805"/><trkpt lat="61.6907009" lon="24.532582"/><trkpt lat="61.6909355" lon="24.5334814"/><trkpt lat="61.6912074" lon="24.5343335"/><trkpt lat="61.6914896" lon="24.5350715"/><trkpt lat="61.6917029" lon="24.535538"/><trkpt lat="61.6919213" lon="24.535967"/><trkpt lat="61.6921716" lon="24.5364144"/><trkpt lat="61.6923086" lon="24.5366424"/><trkpt lat="61.6929912" lon="24.537683"/><trkpt lat="61.6933598" lon="24.5381239"/><trkpt lat="61.6934444" lon="24.5382408"/><trkpt lat="61.6968132" lon="24.5428506"/><trkpt lat="61.6972993" lon="24.5435292"/><trkpt lat="61.6992858" lon="24.5463027"/><trkpt lat="61.6996421" lon="24.5468529"/><trkpt lat="61.6997253" lon="24.5469977"/><trkpt lat="61.7000171" lon="24.5475501"/><trkpt lat="61.7003891" lon="24.5484122"/><trkpt lat="61.7007352" lon="24.5493645"/><trkpt lat="61.7009787" lon="24.5502138"/><trkpt lat="61.7011811" lon="24.5510826"/><trkpt lat="61.7013992" lon="24.552124"/><trkpt lat="61.7022838" lon="24.5568905"/><trkpt lat="61.7025207" lon="24.5581668"/><trkpt lat="61.703276" lon="24.5622415"/><trkpt lat="61.7035424" lon="24.563655"/><trkpt lat="61.7045489" lon="24.5689936"/><trkpt lat="61.7048187" lon="24.5706951"/><trkpt lat="61.7049477" lon="24.5718907"/><trkpt lat="61.7050166" lon="24.5730862"/><trkpt lat="61.7050336" lon="24.5742606"/><trkpt lat="61.7050286" lon="24.5754266"/><trkpt lat="61.7048439" lon="24.5819786"/><trkpt lat="61.7047018" lon="24.5870909"/><trkpt lat="61.7046499" lon="24.5879282"/><trkpt lat="61.7045879" lon="24.5886976"/><trkpt lat="61.7044469" lon="24.5901714"/><trkpt lat="61.7042341" lon="24.5916516"/><trkpt lat="61.7041462" lon="24.5922152"/><trkpt lat="61.7028663" lon="24.6002712"/><trkpt lat="61.7026898" lon="24.6013992"/><trkpt lat="61.7024949" lon="24.6027972"/><trkpt lat="61.702327" lon="24.6046822"/><trkpt lat="61.7022694" lon="24.6063414"/><trkpt lat="61.7022517" lon="24.6073839"/><trkpt lat="61.7022704" lon="24.608426"/><trkpt lat="61.7023013" lon="24.6091327"/><trkpt lat="61.702345" lon="24.6098565"/><trkpt lat="61.7024739" lon="24.6114252"/><trkpt lat="61.7028671" lon="24.6151893"/><trkpt lat="61.7031498" lon="24.6179884"/><trkpt lat="61.7032511" lon="24.6187689"/><trkpt lat="61.7033292" lon="24.6192551"/><trkpt lat="61.7034555" lon="24.6199092"/><trkpt lat="61.7036" lon="24.6205724"/><trkpt lat="61.7037747" lon="24.6212154"/><trkpt lat="61.7039623" lon="24.6218243"/><trkpt lat="61.7041752" lon="24.6224251"/><trkpt lat="61.7044017" lon="24.6229836"/><trkpt lat="61.7046405" lon="24.6235034"/><trkpt lat="61.7048799" lon="24.624008"/><trkpt lat="61.704953" lon="24.6241565"/><trkpt lat="61.7067244" lon="24.6276853"/><trkpt lat="61.708015" lon="24.6302176"/><trkpt lat="61.7092243" lon="24.6326125"/><trkpt lat="61.7104134" lon="24.6349534"/><trkpt lat="61.7155814" lon="24.6452115"/><trkpt lat="61.7158024" lon="24.6456382"/><trkpt lat="61.7162258" lon="24.6464098"/><trkpt lat="61.716698" lon="24.6471764"/><trkpt lat="61.7174822" lon="24.6482355"/><trkpt lat="61.71878" lon="24.6495272"/><trkpt lat="61.7198218" lon="24.6505637"/><trkpt lat="61.7204762" lon="24.6512257"/><trkpt lat="61.721075" lon="24.6518869"/><trkpt lat="61.7216516" lon="24.6526796"/><trkpt lat="61.7217936" lon="24.6528875"/><trkpt lat="61.7221415" lon="24.6534335"/><trkpt lat="61.7224683" lon="24.6540035"/><trkpt lat="61.7232769" lon="24.655651"/><trkpt lat="61.7246899" lon="24.6586198"/><trkpt lat="61.7273387" lon="24.6642348"/><trkpt lat="61.727918" lon="24.6654627"/><trkpt lat="61.7279511" lon="24.6655309"/><trkpt lat="61.7281758" lon="24.6659888"/><trkpt lat="61.7291318" lon="24.6680156"/><trkpt lat="61.7293786" lon="24.668572"/><trkpt lat="61.7295872" lon="24.6691217"/><trkpt lat="61.7297374" lon="24.6695565"/><trkpt lat="61.7298611" lon="24.6699266"/><trkpt lat="61.730001" lon="24.6704048"/><trkpt lat="61.7301185" lon="24.6708454"/><trkpt lat="61.7302263" lon="24.6712849"/><trkpt lat="61.7303186" lon="24.6717241"/><trkpt lat="61.7303951" lon="24.6721455"/><trkpt lat="61.7304666" lon="24.6725548"/><trkpt lat="61.7305318" lon="24.6730136"/><trkpt lat="61.7305893" lon="24.6734687"/><trkpt lat="61.7306309" lon="24.6739376"/><trkpt lat="61.7306626" lon="24.6743838"/><trkpt lat="61.7306938" lon="24.6748777"/><trkpt lat="61.7307152" lon="24.6753601"/><trkpt lat="61.7307659" lon="24.6787188"/><trkpt lat="61.7308688" lon="24.6874601"/><trkpt lat="61.7310652" lon="24.7043091"/><trkpt lat="61.7310882" lon="24.7063535"/><trkpt lat="61.7311028" lon="24.7075275"/><trkpt lat="61.7311324" lon="24.7088394"/><trkpt lat="61.7312183" lon="24.7106433"/><trkpt lat="61.731328" lon="24.7121875"/><trkpt lat="61.7314497" lon="24.7136902"/><trkpt lat="61.731539" lon="24.7145754"/><trkpt lat="61.7320597" lon="24.7189823"/><trkpt lat="61.7327506" lon="24.7249029"/><trkpt lat="61.7340616" lon="24.7360826"/><trkpt lat="61.7343609" lon="24.7383572"/><trkpt lat="61.7347191" lon="24.7408608"/><trkpt lat="61.7350497" lon="24.7431609"/><trkpt lat="61.7353442" lon="24.7452004"/><trkpt lat="61.735425" lon="24.7457598"/><trkpt lat="61.736119" lon="24.7504973"/><trkpt lat="61.7365207" lon="24.7531502"/><trkpt lat="61.7366096" lon="24.7537705"/><trkpt lat="61.7366771" lon="24.7543361"/><trkpt lat="61.7367125" lon="24.7547415"/><trkpt lat="61.7367367" lon="24.7551123"/><trkpt lat="61.736769" lon="24.7558203"/><trkpt lat="61.7367779" lon="24.756302"/><trkpt lat="61.7367766" lon="24.7567976"/><trkpt lat="61.7367651" lon="24.7572594"/><trkpt lat="61.7367251" lon="24.7580047"/><trkpt lat="61.7366989" lon="24.7583873"/><trkpt lat="61.7366615" lon="24.7587365"/><trkpt lat="61.7365848" lon="24.7593721"/><trkpt lat="61.7364877" lon="24.7600456"/><trkpt lat="61.7363652" lon="24.7607034"/><trkpt lat="61.7362236" lon="24.7613739"/><trkpt lat="61.7355765" lon="24.7641176"/><trkpt lat="61.7354795" lon="24.7645717"/><trkpt lat="61.7346971" lon="24.7682684"/><trkpt lat="61.7346025" lon="24.7688504"/><trkpt lat="61.7344816" lon="24.7696552"/><trkpt lat="61.7343445" lon="24.7707242"/><trkpt lat="61.7342768" lon="24.7716158"/><trkpt lat="61.7342032" lon="24.7731004"/><trkpt lat="61.7341945" lon="24.7737494"/><trkpt lat="61.7342072" lon="24.7756317"/><trkpt lat="61.7342938" lon="24.7794549"/><trkpt lat="61.7346664" lon="24.7949594"/><trkpt lat="61.7346924" lon="24.7956937"/><trkpt lat="61.7347306" lon="24.7963695"/><trkpt lat="61.7347943" lon="24.7971291"/><trkpt lat="61.7348778" lon="24.7978851"/><trkpt lat="61.7349357" lon="24.798273"/><trkpt lat="61.7350266" lon="24.7988159"/><trkpt lat="61.7351362" lon="24.7994053"/><trkpt lat="61.7352593" lon="24.7999619"/><trkpt lat="61.735373" lon="24.8003857"/><trkpt lat="61.7355613" lon="24.8010379"/><trkpt lat="61.7356948" lon="24.8014501"/><trkpt lat="61.7358265" lon="24.8018367"/><trkpt lat="61.7359929" lon="24.8022686"/><trkpt lat="61.7362241" lon="24.8028341"/><trkpt lat="61.7371862" lon="24.804983"/><trkpt lat="61.737555" lon="24.8058001"/><trkpt lat="61.7378563" lon="24.806478"/><trkpt lat="61.7379283" lon="24.8066379"/><trkpt lat="61.7406635" lon="24.8127294"/><trkpt lat="61.7436849" lon="24.8194459"/><trkpt lat="61.7438215" lon="24.8197511"/><trkpt lat="61.7441146" lon="24.8204169"/><trkpt lat="61.7450813" lon="24.8224792"/><trkpt lat="61.7455646" lon="24.8234331"/><trkpt lat="61.7460937" lon="24.8243805"/><trkpt lat="61.7469961" lon="24.8260045"/><trkpt lat="61.7473814" lon="24.8267212"/><trkpt lat="61.7479392" lon="24.8278029"/><trkpt lat="61.7483491" lon="24.8286364"/><trkpt lat="61.7487358" lon="24.829518"/><trkpt lat="61.7496189" lon="24.8315261"/><trkpt lat="61.7510757" lon="24.834898"/><trkpt lat="61.753169" lon="24.8397135"/><trkpt lat="61.7533538" lon="24.8401709"/><trkpt lat="61.7537169" lon="24.8410505"/><trkpt lat="61.7539587" lon="24.8417237"/><trkpt lat="61.7542473" lon="24.8426522"/><trkpt lat="61.7544916" lon="24.843624"/><trkpt lat="61.754951" lon="24.8456471"/><trkpt lat="61.7552312" lon="24.8467236"/><trkpt lat="61.7555509" lon="24.847697"/><trkpt lat="61.7557924" lon="24.8483172"/><trkpt lat="61.7561179" lon="24.8490333"/><trkpt lat="61.7564478" lon="24.8496324"/><trkpt lat="61.7567463" lon="24.8501072"/><trkpt lat="61.7570873" lon="24.8505809"/><trkpt lat="61.7575554" lon="24.8511055"/><trkpt lat="61.7578156" lon="24.8513577"/><trkpt lat="61.758064" lon="24.8515731"/><trkpt lat="61.7593" lon="24.8525972"/><trkpt lat="61.7599661" lon="24.8531143"/><trkpt lat="61.7669845" lon="24.8586421"/><trkpt lat="61.7673896" lon="24.8589805"/><trkpt lat="61.7674902" lon="24.8590741"/><trkpt lat="61.7677642" lon="24.8593618"/><trkpt lat="61.7680083" lon="24.8596511"/><trkpt lat="61.768271" lon="24.8599971"/><trkpt lat="61.7684985" lon="24.8603358"/><trkpt lat="61.7687545" lon="24.8607616"/><trkpt lat="61.7689946" lon="24.8612404"/><trkpt lat="61.7693447" lon="24.8619855"/><trkpt lat="61.7704104" lon="24.8645427"/><trkpt lat="61.7706898" lon="24.8651623"/><trkpt lat="61.7709844" lon="24.8657324"/><trkpt lat="61.7712929" lon="24.866253"/><trkpt lat="61.7716134" lon="24.8667101"/><trkpt lat="61.7719705" lon="24.8671624"/><trkpt lat="61.772291" lon="24.8674725"/><trkpt lat="61.7726267" lon="24.8677732"/><trkpt lat="61.7732894" lon="24.8682119"/><trkpt lat="61.7740511" lon="24.8685749"/><trkpt lat="61.7751343" lon="24.8690884"/><trkpt lat="61.7754986" lon="24.8692547"/><trkpt lat="61.7771036" lon="24.8700298"/><trkpt lat="61.7771787" lon="24.8700656"/><trkpt lat="61.7775617" lon="24.8702482"/><trkpt lat="61.7783772" lon="24.870649"/><trkpt lat="61.7787775" lon="24.8708775"/><trkpt lat="61.7791663" lon="24.87117"/><trkpt lat="61.7796278" lon="24.8715954"/><trkpt lat="61.7801402" lon="24.8721206"/><trkpt lat="61.7805978" lon="24.8726962"/><trkpt lat="61.781051" lon="24.8733438"/><trkpt lat="61.7820882" lon="24.8750551"/><trkpt lat="61.7831071" lon="24.8767062"/><trkpt lat="61.7842722" lon="24.878638"/><trkpt lat="61.7847589" lon="24.879372"/><trkpt lat="61.7852562" lon="24.8800592"/><trkpt lat="61.7857508" lon="24.8805934"/><trkpt lat="61.7862265" lon="24.8810523"/><trkpt lat="61.7864371" lon="24.8812429"/><trkpt lat="61.7868983" lon="24.8816327"/><trkpt lat="61.7887753" lon="24.8831526"/><trkpt lat="61.7911552" lon="24.8850675"/><trkpt lat="61.7952675" lon="24.8883822"/><trkpt lat="61.7956966" lon="24.8887429"/><trkpt lat="61.7959153" lon="24.8889562"/><trkpt lat="61.7961156" lon="24.8891789"/><trkpt lat="61.7965216" lon="24.8896682"/><trkpt lat="61.7967278" lon="24.8899245"/><trkpt lat="61.7969344" lon="24.890233"/><trkpt lat="61.7971013" lon="24.8905055"/><trkpt lat="61.7974453" lon="24.8911047"/><trkpt lat="61.7977089" lon="24.8916465"/><trkpt lat="61.7980179" lon="24.8923236"/><trkpt lat="61.7984048" lon="24.8932585"/><trkpt lat="61.7988141" lon="24.8942416"/><trkpt lat="61.8009216" lon="24.8994961"/><trkpt lat="61.8015172" lon="24.9012138"/><trkpt lat="61.8018144" lon="24.9021223"/><trkpt lat="61.8020729" lon="24.9030548"/><trkpt lat="61.8023457" lon="24.9041108"/><trkpt lat="61.8026262" lon="24.9052472"/><trkpt lat="61.8028966" lon="24.9065254"/><trkpt lat="61.8030351" lon="24.9072724"/><trkpt lat="61.8031606" lon="24.9079966"/><trkpt lat="61.8033203" lon="24.9090802"/><trkpt lat="61.803481" lon="24.9102275"/><trkpt lat="61.8038206" lon="24.913217"/><trkpt lat="61.8041372" lon="24.9157435"/><trkpt lat="61.8042357" lon="24.9164583"/><trkpt lat="61.8043694" lon="24.917327"/><trkpt lat="61.8045312" lon="24.9181758"/><trkpt lat="61.8047188" lon="24.9190395"/><trkpt lat="61.8050049" lon="24.9201166"/><trkpt lat="61.8053286" lon="24.9211739"/><trkpt lat="61.8057179" lon="24.922246"/><trkpt lat="61.8061705" lon="24.9232934"/><trkpt lat="61.8068975" lon="24.9248966"/><trkpt lat="61.8071906" lon="24.9255171"/><trkpt lat="61.8076127" lon="24.9265297"/><trkpt lat="61.8077527" lon="24.9268974"/><trkpt lat="61.8078238" lon="24.9271005"/><trkpt lat="61.8080348" lon="24.927721"/><trkpt lat="61.8082646" lon="24.9284606"/><trkpt lat="61.8084686" lon="24.92922"/><trkpt lat="61.8087008" lon="24.930183"/><trkpt lat="61.8089423" lon="24.9312601"/><trkpt lat="61.8091222" lon="24.9321225"/><trkpt lat="61.8093042" lon="24.9329948"/><trkpt lat="61.8094959" lon="24.9339138"/><trkpt lat="61.8101827" lon="24.9372067"/><trkpt lat="61.8106323" lon="24.9392824"/><trkpt lat="61.8106777" lon="24.9394965"/><trkpt lat="61.8111937" lon="24.9420124"/><trkpt lat="61.8115258" lon="24.943583"/><trkpt lat="61.8123487" lon="24.9474749"/><trkpt lat="61.8126208" lon="24.9487451"/><trkpt lat="61.8133147" lon="24.9520337"/><trkpt lat="61.8133723" lon="24.9523064"/><trkpt lat="61.8151716" lon="24.9609007"/><trkpt lat="61.8155672" lon="24.9626645"/><trkpt lat="61.8159012" lon="24.9640382"/><trkpt lat="61.8162829" lon="24.9652823"/><trkpt lat="61.8166783" lon="24.9664973"/><trkpt lat="61.8172439" lon="24.9680728"/><trkpt lat="61.8178754" lon="24.9698575"/><trkpt lat="61.8184657" lon="24.9712819"/><trkpt lat="61.8190944" lon="24.9727469"/><trkpt lat="61.8195721" lon="24.973648"/><trkpt lat="61.8200965" lon="24.9745375"/><trkpt lat="61.8205056" lon="24.975113"/><trkpt lat="61.8207442" lon="24.9754239"/><trkpt lat="61.82076" lon="24.9754453"/><trkpt lat="61.8209558" lon="24.9756855"/><trkpt lat="61.8213978" lon="24.9761536"/><trkpt lat="61.8218837" lon="24.9766187"/><trkpt lat="61.8223449" lon="24.9770082"/><trkpt lat="61.822839" lon="24.9773338"/><trkpt lat="61.8232206" lon="24.9775314"/><trkpt lat="61.8236132" lon="24.9776826"/><trkpt lat="61.8242193" lon="24.9778989"/><trkpt lat="61.8255484" lon="24.9783105"/><trkpt lat="61.8294749" lon="24.9794448"/><trkpt lat="61.8320701" lon="24.9802247"/><trkpt lat="61.8321513" lon="24.9802483"/><trkpt lat="61.833718" lon="24.980703"/><trkpt lat="61.8341901" lon="24.9808454"/><trkpt lat="61.834647" lon="24.9810162"/><trkpt lat="61.8349174" lon="24.9811479"/><trkpt lat="61.8351913" lon="24.9813187"/><trkpt lat="61.8357305" lon="24.9816924"/><trkpt lat="61.8365195" lon="24.9824559"/><trkpt lat="61.8367451" lon="24.982728"/><trkpt lat="61.8369457" lon="24.9830045"/><trkpt lat="61.8371499" lon="24.983301"/><trkpt lat="61.8373407" lon="24.9836202"/><trkpt lat="61.8379369" lon="24.984615"/><trkpt lat="61.8389634" lon="24.9864589"/><trkpt lat="61.8394524" lon="24.9872087"/><trkpt lat="61.8398966" lon="24.9877674"/><trkpt lat="61.8403553" lon="24.9883294"/><trkpt lat="61.8406972" lon="24.9886464"/><trkpt lat="61.8410941" lon="24.9889763"/><trkpt lat="61.8414299" lon="24.9891897"/><trkpt lat="61.84173" lon="24.9893495"/><trkpt lat="61.8422144" lon="24.9895714"/><trkpt lat="61.8426595" lon="24.9897272"/><trkpt lat="61.8430385" lon="24.9898042"/><trkpt lat="61.8434842" lon="24.989843"/><trkpt lat="61.8462214" lon="24.9901504"/><trkpt lat="61.8462948" lon="24.9901552"/><trkpt lat="61.8469223" lon="24.9902244"/><trkpt lat="61.8475219" lon="24.9903374"/><trkpt lat="61.8478018" lon="24.9904368"/><trkpt lat="61.8479867" lon="24.9905159"/><trkpt lat="61.8482163" lon="24.9906495"/><trkpt lat="61.8484343" lon="24.9908081"/><trkpt lat="61.8486466" lon="24.9909794"/><trkpt lat="61.8488327" lon="24.9911444"/><trkpt lat="61.8490307" lon="24.9913482"/><trkpt lat="61.8492082" lon="24.9915569"/><trkpt lat="61.849385" lon="24.9918123"/><trkpt lat="61.8495385" lon="24.9920422"/><trkpt lat="61.849757" lon="24.9923755"/><trkpt lat="61.849956" lon="24.9927394"/><trkpt lat="61.8501677" lon="24.9931943"/><trkpt lat="61.8503697" lon="24.9936553"/><trkpt lat="61.8506004" lon="24.9942839"/><trkpt lat="61.8507118" lon="24.9946245"/><trkpt lat="61.8508065" lon="24.9949652"/><trkpt lat="61.8509054" lon="24.9953246"/><trkpt lat="61.8510136" lon="24.9957536"/><trkpt lat="61.8511201" lon="24.996231"/><trkpt lat="61.8512029" lon="24.9967247"/><trkpt lat="61.8513045" lon="24.9974677"/><trkpt lat="61.8513651" lon="24.9980738"/><trkpt lat="61.8514209" lon="24.9987776"/><trkpt lat="61.8514536" lon="24.9994294"/><trkpt lat="61.8515015" lon="25.0004658"/><trkpt lat="61.8515795" lon="25.0022427"/><trkpt lat="61.8520709" lon="25.0134249"/><trkpt lat="61.852267" lon="25.017284"/><trkpt lat="61.8523459" lon="25.0195036"/><trkpt lat="61.8523651" lon="25.0209749"/><trkpt lat="61.8523653" lon="25.0210002"/><trkpt lat="61.8523534" lon="25.021859"/><trkpt lat="61.8523123" lon="25.0226917"/><trkpt lat="61.8522734" lon="25.0231797"/><trkpt lat="61.8522299" lon="25.0236354"/><trkpt lat="61.8521721" lon="25.0240836"/><trkpt lat="61.8521126" lon="25.0245107"/><trkpt lat="61.851998" lon="25.0252057"/><trkpt lat="61.8518446" lon="25.0259353"/><trkpt lat="61.8517179" lon="25.0264519"/><trkpt lat="61.8515939" lon="25.0269028"/><trkpt lat="61.8514082" lon="25.0274801"/><trkpt lat="61.8511999" lon="25.0280841"/><trkpt lat="61.8508083" lon="25.0290758"/><trkpt lat="61.8502545" lon="25.0302019"/><trkpt lat="61.8492293" lon="25.0321687"/><trkpt lat="61.8482401" lon="25.0340923"/><trkpt lat="61.8479788" lon="25.0346151"/><trkpt lat="61.8477451" lon="25.0351077"/><trkpt lat="61.8475069" lon="25.0356499"/><trkpt lat="61.8473209" lon="25.0361137"/><trkpt lat="61.847209" lon="25.0364217"/><trkpt lat="61.8470741" lon="25.0368477"/><trkpt lat="61.8468758" lon="25.0375298"/><trkpt lat="61.846771" lon="25.0379263"/><trkpt lat="61.8466775" lon="25.0383307"/><trkpt lat="61.8465128" lon="25.0391476"/><trkpt lat="61.8463706" lon="25.0400596"/><trkpt lat="61.8462743" lon="25.0409948"/><trkpt lat="61.8462023" lon="25.041955"/><trkpt lat="61.8461373" lon="25.0432219"/><trkpt lat="61.8461251" lon="25.0434987"/><trkpt lat="61.8460488" lon="25.0452621"/><trkpt lat="61.8458243" lon="25.0517175"/><trkpt lat="61.8457672" lon="25.052629"/><trkpt lat="61.845702" lon="25.0535096"/><trkpt lat="61.8456192" lon="25.0544969"/><trkpt lat="61.8455324" lon="25.0553497"/><trkpt lat="61.845379" lon="25.0565948"/><trkpt lat="61.8451969" lon="25.0578401"/><trkpt lat="61.8449711" lon="25.0591088"/><trkpt lat="61.8447249" lon="25.0604018"/><trkpt lat="61.8444622" lon="25.0615911"/><trkpt lat="61.8441703" lon="25.0627433"/><trkpt lat="61.84385" lon="25.0639033"/><trkpt lat="61.843512" lon="25.0650002"/><trkpt lat="61.8431944" lon="25.0659472"/><trkpt lat="61.8428695" lon="25.0668312"/><trkpt lat="61.8425843" lon="25.067535"/><trkpt lat="61.842109" lon="25.0686749"/><trkpt lat="61.8412215" lon="25.070709"/><trkpt lat="61.8386409" lon="25.0765306"/><trkpt lat="61.8379018" lon="25.0782934"/><trkpt lat="61.8375176" lon="25.0792065"/><trkpt lat="61.8371668" lon="25.0801904"/><trkpt lat="61.8368026" lon="25.0814008"/><trkpt lat="61.8364318" lon="25.0827599"/><trkpt lat="61.8361824" lon="25.0839528"/><trkpt lat="61.8358691" lon="25.0857177"/><trkpt lat="61.8357185" lon="25.0868731"/><trkpt lat="61.8355832" lon="25.0880757"/><trkpt lat="61.8354786" lon="25.0893849"/><trkpt lat="61.8354261" lon="25.0903196"/><trkpt lat="61.835398" lon="25.0912657"/><trkpt lat="61.8353994" lon="25.0932642"/><trkpt lat="61.8354662" lon="25.0948498"/><trkpt lat="61.8356008" lon="25.0964278"/><trkpt lat="61.8356493" lon="25.0968762"/><trkpt lat="61.8357881" lon="25.0979368"/><trkpt lat="61.836025" lon="25.0995127"/><trkpt lat="61.8361558" lon="25.1002496"/><trkpt lat="61.8369309" lon="25.10403"/><trkpt lat="61.8385525" lon="25.111968"/><trkpt lat="61.8386223" lon="25.112312"/><trkpt lat="61.838686" lon="25.1126257"/><trkpt lat="61.8394733" lon="25.1165705"/><trkpt lat="61.8396885" lon="25.1175629"/><trkpt lat="61.8399087" lon="25.1184695"/><trkpt lat="61.8401568" lon="25.1194351"/><trkpt lat="61.8404161" lon="25.1203605"/><trkpt lat="61.8407138" lon="25.1212268"/><trkpt lat="61.8411179" lon="25.1223896"/><trkpt lat="61.8426075" lon="25.1262152"/><trkpt lat="61.8433617" lon="25.1281523"/><trkpt lat="61.8440309" lon="25.1300081"/><trkpt lat="61.8460451" lon="25.1364685"/><trkpt lat="61.8463222" lon="25.1373824"/><trkpt lat="61.8482389" lon="25.1435271"/><trkpt lat="61.8483066" lon="25.1437451"/><trkpt lat="61.8509772" lon="25.152328"/><trkpt lat="61.8517316" lon="25.1547444"/><trkpt lat="61.855908" lon="25.1681895"/><trkpt lat="61.8562634" lon="25.1692994"/><trkpt lat="61.8565689" lon="25.1702833"/><trkpt lat="61.8570325" lon="25.1714911"/><trkpt lat="61.8575381" lon="25.1724721"/><trkpt lat="61.8578158" lon="25.1729095"/><trkpt lat="61.8581176" lon="25.1733028"/><trkpt lat="61.8584895" lon="25.1736966"/><trkpt lat="61.85896" lon="25.1740577"/><trkpt lat="61.8595218" lon="25.1743383"/><trkpt lat="61.8599368" lon="25.174452"/><trkpt lat="61.8604815" lon="25.1744949"/><trkpt lat="61.8610304" lon="25.1744013"/><trkpt lat="61.8615078" lon="25.1742571"/><trkpt lat="61.8636187" lon="25.1737697"/><trkpt lat="61.8636615" lon="25.17376"/><trkpt lat="61.8644557" lon="25.1735664"/><trkpt lat="61.8649402" lon="25.1734487"/><trkpt lat="61.8681487" lon="25.1726847"/><trkpt lat="61.8688847" lon="25.1725143"/><trkpt lat="61.8698148" lon="25.1721278"/><trkpt lat="61.8704771" lon="25.1716816"/><trkpt lat="61.8709459" lon="25.1713443"/><trkpt lat="61.8712098" lon="25.1711545"/><trkpt lat="61.8714385" lon="25.17099"/><trkpt lat="61.871855" lon="25.1706036"/><trkpt lat="61.8722631" lon="25.170172"/><trkpt lat="61.8723748" lon="25.1700455"/><trkpt lat="61.872561" lon="25.1698353"/><trkpt lat="61.8734961" lon="25.1685618"/><trkpt lat="61.8753084" lon="25.1659897"/><trkpt lat="61.8756507" lon="25.1654852"/><trkpt lat="61.8766098" lon="25.1641348"/><trkpt lat="61.8773329" lon="25.1631167"/><trkpt lat="61.8778021" lon="25.1625735"/><trkpt lat="61.8782717" lon="25.162114"/><trkpt lat="61.8786363" lon="25.1618232"/><trkpt lat="61.8789918" lon="25.1616023"/><trkpt lat="61.8793197" lon="25.1614497"/><trkpt lat="61.8796898" lon="25.1612989"/><trkpt lat="61.8799867" lon="25.1612249"/><trkpt lat="61.8802247" lon="25.1611913"/><trkpt lat="61.8804305" lon="25.161183"/><trkpt lat="61.8806223" lon="25.1611774"/><trkpt lat="61.8809276" lon="25.1611812"/><trkpt lat="61.8812997" lon="25.1612502"/><trkpt lat="61.8815831" lon="25.1613301"/><trkpt lat="61.8818443" lon="25.1614148"/><trkpt lat="61.8820696" lon="25.1615436"/><trkpt lat="61.8825288" lon="25.1618038"/><trkpt lat="61.8829051" lon="25.1620733"/><trkpt lat="61.8832618" lon="25.1624036"/><trkpt lat="61.8835481" lon="25.1627223"/><trkpt lat="61.8838873" lon="25.1631202"/><trkpt lat="61.8846805" lon="25.1641786"/><trkpt lat="61.8853166" lon="25.1650459"/><trkpt lat="61.8877457" lon="25.1683578"/><trkpt lat="61.8879202" lon="25.1685958"/><trkpt lat="61.8881873" lon="25.1689531"/><trkpt lat="61.8885417" lon="25.1694272"/><trkpt lat="61.889126" lon="25.1701742"/><trkpt lat="61.8895489" lon="25.1706177"/><trkpt lat="61.8901083" lon="25.1710123"/><trkpt lat="61.8906035" lon="25.1712602"/><trkpt lat="61.8909173" lon="25.1713301"/><trkpt lat="61.8911994" lon="25.1713572"/><trkpt lat="61.8914668" lon="25.1713675"/><trkpt lat="61.891687" lon="25.171366"/><trkpt lat="61.8922262" lon="25.1713615"/><trkpt lat="61.8928541" lon="25.1713406"/><trkpt lat="61.8933481" lon="25.1713241"/><trkpt lat="61.8969033" lon="25.1712222"/><trkpt lat="61.8994138" lon="25.1711627"/><trkpt lat="61.9000563" lon="25.1711407"/><trkpt lat="61.9011725" lon="25.1711174"/><trkpt lat="61.9019121" lon="25.1711421"/><trkpt lat="61.9024169" lon="25.1711964"/><trkpt lat="61.9029495" lon="25.17131"/><trkpt lat="61.9037728" lon="25.1715668"/><trkpt lat="61.904845" lon="25.1720754"/><trkpt lat="61.9055451" lon="25.1725298"/><trkpt lat="61.9057812" lon="25.1726947"/><trkpt lat="61.9058101" lon="25.1727176"/><trkpt lat="61.9061952" lon="25.1730191"/><trkpt lat="61.9065871" lon="25.1733481"/><trkpt lat="61.9069707" lon="25.17372"/><trkpt lat="61.9075015" lon="25.1742547"/><trkpt lat="61.9080209" lon="25.1748491"/><trkpt lat="61.9084185" lon="25.1753302"/><trkpt lat="61.9087938" lon="25.1758336"/><trkpt lat="61.9108494" lon="25.1784165"/><trkpt lat="61.9121882" lon="25.1800958"/><trkpt lat="61.9128847" lon="25.1808854"/><trkpt lat="61.9136688" lon="25.1816923"/><trkpt lat="61.9140925" lon="25.182092"/><trkpt lat="61.9153204" lon="25.1830912"/><trkpt lat="61.9167277" lon="25.1839606"/><trkpt lat="61.9222313" lon="25.1873106"/><trkpt lat="61.9242082" lon="25.1884538"/><trkpt lat="61.9254563" lon="25.1892538"/><trkpt lat="61.9266563" lon="25.1900143"/><trkpt lat="61.9278981" lon="25.190979"/><trkpt lat="61.9291264" lon="25.1921896"/><trkpt lat="61.9306169" lon="25.1938998"/><trkpt lat="61.9311251" lon="25.1945609"/><trkpt lat="61.9316186" lon="25.1952351"/><trkpt lat="61.9320249" lon="25.1958377"/><trkpt lat="61.9324098" lon="25.1964157"/><trkpt lat="61.9326634" lon="25.1967992"/><trkpt lat="61.9334075" lon="25.198044"/><trkpt lat="61.9337766" lon="25.1986754"/><trkpt lat="61.9341106" lon="25.1993492"/><trkpt lat="61.9348092" lon="25.200749"/><trkpt lat="61.9356624" lon="25.2026505"/><trkpt lat="61.935852" lon="25.203077"/><trkpt lat="61.9364249" lon="25.2045298"/><trkpt lat="61.9372077" lon="25.2066457"/><trkpt lat="61.9405975" lon="25.2159762"/><trkpt lat="61.9415838" lon="25.2184068"/><trkpt lat="61.9422057" lon="25.2197423"/><trkpt lat="61.9429411" lon="25.221264"/><trkpt lat="61.9433583" lon="25.2220861"/><trkpt lat="61.943944" lon="25.2231395"/><trkpt lat="61.9445172" lon="25.2242028"/><trkpt lat="61.9475165" lon="25.2292206"/><trkpt lat="61.9496184" lon="25.2327876"/><trkpt lat="61.9498925" lon="25.2333052"/><trkpt lat="61.9504146" lon="25.2343392"/><trkpt lat="61.9507236" lon="25.234946"/><trkpt lat="61.951085" lon="25.2357339"/><trkpt lat="61.9514357" lon="25.2365737"/><trkpt lat="61.9517739" lon="25.2374034"/><trkpt lat="61.952176" lon="25.2384432"/><trkpt lat="61.9525592" lon="25.2395035"/><trkpt lat="61.9530358" lon="25.2409685"/><trkpt lat="61.9534481" lon="25.2423725"/><trkpt lat="61.9537273" lon="25.2433919"/><trkpt lat="61.9539846" lon="25.2443887"/><trkpt lat="61.9542204" lon="25.2454062"/><trkpt lat="61.9544594" lon="25.2464938"/><trkpt lat="61.9549429" lon="25.2488348"/><trkpt lat="61.9576752" lon="25.2621661"/><trkpt lat="61.9577219" lon="25.2623939"/><trkpt lat="61.9585308" lon="25.2662995"/><trkpt lat="61.9601317" lon="25.2740265"/><trkpt lat="61.962317" lon="25.2836136"/><trkpt lat="61.962718" lon="25.2853202"/><trkpt lat="61.9654131" lon="25.2971114"/><trkpt lat="61.965469" lon="25.2973556"/><trkpt lat="61.9662454" lon="25.3007527"/><trkpt lat="61.9671457" lon="25.3047178"/><trkpt lat="61.9673505" lon="25.3056139"/><trkpt lat="61.9676161" lon="25.3067706"/><trkpt lat="61.9717557" lon="25.3249086"/><trkpt lat="61.9720254" lon="25.3261369"/><trkpt lat="61.972358" lon="25.3279237"/><trkpt lat="61.9730803" lon="25.3321033"/><trkpt lat="61.9731093" lon="25.3322741"/><trkpt lat="61.9736395" lon="25.335418"/><trkpt lat="61.975095" lon="25.3441137"/><trkpt lat="61.9753742" lon="25.345774"/><trkpt lat="61.9756353" lon="25.3473261"/><trkpt lat="61.9766425" lon="25.3533773"/><trkpt lat="61.9767177" lon="25.3538247"/><trkpt lat="61.9774843" lon="25.3584234"/><trkpt lat="61.9776909" lon="25.3595775"/><trkpt lat="61.9779" lon="25.3606746"/><trkpt lat="61.978136" lon="25.3618473"/><trkpt lat="61.9783799" lon="25.363011"/><trkpt lat="61.9791034" lon="25.3661415"/><trkpt lat="61.9800014" lon="25.36973"/><trkpt lat="61.9802632" lon="25.3707772"/><trkpt lat="61.9813165" lon="25.3750057"/><trkpt lat="61.9825437" lon="25.3799292"/><trkpt lat="61.9825698" lon="25.3800337"/><trkpt lat="61.982764" lon="25.3808132"/><trkpt lat="61.9831154" lon="25.3822229"/><trkpt lat="61.9832567" lon="25.3828075"/><trkpt lat="61.9843997" lon="25.3874126"/><trkpt lat="61.9844563" lon="25.3876381"/><trkpt lat="61.9855102" lon="25.391837"/><trkpt lat="61.9867649" lon="25.3968786"/><trkpt lat="61.9870393" lon="25.3979955"/><trkpt lat="61.9880016" lon="25.4019169"/><trkpt lat="61.9880604" lon="25.4021477"/><trkpt lat="61.9881473" lon="25.4025112"/><trkpt lat="61.9882848" lon="25.4030584"/><trkpt lat="61.9886251" lon="25.404431"/><trkpt lat="61.9886441" lon="25.4045154"/><trkpt lat="61.9890629" lon="25.4061465"/><trkpt lat="61.9893804" lon="25.407316"/><trkpt lat="61.9897164" lon="25.4084842"/><trkpt lat="61.9902389" lon="25.4101888"/><trkpt lat="61.9907456" lon="25.4117509"/><trkpt lat="61.9919914" lon="25.4154582"/><trkpt lat="61.9926264" lon="25.4174629"/><trkpt lat="61.9928428" lon="25.4181192"/><trkpt lat="61.9933159" lon="25.4195539"/><trkpt lat="61.9935174" lon="25.4201803"/><trkpt lat="61.9935922" lon="25.4204076"/><trkpt lat="61.9950363" lon="25.4247871"/><trkpt lat="61.9958228" lon="25.4272562"/><trkpt lat="61.9965956" lon="25.429887"/><trkpt lat="61.9977076" lon="25.4338222"/><trkpt lat="61.9984412" lon="25.4364542"/><trkpt lat="62.0022969" lon="25.4500064"/><trkpt lat="62.0023462" lon="25.4501796"/><trkpt lat="62.0030882" lon="25.4527903"/><trkpt lat="62.0036156" lon="25.4544955"/><trkpt lat="62.0041514" lon="25.4561941"/><trkpt lat="62.0056146" lon="25.4608146"/><trkpt lat="62.0080958" lon="25.4686505"/><trkpt lat="62.013111" lon="25.4844908"/><trkpt lat="62.0181293" lon="25.5003436"/><trkpt lat="62.023146" lon="25.516194"/><trkpt lat="62.0256699" lon="25.5241693"/><trkpt lat="62.0279151" lon="25.5312729"/><trkpt lat="62.0279687" lon="25.5314428"/><trkpt lat="62.0281545" lon="25.5320294"/><trkpt lat="62.0285122" lon="25.5331728"/><trkpt lat="62.0289936" lon="25.5346935"/><trkpt lat="62.0297099" lon="25.5372418"/><trkpt lat="62.0301359" lon="25.5389046"/><trkpt lat="62.0304971" lon="25.5403848"/><trkpt lat="62.0309108" lon="25.5422708"/><trkpt lat="62.0311083" lon="25.543231"/><trkpt lat="62.0312837" lon="25.5441392"/><trkpt lat="62.031463" lon="25.5450898"/><trkpt lat="62.0316171" lon="25.5459578"/><trkpt lat="62.031819" lon="25.5471658"/><trkpt lat="62.0319178" lon="25.5477749"/><trkpt lat="62.0321039" lon="25.5490434"/><trkpt lat="62.0327358" lon="25.55328"/><trkpt lat="62.033258" lon="25.5566286"/><trkpt lat="62.0335721" lon="25.5583873"/><trkpt lat="62.0338593" lon="25.5599438"/><trkpt lat="62.0340365" lon="25.5608667"/><trkpt lat="62.034398" lon="25.5626397"/><trkpt lat="62.0345178" lon="25.5631944"/><trkpt lat="62.0347955" lon="25.5644786"/><trkpt lat="62.0353356" lon="25.5668271"/><trkpt lat="62.0359173" lon="25.5691304"/><trkpt lat="62.036405" lon="25.5709194"/><trkpt lat="62.0369258" lon="25.5727649"/><trkpt lat="62.0375419" lon="25.5747443"/><trkpt lat="62.0381196" lon="25.576504"/><trkpt lat="62.038229" lon="25.5768395"/><trkpt lat="62.0403707" lon="25.5825855"/><trkpt lat="62.0407238" lon="25.5834303"/><trkpt lat="62.0417003" lon="25.5856683"/><trkpt lat="62.0425235" lon="25.5874179"/><trkpt lat="62.0433667" lon="25.589137"/><trkpt lat="62.0442555" lon="25.5907919"/><trkpt lat="62.045166" lon="25.5924198"/><trkpt lat="62.0460172" lon="25.593828"/><trkpt lat="62.0460629" lon="25.5939003"/><trkpt lat="62.0470123" lon="25.5953611"/><trkpt lat="62.0489467" lon="25.5981383"/><trkpt lat="62.0521787" lon="25.602598"/><trkpt lat="62.0545186" lon="25.6058304"/><trkpt lat="62.055359" lon="25.6069917"/><trkpt lat="62.0606332" lon="25.6142607"/><trkpt lat="62.0609121" lon="25.6146231"/><trkpt lat="62.0620988" lon="25.6160595"/><trkpt lat="62.0625325" lon="25.6165301"/><trkpt lat="62.0634923" lon="25.6175188"/><trkpt lat="62.064424" lon="25.6183948"/><trkpt lat="62.0653646" lon="25.619163"/><trkpt lat="62.0663128" lon="25.6198838"/><trkpt lat="62.0668635" lon="25.6202386"/><trkpt lat="62.0705278" lon="25.6224874"/><trkpt lat="62.0749357" lon="25.6251587"/><trkpt lat="62.075" lon="25.6251966"/><trkpt lat="62.0791517" lon="25.6277223"/><trkpt lat="62.0806015" lon="25.628606"/><trkpt lat="62.0840393" lon="25.6307021"/><trkpt lat="62.0854267" lon="25.6315329"/><trkpt lat="62.0871292" lon="25.6325732"/><trkpt lat="62.0872135" lon="25.6326287"/><trkpt lat="62.0877727" lon="25.6329719"/><trkpt lat="62.0919987" lon="25.6355385"/><trkpt lat="62.0939865" lon="25.636726"/><trkpt lat="62.0960485" lon="25.6380084"/><trkpt lat="62.096413" lon="25.6382329"/><trkpt lat="62.100174" lon="25.6405254"/><trkpt lat="62.1031295" lon="25.6423803"/><trkpt lat="62.1034763" lon="25.6426382"/><trkpt lat="62.1041577" lon="25.6431639"/><trkpt lat="62.1043661" lon="25.6433391"/><trkpt lat="62.1049803" lon="25.6438928"/><trkpt lat="62.105385" lon="25.6442866"/><trkpt lat="62.105766" lon="25.6446755"/><trkpt lat="62.1064628" lon="25.6454289"/><trkpt lat="62.1071508" lon="25.6462129"/><trkpt lat="62.107721" lon="25.6468705"/><trkpt lat="62.1081406" lon="25.6473715"/><trkpt lat="62.1084471" lon="25.6477377"/><trkpt lat="62.1092234" lon="25.6487581"/><trkpt lat="62.109901" lon="25.6497146"/><trkpt lat="62.1104772" lon="25.650573"/><trkpt lat="62.110994" lon="25.6514345"/><trkpt lat="62.1114692" lon="25.6522482"/><trkpt lat="62.1119293" lon="25.6530786"/><trkpt lat="62.1123142" lon="25.6538192"/><trkpt lat="62.1124965" lon="25.6541785"/><trkpt lat="62.1128004" lon="25.6548001"/><trkpt lat="62.1140275" lon="25.6573719"/><trkpt lat="62.1142256" lon="25.6577895"/><trkpt lat="62.1144547" lon="25.658271"/><trkpt lat="62.1153251" lon="25.6601003"/><trkpt lat="62.1158295" lon="25.6609915"/><trkpt lat="62.1163377" lon="25.6621428"/><trkpt lat="62.1166896" lon="25.6629415"/><trkpt lat="62.1173551" lon="25.6644963"/><trkpt lat="62.1177593" lon="25.6654089"/><trkpt lat="62.1191267" lon="25.6685224"/><trkpt lat="62.1238034" lon="25.6791206"/><trkpt lat="62.1240549" lon="25.6796528"/><trkpt lat="62.1243835" lon="25.6803332"/><trkpt lat="62.1250277" lon="25.6815937"/><trkpt lat="62.1253584" lon="25.6821981"/><trkpt lat="62.1263624" lon="25.6839576"/><trkpt lat="62.1268512" lon="25.684728"/><trkpt lat="62.1281862" lon="25.6867122"/><trkpt lat="62.1295929" lon="25.6885508"/><trkpt lat="62.1297006" lon="25.6886916"/><trkpt lat="62.1319046" lon="25.6914376"/><trkpt lat="62.1320216" lon="25.6915918"/><trkpt lat="62.132493" lon="25.6921589"/><trkpt lat="62.1345011" lon="25.694678"/><trkpt lat="62.1353085" lon="25.6956668"/><trkpt lat="62.1355392" lon="25.6959513"/><trkpt lat="62.1398476" lon="25.7012658"/><trkpt lat="62.1402556" lon="25.7017385"/><trkpt lat="62.1407745" lon="25.7022743"/><trkpt lat="62.1412959" lon="25.7028032"/><trkpt lat="62.1419997" lon="25.7034866"/><trkpt lat="62.1427014" lon="25.7040857"/><trkpt lat="62.1437697" lon="25.7049141"/><trkpt lat="62.1451485" lon="25.705952"/><trkpt lat="62.145293" lon="25.7060564"/><trkpt lat="62.1468534" lon="25.7072603"/><trkpt lat="62.1485732" lon="25.7085872"/><trkpt lat="62.1486258" lon="25.7086208"/><trkpt lat="62.1493354" lon="25.7091803"/><trkpt lat="62.1495431" lon="25.7093378"/><trkpt lat="62.1547262" lon="25.7132849"/><trkpt lat="62.1570739" lon="25.7150729"/><trkpt lat="62.1655196" lon="25.7215422"/><trkpt lat="62.1685527" lon="25.7237971"/><trkpt lat="62.1695057" lon="25.7244266"/><trkpt lat="62.1704134" lon="25.7250015"/><trkpt lat="62.1709857" lon="25.7252855"/><trkpt lat="62.1715077" lon="25.7255201"/><trkpt lat="62.172893" lon="25.7260405"/><trkpt lat="62.1736439" lon="25.7262339"/><trkpt lat="62.1741737" lon="25.7263561"/><trkpt lat="62.1743919" lon="25.7263999"/><trkpt lat="62.1746689" lon="25.726444"/><trkpt lat="62.1747063" lon="25.7264499"/><trkpt lat="62.1750179" lon="25.7264844"/><trkpt lat="62.1755754" lon="25.7265458"/><trkpt lat="62.1762649" lon="25.7265917"/><trkpt lat="62.1769601" lon="25.7266044"/><trkpt lat="62.1776207" lon="25.7265756"/><trkpt lat="62.1782804" lon="25.7265252"/><trkpt lat="62.1822147" lon="25.7261289"/><trkpt lat="62.1828797" lon="25.7260608"/><trkpt lat="62.1831295" lon="25.7260367"/><trkpt lat="62.192078" lon="25.7251732"/><trkpt lat="62.1926903" lon="25.7251142"/><trkpt lat="62.1934245" lon="25.72503"/><trkpt lat="62.1947855" lon="25.7248991"/><trkpt lat="62.1968349" lon="25.7246919"/><trkpt lat="62.2010482" lon="25.7242651"/><trkpt lat="62.2042079" lon="25.7239549"/><trkpt lat="62.2047705" lon="25.7238999"/><trkpt lat="62.2049123" lon="25.7238885"/><trkpt lat="62.2074082" lon="25.7236529"/><trkpt lat="62.2100196" lon="25.72341"/><trkpt lat="62.2101995" lon="25.7233974"/><trkpt lat="62.210835" lon="25.7233444"/><trkpt lat="62.2119174" lon="25.723375"/><trkpt lat="62.2130084" lon="25.7234812"/><trkpt lat="62.21379" lon="25.7235654"/><trkpt lat="62.2139306" lon="25.7235819"/><trkpt lat="62.2144708" lon="25.7236355"/><trkpt lat="62.2189877" lon="25.7241014"/><trkpt lat="62.221787" lon="25.7243853"/><trkpt lat="62.222636" lon="25.7245152"/><trkpt lat="62.2230049" lon="25.7245957"/><trkpt lat="62.223586" lon="25.7247662"/><trkpt lat="62.2244798" lon="25.7251047"/><trkpt lat="62.2250263" lon="25.7253605"/><trkpt lat="62.2255484" lon="25.7256281"/><trkpt lat="62.2262272" lon="25.7260701"/><trkpt lat="62.2263565" lon="25.7261653"/><trkpt lat="62.2270704" lon="25.7266806"/><trkpt lat="62.2277669" lon="25.7272369"/><trkpt lat="62.228349" lon="25.7277808"/><trkpt lat="62.2289255" lon="25.7283719"/><trkpt lat="62.2296794" lon="25.7292216"/><trkpt lat="62.2304123" lon="25.730158"/><trkpt lat="62.2311986" lon="25.7312083"/><trkpt lat="62.2315108" lon="25.7316448"/><trkpt lat="62.2317538" lon="25.7319929"/><trkpt lat="62.231923" lon="25.7322724"/><trkpt lat="62.232316" lon="25.732962"/><trkpt lat="62.232577" lon="25.7334573"/><trkpt lat="62.2326357" lon="25.7335686"/><trkpt lat="62.232914" lon="25.7341492"/><trkpt lat="62.2331751" lon="25.7347203"/><trkpt lat="62.2334592" lon="25.7354236"/><trkpt lat="62.2337754" lon="25.7362923"/><trkpt lat="62.2340345" lon="25.737063"/><trkpt lat="62.2342246" lon="25.7376869"/><trkpt lat="62.2344724" lon="25.7385542"/><trkpt lat="62.2346178" lon="25.7390636"/><trkpt lat="62.2347294" lon="25.739468"/><trkpt lat="62.2347679" lon="25.7396038"/><trkpt lat="62.2350356" lon="25.7405475"/><trkpt lat="62.2351146" lon="25.7408715"/><trkpt lat="62.2353647" lon="25.7417691"/><trkpt lat="62.2354879" lon="25.7421917"/><trkpt lat="62.235641" lon="25.7427048"/><trkpt lat="62.2358578" lon="25.743357"/><trkpt lat="62.2362902" lon="25.7444742"/><trkpt lat="62.2368357" lon="25.7456528"/><trkpt lat="62.2369593" lon="25.7459016"/><trkpt lat="62.2370974" lon="25.7461796"/><trkpt lat="62.2375319" lon="25.7470538"/><trkpt lat="62.2375562" lon="25.7471029"/><trkpt lat="62.2387243" lon="25.7494538"/><trkpt lat="62.2390892" lon="25.7501885"/><trkpt lat="62.2405054" lon="25.7530386"/><trkpt lat="62.2405486" lon="25.7531253"/><trkpt lat="62.2419524" lon="25.755941"/></trkseg><trkseg><trkpt lat="61.6537411" lon="24.3754229"/><trkpt lat="61.6530325" lon="24.3738287"/><trkpt lat="61.6528424" lon="24.3734525"/><trkpt lat="61.6521124" lon="24.3720081"/><trkpt lat="61.6516844" lon="24.3711349"/><trkpt lat="61.6515297" lon="24.3708193"/><trkpt lat="61.6508487" lon="24.3694298"/><trkpt lat="61.6501335" lon="24.3679777"/><trkpt lat="61.6498187" lon="24.3673397"/><trkpt lat="61.6495118" lon="24.3667177"/><trkpt lat="61.6477565" lon="24.3632815"/><trkpt lat="61.6473452" lon="24.3624649"/><trkpt lat="61.6468556" lon="24.3616895"/><trkpt lat="61.6453444" lon="24.3595697"/><trkpt lat="61.6448528" lon="24.3589214"/><trkpt lat="61.6442522" lon="24.3581307"/><trkpt lat="61.6436276" lon="24.357276"/><trkpt lat="61.6429793" lon="24.3561983"/><trkpt lat="61.6425447" lon="24.3553474"/><trkpt lat="61.6421272" lon="24.354461"/><trkpt lat="61.6417359" lon="24.3534648"/><trkpt lat="61.6413568" lon="24.3523916"/><trkpt lat="61.6409717" lon="24.3510819"/><trkpt lat="61.6406106" lon="24.3495883"/><trkpt lat="61.639435" lon="24.3444869"/><trkpt lat="61.6378059" lon="24.3374049"/><trkpt lat="61.6374602" lon="24.3359604"/><trkpt lat="61.6370889" lon="24.3346515"/><trkpt lat="61.6358324" lon="24.3310026"/><trkpt lat="61.6354675" lon="24.3297318"/><trkpt lat="61.6350876" lon="24.3282483"/><trkpt lat="61.6350456" lon="24.3280344"/><trkpt lat="61.634807" lon="24.3268436"/><trkpt lat="61.6345587" lon="24.3253038"/><trkpt lat="61.6344737" lon="24.3245668"/><trkpt lat="61.6343553" lon="24.3232614"/><trkpt lat="61.6342868" lon="24.3217761"/><trkpt lat="61.634267" lon="24.3201776"/><trkpt lat="61.6342921" lon="24.3162479"/><trkpt lat="61.6342686" lon="24.3149548"/><trkpt lat="61.6341917" lon="24.3135474"/><trkpt lat="61.6340768" lon="24.3123778"/><trkpt lat="61.6338999" lon="24.3110667"/><trkpt lat="61.6336371" lon="24.3097055"/><trkpt lat="61.6332818" lon="24.3081606"/><trkpt lat="61.6328834" lon="24.3068023"/><trkpt lat="61.6322582" lon="24.3052517"/><trkpt lat="61.6316238" lon="24.3039112"/><trkpt lat="61.630955" lon="24.3027349"/><trkpt lat="61.6305888" lon="24.3021695"/><trkpt lat="61.6295189" lon="24.3004659"/><trkpt lat="61.6295057" lon="24.3004466"/><trkpt lat="61.6288808" lon="24.2995327"/><trkpt lat="61.6279194" lon="24.2979314"/><trkpt lat="61.6272724" lon="24.2966658"/><trkpt lat="61.6267587" lon="24.2954859"/><trkpt lat="61.6264945" lon="24.2948481"/><trkpt lat="61.6262383" lon="24.2941838"/><trkpt lat="61.6257804" lon="24.2929223"/><trkpt lat="61.6253819" lon="24.2916664"/><trkpt lat="61.6250855" lon="24.2906247"/><trkpt lat="61.6247721" lon="24.2894207"/><trkpt lat="61.6235127" lon="24.2843433"/><trkpt lat="61.6224181" lon="24.2798852"/><trkpt lat="61.6211436" lon="24.2747807"/><trkpt lat="61.6211341" lon="24.2747419"/><trkpt lat="61.6204538" lon="24.2720586"/><trkpt lat="61.6198437" lon="24.2696327"/><trkpt lat="61.6195568" lon="24.2684834"/><trkpt lat="61.6192865" lon="24.2673082"/><trkpt lat="61.6190468" lon="24.2660426"/><trkpt lat="61.6188399" lon="24.264759"/><trkpt lat="61.6187314" lon="24.263951"/><trkpt lat="61.6186383" lon="24.262996"/><trkpt lat="61.6185633" lon="24.2619683"/><trkpt lat="61.6185138" lon="24.2609387"/><trkpt lat="61.6184888" lon="24.2600532"/><trkpt lat="61.6184615" lon="24.2581526"/><trkpt lat="61.6184225" lon="24.2544058"/><trkpt lat="61.6183904" lon="24.2506411"/><trkpt lat="61.6183584" lon="24.2478813"/><trkpt lat="61.6183302" lon="24.2451009"/><trkpt lat="61.6182959" lon="24.2420489"/><trkpt lat="61.6182665" lon="24.238988"/><trkpt lat="61.6181917" lon="24.2312579"/><trkpt lat="61.6181692" lon="24.229532"/><trkpt lat="61.6181225" lon="24.2282288"/><trkpt lat="61.618054" lon="24.2269421"/><trkpt lat="61.6179845" lon="24.2262023"/><trkpt lat="61.6179163" lon="24.2255439"/><trkpt lat="61.6178317" lon="24.2248871"/><trkpt lat="61.6177499" lon="24.2242672"/><trkpt lat="61.6175488" lon="24.2230709"/><trkpt lat="61.6173604" lon="24.2221294"/><trkpt lat="61.6171035" lon="24.2210295"/><trkpt lat="61.6168877" lon="24.2202197"/><trkpt lat="61.616655" lon="24.2194364"/><trkpt lat="61.6161023" lon="24.2178512"/><trkpt lat="61.6145312" lon="24.2138623"/><trkpt lat="61.6132242" lon="24.2105045"/><trkpt lat="61.6124449" lon="24.2085178"/><trkpt lat="61.612241" lon="24.2079293"/><trkpt lat="61.6120487" lon="24.2073316"/><trkpt lat="61.6116614" lon="24.2059784"/><trkpt lat="61.6111984" lon="24.204056"/><trkpt lat="61.610159" lon="24.1995694"/><trkpt lat="61.6099287" lon="24.1982947"/><trkpt lat="61.6097127" lon="24.1969731"/><trkpt lat="61.6095173" lon="24.1952753"/><trkpt lat="61.6093781" lon="24.1938168"/><trkpt lat="61.6091512" lon="24.191575"/><trkpt lat="61.6088971" lon="24.1898289"/><trkpt lat="61.6085216" lon="24.1879534"/><trkpt lat="61.6080363" lon="24.1861584"/><trkpt lat="61.6076193" lon="24.1848621"/><trkpt lat="61.6070255" lon="24.183191"/><trkpt lat="61.6062738" lon="24.1810221"/><trkpt lat="61.6058511" lon="24.1797173"/><trkpt lat="61.6055217" lon="24.1786218"/><trkpt lat="61.605173" lon="24.1773568"/><trkpt lat="61.6049439" lon="24.1765021"/><trkpt lat="61.6046615" lon="24.1754257"/><trkpt lat="61.6042648" lon="24.1739195"/><trkpt lat="61.6037787" lon="24.1724236"/><trkpt lat="61.6033939" lon="24.1713332"/><trkpt lat="61.6029937" lon="24.1703902"/><trkpt lat="61.6025191" lon="24.169349"/><trkpt lat="61.6020719" lon="24.1684624"/><trkpt lat="61.6014249" lon="24.1674147"/><trkpt lat="61.6006628" lon="24.1663264"/><trkpt lat="61.5990599" lon="24.1641743"/><trkpt lat="61.5914959" lon="24.1540194"/><trkpt lat="61.5849286" lon="24.1452136"/><trkpt lat="61.583881" lon="24.143808"/><trkpt lat="61.5829633" lon="24.1425743"/><trkpt lat="61.5786788" lon="24.136826"/><trkpt lat="61.5763749" lon="24.1337528"/><trkpt lat="61.5687928" lon="24.1236017"/><trkpt lat="61.5642604" lon="24.1175178"/><trkpt lat="61.5612406" lon="24.1134862"/><trkpt lat="61.5609336" lon="24.1130727"/><trkpt lat="61.5600966" lon="24.1119031"/><trkpt lat="61.5594218" lon="24.1108885"/><trkpt lat="61.5587809" lon="24.1098201"/><trkpt lat="61.556677" lon="24.1059624"/><trkpt lat="61.554794" lon="24.1024188"/><trkpt lat="61.5545863" lon="24.1020279"/><trkpt lat="61.5543071" lon="24.1015036"/><trkpt lat="61.5542106" lon="24.1013203"/><trkpt lat="61.5538479" lon="24.100592"/><trkpt lat="61.5535354" lon="24.0999135"/><trkpt lat="61.553235" lon="24.0991922"/><trkpt lat="61.5530144" lon="24.0985876"/><trkpt lat="61.5527978" lon="24.0979812"/><trkpt lat="61.5524098" lon="24.0967398"/><trkpt lat="61.5521915" lon="24.095913"/><trkpt lat="61.5519812" lon="24.0950498"/><trkpt lat="61.5516572" lon="24.0934852"/><trkpt lat="61.551147" lon="24.0903576"/><trkpt lat="61.5508447" lon="24.0885038"/><trkpt lat="61.5504391" lon="24.0859784"/><trkpt lat="61.5502825" lon="24.0849994"/><trkpt lat="61.550217" lon="24.0845905"/><trkpt lat="61.5495028" lon="24.0800916"/><trkpt lat="61.5493849" lon="24.079349"/><trkpt lat="61.5490888" lon="24.0776996"/><trkpt lat="61.5488654" lon="24.0766291"/><trkpt lat="61.5485313" lon="24.0753006"/><trkpt lat="61.5482489" lon="24.0743716"/><trkpt lat="61.5478586" lon="24.0732845"/><trkpt lat="61.5473618" lon="24.0721494"/><trkpt lat="61.5468848" lon="24.0711754"/><trkpt lat="61.5458105" lon="24.0690683"/><trkpt lat="61.5457233" lon="24.0688963"/><trkpt lat="61.5451972" lon="24.0677165"/><trkpt lat="61.5448456" lon="24.0667511"/><trkpt lat="61.5445311" lon="24.0658131"/><trkpt lat="61.5441422" lon="24.0644878"/><trkpt lat="61.5439224" lon="24.0634392"/><trkpt lat="61.5428412" lon="24.057661"/><trkpt lat="61.5424626" lon="24.0557299"/><trkpt lat="61.5418233" lon="24.0524566"/><trkpt lat="61.541092" lon="24.048739"/><trkpt lat="61.5407787" lon="24.0472108"/><trkpt lat="61.5404936" lon="24.0458572"/><trkpt lat="61.5401206" lon="24.0441172"/><trkpt lat="61.5399989" lon="24.0436014"/><trkpt lat="61.5398689" lon="24.0431349"/><trkpt lat="61.5396173" lon="24.0423425"/><trkpt lat="61.5393935" lon="24.0417019"/><trkpt lat="61.5390972" lon="24.0409285"/><trkpt lat="61.5388799" lon="24.0404267"/><trkpt lat="61.5386669" lon="24.0399732"/><trkpt lat="61.53844" lon="24.0395264"/><trkpt lat="61.5382561" lon="24.0391948"/><trkpt lat="61.5380486" lon="24.0388532"/><trkpt lat="61.5375031" lon="24.0380302"/><trkpt lat="61.536953" lon="24.0372338"/><trkpt lat="61.5367321" lon="24.0369003"/><trkpt lat="61.5362044" lon="24.0361358"/><trkpt lat="61.5358081" lon="24.0355284"/><trkpt lat="61.5355407" lon="24.0351059"/><trkpt lat="61.5350673" lon="24.0342752"/><trkpt lat="61.5343269" lon="24.0328022"/><trkpt lat="61.5336169" lon="24.031254"/><trkpt lat="61.5329922" lon="24.0295702"/><trkpt lat="61.5323645" lon="24.027545"/><trkpt lat="61.5318528" lon="24.0255522"/><trkpt lat="61.5313551" lon="24.0231483"/><trkpt lat="61.5303374" lon="24.0182242"/><trkpt lat="61.5299651" lon="24.0167571"/><trkpt lat="61.5296338" lon="24.0156503"/><trkpt lat="61.5292509" lon="24.0146987"/><trkpt lat="61.5288884" lon="24.0138497"/><trkpt lat="61.5282813" lon="24.0127122"/><trkpt lat="61.5279922" lon="24.0122536"/><trkpt lat="61.5269678" lon="24.0107599"/><trkpt lat="61.5260037" lon="24.0096202"/><trkpt lat="61.525626" lon="24.0092357"/><trkpt lat="61.5243303" lon="24.0080336"/><trkpt lat="61.5237417" lon="24.0075954"/><trkpt lat="61.5229752" lon="24.0071906"/><trkpt lat="61.5225858" lon="24.007045"/><trkpt lat="61.5221891" lon="24.0069233"/><trkpt lat="61.5219" lon="24.0068907"/><trkpt lat="61.5210843" lon="24.0068347"/><trkpt lat="61.5204064" lon="24.0068498"/><trkpt lat="61.519739" lon="24.006831"/><trkpt lat="61.5194431" lon="24.0068387"/><trkpt lat="61.517789" lon="24.0068654"/><trkpt lat="61.5169214" lon="24.0068855"/><trkpt lat="61.516522" lon="24.0068875"/><trkpt lat="61.5152664" lon="24.0069066"/><trkpt lat="61.5146796" lon="24.0068766"/><trkpt lat="61.5140923" lon="24.0067968"/><trkpt lat="61.5133933" lon="24.0066208"/><trkpt lat="61.5127146" lon="24.0063846"/><trkpt lat="61.5121608" lon="24.0061249"/><trkpt lat="61.5116115" lon="24.0058235"/><trkpt lat="61.5109951" lon="24.0054212"/><trkpt lat="61.5102388" lon="24.0048236"/><trkpt lat="61.5096557" lon="24.0042912"/><trkpt lat="61.509056" lon="24.0036711"/><trkpt lat="61.5083428" lon="24.0028161"/><trkpt lat="61.5080879" lon="24.0024985"/><trkpt lat="61.5066882" lon="24.0007359"/><trkpt lat="61.5062259" lon="24.000169"/><trkpt lat="61.5057628" lon="23.9996414"/><trkpt lat="61.5054403" lon="23.9993214"/><trkpt lat="61.5031987" lon="23.9973082"/><trkpt lat="61.5013132" lon="23.99563"/><trkpt lat="61.500392" lon="23.9946239"/><trkpt lat="61.5002373" lon="23.9944082"/><trkpt lat="61.4996227" lon="23.9935939"/><trkpt lat="61.4990564" lon="23.9926795"/><trkpt lat="61.4985545" lon="23.9917592"/><trkpt lat="61.498149" lon="23.990891"/><trkpt lat="61.4976241" lon="23.9896515"/><trkpt lat="61.4973561" lon="23.9889213"/><trkpt lat="61.4970999" lon="23.9881673"/><trkpt lat="61.4966939" lon="23.986716"/><trkpt lat="61.4963021" lon="23.9851564"/><trkpt lat="61.4961549" lon="23.9844689"/><trkpt lat="61.4960612" lon="23.9840441"/><trkpt lat="61.4954217" lon="23.9810552"/><trkpt lat="61.4952521" lon="23.9803248"/><trkpt lat="61.4951311" lon="23.9798366"/><trkpt lat="61.4951056" lon="23.9797339"/><trkpt lat="61.4949586" lon="23.9791455"/><trkpt lat="61.4943817" lon="23.9771713"/><trkpt lat="61.4933021" lon="23.9734549"/><trkpt lat="61.4928043" lon="23.9717203"/><trkpt lat="61.4926641" lon="23.9712348"/><trkpt lat="61.492503" lon="23.9707579"/><trkpt lat="61.492289" lon="23.9701453"/><trkpt lat="61.4920317" lon="23.9695391"/><trkpt lat="61.4917961" lon="23.9690241"/><trkpt lat="61.4915338" lon="23.9684803"/><trkpt lat="61.4909172" lon="23.9674016"/><trkpt lat="61.4895747" lon="23.9652401"/><trkpt lat="61.4888447" lon="23.9640866"/><trkpt lat="61.4885725" lon="23.9636351"/><trkpt lat="61.4881481" lon="23.9629132"/><trkpt lat="61.4878599" lon="23.9623884"/><trkpt lat="61.48772" lon="23.9621338"/><trkpt lat="61.4872666" lon="23.9612262"/><trkpt lat="61.487068" lon="23.9607938"/><trkpt lat="61.4868786" lon="23.9603775"/><trkpt lat="61.486318" lon="23.9590001"/><trkpt lat="61.486265" lon="23.9588579"/><trkpt lat="61.4860032" lon="23.9581515"/><trkpt lat="61.4857307" lon="23.9572775"/><trkpt lat="61.4855415" lon="23.9566003"/><trkpt lat="61.48539" lon="23.9559793"/><trkpt lat="61.4852818" lon="23.9555031"/><trkpt lat="61.4851366" lon="23.9548009"/><trkpt lat="61.4849987" lon="23.9540408"/><trkpt lat="61.4847613" lon="23.9525711"/><trkpt lat="61.4844286" lon="23.9504496"/><trkpt lat="61.4843984" lon="23.9502907"/><trkpt lat="61.4841276" lon="23.9489002"/><trkpt lat="61.4840448" lon="23.9485195"/><trkpt lat="61.4837339" lon="23.9471755"/><trkpt lat="61.4833657" lon="23.9457915"/><trkpt lat="61.483059" lon="23.944766"/><trkpt lat="61.4825848" lon="23.9433441"/><trkpt lat="61.4824138" lon="23.9428228"/><trkpt lat="61.4816151" lon="23.9405621"/><trkpt lat="61.4812327" lon="23.9394937"/><trkpt lat="61.4810675" lon="23.9390096"/><trkpt lat="61.4809677" lon="23.938708"/><trkpt lat="61.4806982" lon="23.9378531"/><trkpt lat="61.4805472" lon="23.9373354"/><trkpt lat="61.4804199" lon="23.9368491"/><trkpt lat="61.4802576" lon="23.9361641"/><trkpt lat="61.4801402" lon="23.935615"/><trkpt lat="61.4800291" lon="23.9350424"/><trkpt lat="61.4799155" lon="23.9343888"/><trkpt lat="61.4798816" lon="23.93417"/><trkpt lat="61.4798219" lon="23.933756"/><trkpt lat="61.4797407" lon="23.9331677"/><trkpt lat="61.4796583" lon="23.9324199"/><trkpt lat="61.4795934" lon="23.9317297"/><trkpt lat="61.4795507" lon="23.9311556"/><trkpt lat="61.479537" lon="23.9309229"/><trkpt lat="61.4795115" lon="23.9304764"/><trkpt lat="61.4794886" lon="23.9299953"/><trkpt lat="61.4794746" lon="23.9295163"/><trkpt lat="61.4794696" lon="23.9288699"/><trkpt lat="61.4794796" lon="23.928096"/><trkpt lat="61.4794995" lon="23.9274769"/><trkpt lat="61.4795315" lon="23.9268556"/><trkpt lat="61.4795695" lon="23.9262574"/><trkpt lat="61.4796214" lon="23.9255567"/><trkpt lat="61.4796943" lon="23.9247827"/><trkpt lat="61.4798301" lon="23.9234393"/><trkpt lat="61.4799928" lon="23.9218289"/><trkpt lat="61.4800687" lon="23.921096"/><trkpt lat="61.4806299" lon="23.9157446"/><trkpt lat="61.4806917" lon="23.9151353"/><trkpt lat="61.4809058" lon="23.9130632"/><trkpt lat="61.481352" lon="23.9087388"/><trkpt lat="61.4815171" lon="23.907198"/><trkpt lat="61.4816922" lon="23.9054884"/><trkpt lat="61.4820724" lon="23.9017968"/><trkpt lat="61.4822996" lon="23.8996421"/><trkpt lat="61.482516" lon="23.8974894"/><trkpt lat="61.4826816" lon="23.8957468"/><trkpt lat="61.4827586" lon="23.8947568"/><trkpt lat="61.4828084" lon="23.8939706"/><trkpt lat="61.4828531" lon="23.8931088"/><trkpt lat="61.4828777" lon="23.892427"/><trkpt lat="61.482902" lon="23.891324"/><trkpt lat="61.4829932" lon="23.8851024"/><trkpt lat="61.483087" lon="23.8788084"/><trkpt lat="61.4831451" lon="23.8744997"/><trkpt lat="61.4831458" lon="23.8744463"/><trkpt lat="61.4831516" lon="23.8740433"/><trkpt lat="61.4831798" lon="23.872606"/><trkpt lat="61.4832053" lon="23.8717968"/><trkpt lat="61.4832513" lon="23.870797"/><trkpt lat="61.4833173" lon="23.8697116"/><trkpt lat="61.4833813" lon="23.8688769"/><trkpt lat="61.4834848" lon="23.8678121"/><trkpt lat="61.4836113" lon="23.8667304"/><trkpt lat="61.4837482" lon="23.8657427"/><trkpt lat="61.4840578" lon="23.8637199"/><trkpt lat="61.4845739" lon="23.8604379"/><trkpt lat="61.4848301" lon="23.8588255"/><trkpt lat="61.4850089" lon="23.8577001"/><trkpt lat="61.4853534" lon="23.855531"/><trkpt lat="61.4854828" lon="23.8547872"/><trkpt lat="61.4856682" lon="23.8538868"/><trkpt lat="61.4858666" lon="23.8530526"/><trkpt lat="61.486111" lon="23.852098"/><trkpt lat="61.4863223" lon="23.8512367"/><trkpt lat="61.486584" lon="23.8500834"/><trkpt lat="61.4867852" lon="23.8491589"/><trkpt lat="61.4870938" lon="23.8477942"/><trkpt lat="61.4874155" lon="23.8463676"/><trkpt lat="61.4877742" lon="23.8447364"/><trkpt lat="61.4878004" lon="23.8446173"/><trkpt lat="61.4878575" lon="23.8443575"/><trkpt lat="61.4879995" lon="23.8435896"/><trkpt lat="61.4880602" lon="23.8431817"/><trkpt lat="61.4881396" lon="23.8427012"/><trkpt lat="61.4882402" lon="23.8419258"/><trkpt lat="61.4883121" lon="23.8412256"/><trkpt lat="61.4883786" lon="23.8403297"/><trkpt lat="61.4885152" lon="23.8381841"/><trkpt lat="61.4886823" lon="23.8356056"/><trkpt lat="61.4887613" lon="23.8342542"/><trkpt lat="61.4888144" lon="23.833315"/><trkpt lat="61.4888442" lon="23.832531"/><trkpt lat="61.4888657" lon="23.8317624"/><trkpt lat="61.4888907" lon="23.8308099"/><trkpt lat="61.4888853" lon="23.8299065"/><trkpt lat="61.4888727" lon="23.8290558"/><trkpt lat="61.4888404" lon="23.8280545"/><trkpt lat="61.4887218" lon="23.825796"/><trkpt lat="61.4886481" lon="23.8244863"/><trkpt lat="61.4885733" lon="23.8232474"/><trkpt lat="61.4884769" lon="23.8215185"/><trkpt lat="61.4883878" lon="23.8199707"/><trkpt lat="61.4883646" lon="23.8192921"/><trkpt lat="61.4883455" lon="23.8185397"/><trkpt lat="61.4883353" lon="23.8179009"/><trkpt lat="61.4883397" lon="23.8172805"/><trkpt lat="61.4883558" lon="23.8165926"/><trkpt lat="61.4883778" lon="23.8159723"/><trkpt lat="61.4884188" lon="23.8152137"/><trkpt lat="61.4884672" lon="23.8145842"/><trkpt lat="61.4885317" lon="23.8138717"/><trkpt lat="61.4886065" lon="23.8131316"/><trkpt lat="61.4887149" lon="23.8123423"/><trkpt lat="61.4888093" lon="23.8116452"/><trkpt lat="61.489033" lon="23.8104444"/><trkpt lat="61.4894992" lon="23.8082517"/><trkpt lat="61.4897942" lon="23.8068722"/><trkpt lat="61.4899066" lon="23.8063554"/><trkpt lat="61.4905629" lon="23.8033627"/><trkpt lat="61.4909398" lon="23.8016081"/><trkpt lat="61.4910261" lon="23.8011923"/><trkpt lat="61.4911325" lon="23.8006424"/><trkpt lat="61.4912289" lon="23.8000925"/><trkpt lat="61.4913092" lon="23.7995618"/><trkpt lat="61.4913735" lon="23.7990969"/><trkpt lat="61.4914584" lon="23.7983322"/><trkpt lat="61.4915158" lon="23.7976861"/><trkpt lat="61.4915549" lon="23.7970672"/><trkpt lat="61.4915809" lon="23.7964099"/><trkpt lat="61.4915945" lon="23.7957447"/><trkpt lat="61.4915873" lon="23.7947956"/><trkpt lat="61.4915599" lon="23.7938691"/><trkpt lat="61.4914344" lon="23.7904704"/><trkpt lat="61.4914227" lon="23.7901267"/><trkpt lat="61.4914114" lon="23.7894728"/><trkpt lat="61.4914123" lon="23.7888241"/><trkpt lat="61.4914177" lon="23.7882821"/><trkpt lat="61.4914259" lon="23.78762"/><trkpt lat="61.4914441" lon="23.7865086"/><trkpt lat="61.4914797" lon="23.7850391"/><trkpt lat="61.4915404" lon="23.7825329"/><trkpt lat="61.4915495" lon="23.782193"/><trkpt lat="61.4915734" lon="23.7812362"/><trkpt lat="61.4915876" lon="23.7808865"/><trkpt lat="61.4916123" lon="23.7804383"/><trkpt lat="61.4916444" lon="23.7800477"/><trkpt lat="61.4916851" lon="23.7796669"/><trkpt lat="61.4917393" lon="23.7792829"/><trkpt lat="61.491796" lon="23.7789452"/><trkpt lat="61.4918598" lon="23.7786044"/><trkpt lat="61.4919326" lon="23.7782447"/><trkpt lat="61.4920155" lon="23.7778684"/><trkpt lat="61.4921758" lon="23.7771308"/><trkpt lat="61.4922447" lon="23.7768713"/><trkpt lat="61.4923283" lon="23.7765874"/><trkpt lat="61.4924274" lon="23.7762906"/><trkpt lat="61.492549" lon="23.7759856"/><trkpt lat="61.4926579" lon="23.7757362"/><trkpt lat="61.4927704" lon="23.775512"/><trkpt lat="61.4929029" lon="23.7752889"/><trkpt lat="61.4930313" lon="23.7750987"/><trkpt lat="61.4930698" lon="23.7750462"/><trkpt lat="61.4931715" lon="23.7749142"/><trkpt lat="61.493307" lon="23.7747537"/><trkpt lat="61.4934394" lon="23.7746174"/><trkpt lat="61.4935965" lon="23.7744909"/><trkpt lat="61.4937916" lon="23.7743579"/><trkpt lat="61.4939813" lon="23.7742654"/><trkpt lat="61.4941818" lon="23.7742005"/><trkpt lat="61.4943304" lon="23.7741602"/><trkpt lat="61.4947319" lon="23.7740511"/><trkpt lat="61.4949626" lon="23.774015"/><trkpt lat="61.4950156" lon="23.7740132"/><trkpt lat="61.4950736" lon="23.774011"/><trkpt lat="61.4954402" lon="23.7740037"/><trkpt lat="61.4961867" lon="23.7739693"/><trkpt lat="61.496204" lon="23.7739687"/><trkpt lat="61.4962529" lon="23.7739669"/><trkpt lat="61.4985696" lon="23.7738847"/></trkseg></trk></gpx>