<?xml version="1.0" encoding="utf-8" standalone="yes"?>
<gpx version="1.1" creator="GPS Visualizer https://www.gpsvisualizer.com/" xmlns="http://www.topografix.com/GPX/1/1" xmlns:xsi="http://www.w3.org/2001/XMLSchema-instance" xsi:schemaLocation="http://www.topografix.com/GPX/1/1 http://www.topografix.com/GPX/1/1/gpx.xsd">
<trk>
  <name>Day 2</name>
  <trkseg>
    <trkpt lat="67.559356748" lon="17.199332714">
      <ele>587.282</ele>
    </trkpt>
    <trkpt lat="67.55935" lon="17.19927">
      <ele>587.032</ele>
    </trkpt>
    <trkpt lat="67.55935" lon="17.19927">
      <ele>587.032</ele>
    </trkpt>
    <trkpt lat="67.55935" lon="17.19927">
      <ele>587.032</ele>
    </trkpt>
    <trkpt lat="67.55961" lon="17.20042">
      <ele>589.0</ele>
    </trkpt>
    <trkpt lat="67.55961" lon="17.20079">
      <ele>589.0</ele>
    </trkpt>
    <trkpt lat="67.55953" lon="17.20106">
      <ele>589.565</ele>
    </trkpt>
    <trkpt lat="67.55951" lon="17.20153">
      <ele>589.764</ele>
    </trkpt>
    <trkpt lat="67.55954" lon="17.20181">
      <ele>589.656</ele>
    </trkpt>
    <trkpt lat="67.55953" lon="17.20235">
      <ele>589.692</ele>
    </trkpt>
    <trkpt lat="67.55954" lon="17.20307">
      <ele>589.982</ele>
    </trkpt>
    <trkpt lat="67.55944" lon="17.20459">
      <ele>589.532</ele>
    </trkpt>
    <trkpt lat="67.55944" lon="17.20459">
      <ele>589.532</ele>
    </trkpt>
    <trkpt lat="67.55948" lon="17.20521">
      <ele>590.531</ele>
    </trkpt>
    <trkpt lat="67.55961" lon="17.20555">
      <ele>590.392</ele>
    </trkpt>
    <trkpt lat="67.55983" lon="17.20594">
      <ele>589.608</ele>
    </trkpt>
    <trkpt lat="67.5599" lon="17.20644">
      <ele>590.72</ele>
    </trkpt>
    <trkpt lat="67.55995" lon="17.20689">
      <ele>590.215</ele>
    </trkpt>
    <trkpt lat="67.56007" lon="17.20746">
      <ele>589.712</ele>
    </trkpt>
    <trkpt lat="67.56005" lon="17.20794">
      <ele>590.105</ele>
    </trkpt>
    <trkpt lat="67.55997" lon="17.20854">
      <ele>591.664</ele>
    </trkpt>
    <trkpt lat="67.56" lon="17.20941">
      <ele>592.0</ele>
    </trkpt>
    <trkpt lat="67.56" lon="17.21014">
      <ele>593.0</ele>
    </trkpt>
    <trkpt lat="67.55991" lon="17.21062">
      <ele>593.075</ele>
    </trkpt>
    <trkpt lat="67.55986" lon="17.21095">
      <ele>593.504</ele>
    </trkpt>
    <trkpt lat="67.55986" lon="17.21152">
      <ele>593.504</ele>
    </trkpt>
    <trkpt lat="67.55988" lon="17.21227">
      <ele>593.432</ele>
    </trkpt>
    <trkpt lat="67.55993" lon="17.21298">
      <ele>593.069</ele>
    </trkpt>
    <trkpt lat="67.55997" lon="17.21407">
      <ele>586.392</ele>
    </trkpt>
    <trkpt lat="67.56013" lon="17.21463">
      <ele>580.464</ele>
    </trkpt>
    <trkpt lat="67.56031" lon="17.2148">
      <ele>579.324</ele>
    </trkpt>
    <trkpt lat="67.56049" lon="17.2149">
      <ele>577.956</ele>
    </trkpt>
    <trkpt lat="67.56062" lon="17.21532">
      <ele>573.464</ele>
    </trkpt>
    <trkpt lat="67.56068" lon="17.21537">
      <ele>572.888</ele>
    </trkpt>
    <trkpt lat="67.56079" lon="17.21557">
      <ele>571.044</ele>
    </trkpt>
    <trkpt lat="67.56089" lon="17.21559">
      <ele>570.344</ele>
    </trkpt>
    <trkpt lat="67.56092" lon="17.21578">
      <ele>568.76</ele>
    </trkpt>
    <trkpt lat="67.56091" lon="17.21593">
      <ele>568.196</ele>
    </trkpt>
    <trkpt lat="67.56091" lon="17.21593">
      <ele>568.196</ele>
    </trkpt>
    <trkpt lat="67.56098" lon="17.21633">
      <ele>568.26</ele>
    </trkpt>
    <trkpt lat="67.56098" lon="17.21633">
      <ele>568.26</ele>
    </trkpt>
    <trkpt lat="67.56105" lon="17.21646">
      <ele>568.732</ele>
    </trkpt>
    <trkpt lat="67.56168" lon="17.21619">
      <ele>568.825</ele>
    </trkpt>
    <trkpt lat="67.56248" lon="17.2165">
      <ele>566.144</ele>
    </trkpt>
    <trkpt lat="67.56248" lon="17.2165">
      <ele>566.144</ele>
    </trkpt>
    <trkpt lat="67.56248" lon="17.2165">
      <ele>566.144</ele>
    </trkpt>
    <trkpt lat="67.56231" lon="17.21716">
      <ele>567.123</ele>
    </trkpt>
    <trkpt lat="67.56205" lon="17.21733">
      <ele>569.86</ele>
    </trkpt>
    <trkpt lat="67.56159" lon="17.2184">
      <ele>576.102</ele>
    </trkpt>
    <trkpt lat="67.56081" lon="17.21913">
      <ele>576.011</ele>
    </trkpt>
    <trkpt lat="67.56005" lon="17.21858">
      <ele>581.664</ele>
    </trkpt>
    <trkpt lat="67.55902" lon="17.21926">
      <ele>588.705</ele>
    </trkpt>
    <trkpt lat="67.55895" lon="17.21944">
      <ele>589.548</ele>
    </trkpt>
    <trkpt lat="67.55895" lon="17.21944">
      <ele>589.548</ele>
    </trkpt>
    <trkpt lat="67.55809" lon="17.22145">
      <ele>592.669</ele>
    </trkpt>
    <trkpt lat="67.55755" lon="17.22304">
      <ele>596.64</ele>
    </trkpt>
    <trkpt lat="67.55706" lon="17.22389">
      <ele>597.99</ele>
    </trkpt>
    <trkpt lat="67.55625" lon="17.2245">
      <ele>595.7</ele>
    </trkpt>
    <trkpt lat="67.55597" lon="17.22514">
      <ele>595.512</ele>
    </trkpt>
    <trkpt lat="67.55553" lon="17.22656">
      <ele>596.184</ele>
    </trkpt>
    <trkpt lat="67.55553" lon="17.22656">
      <ele>596.184</ele>
    </trkpt>
    <trkpt lat="67.55532" lon="17.22724">
      <ele>597.544</ele>
    </trkpt>
    <trkpt lat="67.55452" lon="17.22802">
      <ele>599.728</ele>
    </trkpt>
    <trkpt lat="67.55402" lon="17.23021">
      <ele>601.756</ele>
    </trkpt>
    <trkpt lat="67.55317" lon="17.23243">
      <ele>605.0</ele>
    </trkpt>
    <trkpt lat="67.5526" lon="17.23428">
      <ele>607.0</ele>
    </trkpt>
    <trkpt lat="67.55239" lon="17.23548">
      <ele>608.0</ele>
    </trkpt>
    <trkpt lat="67.5517" lon="17.23685">
      <ele>609.88</ele>
    </trkpt>
    <trkpt lat="67.5508" lon="17.23788">
      <ele>612.12</ele>
    </trkpt>
    <trkpt lat="67.55056" lon="17.23841">
      <ele>612.984</ele>
    </trkpt>
    <trkpt lat="67.55056" lon="17.23841">
      <ele>612.984</ele>
    </trkpt>
    <trkpt lat="67.54998" lon="17.24128">
      <ele>618.144</ele>
    </trkpt>
    <trkpt lat="67.54953" lon="17.24368">
      <ele>625.496</ele>
    </trkpt>
    <trkpt lat="67.54953" lon="17.24449">
      <ele>628.932</ele>
    </trkpt>
    <trkpt lat="67.54859" lon="17.24854">
      <ele>635.332</ele>
    </trkpt>
    <trkpt lat="67.54859" lon="17.24854">
      <ele>635.332</ele>
    </trkpt>
    <trkpt lat="67.5485" lon="17.24891">
      <ele>634.8</ele>
    </trkpt>
    <trkpt lat="67.54778" lon="17.25029">
      <ele>643.976</ele>
    </trkpt>
    <trkpt lat="67.54739" lon="17.25239">
      <ele>647.98</ele>
    </trkpt>
    <trkpt lat="67.54721" lon="17.25509">
      <ele>650.074</ele>
    </trkpt>
    <trkpt lat="67.54694" lon="17.2575">
      <ele>650.032</ele>
    </trkpt>
    <trkpt lat="67.54644" lon="17.25908">
      <ele>649.001</ele>
    </trkpt>
    <trkpt lat="67.54639" lon="17.2602">
      <ele>648.989</ele>
    </trkpt>
    <trkpt lat="67.5459" lon="17.26243">
      <ele>652.0</ele>
    </trkpt>
    <trkpt lat="67.54576" lon="17.26423">
      <ele>651.696</ele>
    </trkpt>
    <trkpt lat="67.54537" lon="17.26526">
      <ele>654.668</ele>
    </trkpt>
    <trkpt lat="67.54442" lon="17.26887">
      <ele>651.502</ele>
    </trkpt>
    <trkpt lat="67.54427" lon="17.27051">
      <ele>653.14</ele>
    </trkpt>
    <trkpt lat="67.54427" lon="17.27051">
      <ele>653.14</ele>
    </trkpt>
    <trkpt lat="67.54409" lon="17.27235">
      <ele>655.253</ele>
    </trkpt>
    <trkpt lat="67.54349" lon="17.27398">
      <ele>656.544</ele>
    </trkpt>
    <trkpt lat="67.54334" lon="17.27501">
      <ele>655.893</ele>
    </trkpt>
    <trkpt lat="67.54303" lon="17.27814">
      <ele>657.248</ele>
    </trkpt>
    <trkpt lat="67.54316" lon="17.28065">
      <ele>659.964</ele>
    </trkpt>
    <trkpt lat="67.5434" lon="17.28202">
      <ele>662.52</ele>
    </trkpt>
    <trkpt lat="67.54338" lon="17.28397">
      <ele>663.328</ele>
    </trkpt>
    <trkpt lat="67.54342" lon="17.28599">
      <ele>665.452</ele>
    </trkpt>
    <trkpt lat="67.54287" lon="17.29132">
      <ele>670.668</ele>
    </trkpt>
    <trkpt lat="67.54253" lon="17.29248">
      <ele>670.684</ele>
    </trkpt>
    <trkpt lat="67.54253" lon="17.29248">
      <ele>670.684</ele>
    </trkpt>
    <trkpt lat="67.54251" lon="17.29258">
      <ele>670.604</ele>
    </trkpt>
    <trkpt lat="67.54234" lon="17.29385">
      <ele>668.868</ele>
    </trkpt>
    <trkpt lat="67.54217" lon="17.29465">
      <ele>670.376</ele>
    </trkpt>
    <trkpt lat="67.54217" lon="17.29465">
      <ele>670.376</ele>
    </trkpt>
    <trkpt lat="67.54196" lon="17.29561">
      <ele>671.877</ele>
    </trkpt>
    <trkpt lat="67.54117" lon="17.30347">
      <ele>675.788</ele>
    </trkpt>
    <trkpt lat="67.54087" lon="17.30554">
      <ele>676.0</ele>
    </trkpt>
    <trkpt lat="67.54068" lon="17.30795">
      <ele>678.104</ele>
    </trkpt>
    <trkpt lat="67.54036" lon="17.30955">
      <ele>677.592</ele>
    </trkpt>
    <trkpt lat="67.54035" lon="17.31003">
      <ele>677.452</ele>
    </trkpt>
    <trkpt lat="67.54008" lon="17.31211">
      <ele>678.0</ele>
    </trkpt>
    <trkpt lat="67.53994" lon="17.31277">
      <ele>677.216</ele>
    </trkpt>
    <trkpt lat="67.53987" lon="17.31352">
      <ele>677.782</ele>
    </trkpt>
    <trkpt lat="67.5399" lon="17.31445">
      <ele>678.72</ele>
    </trkpt>
    <trkpt lat="67.5399" lon="17.31445">
      <ele>678.72</ele>
    </trkpt>
    <trkpt lat="67.53991" lon="17.31461">
      <ele>678.648</ele>
    </trkpt>
    <trkpt lat="67.53977" lon="17.31577">
      <ele>678.523</ele>
    </trkpt>
    <trkpt lat="67.53984" lon="17.31695">
      <ele>678.728</ele>
    </trkpt>
    <trkpt lat="67.54015" lon="17.31839">
      <ele>678.92</ele>
    </trkpt>
    <trkpt lat="67.54009" lon="17.31917">
      <ele>679.352</ele>
    </trkpt>
    <trkpt lat="67.54008" lon="17.31951">
      <ele>679.424</ele>
    </trkpt>
    <trkpt lat="67.53992" lon="17.32028">
      <ele>679.568</ele>
    </trkpt>
    <trkpt lat="67.53983" lon="17.32097">
      <ele>678.224</ele>
    </trkpt>
    <trkpt lat="67.53978" lon="17.32105">
      <ele>678.584</ele>
    </trkpt>
    <trkpt lat="67.53945" lon="17.32406">
      <ele>684.92</ele>
    </trkpt>
    <trkpt lat="67.53935" lon="17.32549">
      <ele>684.176</ele>
    </trkpt>
    <trkpt lat="67.53912" lon="17.32712">
      <ele>683.23</ele>
    </trkpt>
    <trkpt lat="67.53918" lon="17.32837">
      <ele>682.078</ele>
    </trkpt>
    <trkpt lat="67.53918" lon="17.32878">
      <ele>682.904</ele>
    </trkpt>
    <trkpt lat="67.53922" lon="17.32945">
      <ele>682.808</ele>
    </trkpt>
    <trkpt lat="67.53897" lon="17.33052">
      <ele>684.708</ele>
    </trkpt>
    <trkpt lat="67.53885" lon="17.33139">
      <ele>686.559</ele>
    </trkpt>
    <trkpt lat="67.53886" lon="17.33187">
      <ele>686.312</ele>
    </trkpt>
    <trkpt lat="67.53879" lon="17.33224">
      <ele>687.068</ele>
    </trkpt>
    <trkpt lat="67.53884" lon="17.33422">
      <ele>687.494</ele>
    </trkpt>
    <trkpt lat="67.53879" lon="17.33502">
      <ele>687.666</ele>
    </trkpt>
    <trkpt lat="67.53866" lon="17.33547">
      <ele>688.472</ele>
    </trkpt>
    <trkpt lat="67.53856" lon="17.33643">
      <ele>689.579</ele>
    </trkpt>
    <trkpt lat="67.53856" lon="17.33643">
      <ele>689.579</ele>
    </trkpt>
    <trkpt lat="67.53844" lon="17.33848">
      <ele>691.645</ele>
    </trkpt>
    <trkpt lat="67.53794" lon="17.34019">
      <ele>695.248</ele>
    </trkpt>
    <trkpt lat="67.53793" lon="17.34135">
      <ele>696.293</ele>
    </trkpt>
    <trkpt lat="67.53753" lon="17.34406">
      <ele>698.127</ele>
    </trkpt>
    <trkpt lat="67.53732" lon="17.34736">
      <ele>702.471</ele>
    </trkpt>
    <trkpt lat="67.53753" lon="17.34977">
      <ele>701.72</ele>
    </trkpt>
    <trkpt lat="67.53739" lon="17.35132">
      <ele>700.94</ele>
    </trkpt>
    <trkpt lat="67.53727" lon="17.35376">
      <ele>709.796</ele>
    </trkpt>
    <trkpt lat="67.53711" lon="17.35497">
      <ele>711.0</ele>
    </trkpt>
    <trkpt lat="67.53713" lon="17.35556">
      <ele>712.332</ele>
    </trkpt>
    <trkpt lat="67.53695" lon="17.35638">
      <ele>712.98</ele>
    </trkpt>
    <trkpt lat="67.53693" lon="17.35737">
      <ele>712.52</ele>
    </trkpt>
    <trkpt lat="67.53677" lon="17.3584">
      <ele>711.868</ele>
    </trkpt>
    <trkpt lat="67.53677" lon="17.3584">
      <ele>711.868</ele>
    </trkpt>
    <trkpt lat="67.53676" lon="17.35847">
      <ele>712.156</ele>
    </trkpt>
    <trkpt lat="67.53681" lon="17.35901">
      <ele>713.0</ele>
    </trkpt>
    <trkpt lat="67.53647" lon="17.36082">
      <ele>717.244</ele>
    </trkpt>
    <trkpt lat="67.53646" lon="17.36209">
      <ele>719.646</ele>
    </trkpt>
    <trkpt lat="67.53625" lon="17.36324">
      <ele>721.164</ele>
    </trkpt>
    <trkpt lat="67.53605" lon="17.36369">
      <ele>721.562</ele>
    </trkpt>
    <trkpt lat="67.53597" lon="17.36405">
      <ele>721.548</ele>
    </trkpt>
    <trkpt lat="67.53594" lon="17.36496">
      <ele>723.063</ele>
    </trkpt>
    <trkpt lat="67.53588" lon="17.36534">
      <ele>722.858</ele>
    </trkpt>
    <trkpt lat="67.53561" lon="17.36567">
      <ele>721.804</ele>
    </trkpt>
    <trkpt lat="67.53539" lon="17.36666">
      <ele>725.178</ele>
    </trkpt>
    <trkpt lat="67.53509" lon="17.36716">
      <ele>726.1</ele>
    </trkpt>
    <trkpt lat="67.53496" lon="17.36763">
      <ele>729.147</ele>
    </trkpt>
    <trkpt lat="67.53446" lon="17.36853">
      <ele>738.692</ele>
    </trkpt>
    <trkpt lat="67.5343" lon="17.36947">
      <ele>740.48</ele>
    </trkpt>
    <trkpt lat="67.53377" lon="17.37009">
      <ele>739.387</ele>
    </trkpt>
    <trkpt lat="67.53377" lon="17.37009">
      <ele>739.387</ele>
    </trkpt>
    <trkpt lat="67.53373" lon="17.37014">
      <ele>739.212</ele>
    </trkpt>
    <trkpt lat="67.5335" lon="17.37111">
      <ele>738.804</ele>
    </trkpt>
    <trkpt lat="67.53306" lon="17.37229">
      <ele>739.944</ele>
    </trkpt>
    <trkpt lat="67.53301" lon="17.3732">
      <ele>739.656</ele>
    </trkpt>
    <trkpt lat="67.5331" lon="17.37412">
      <ele>738.72</ele>
    </trkpt>
    <trkpt lat="67.53307" lon="17.37513">
      <ele>738.584</ele>
    </trkpt>
    <trkpt lat="67.53295" lon="17.37586">
      <ele>740.52</ele>
    </trkpt>
    <trkpt lat="67.53243" lon="17.37702">
      <ele>741.476</ele>
    </trkpt>
    <trkpt lat="67.53216" lon="17.37727">
      <ele>739.38</ele>
    </trkpt>
    <trkpt lat="67.53174" lon="17.37717">
      <ele>738.974</ele>
    </trkpt>
    <trkpt lat="67.53168" lon="17.378">
      <ele>737.952</ele>
    </trkpt>
    <trkpt lat="67.5313" lon="17.37873">
      <ele>741.172</ele>
    </trkpt>
    <trkpt lat="67.53109" lon="17.37985">
      <ele>742.152</ele>
    </trkpt>
    <trkpt lat="67.5311" lon="17.3803">
      <ele>742.157</ele>
    </trkpt>
    <trkpt lat="67.53108" lon="17.38037">
      <ele>742.519</ele>
    </trkpt>
    <trkpt lat="67.53108" lon="17.38037">
      <ele>742.519</ele>
    </trkpt>
    <trkpt lat="67.53085" lon="17.38135">
      <ele>744.0</ele>
    </trkpt>
    <trkpt lat="67.53073" lon="17.38169">
      <ele>743.628</ele>
    </trkpt>
    <trkpt lat="67.53007" lon="17.38225">
      <ele>747.244</ele>
    </trkpt>
    <trkpt lat="67.52984" lon="17.38302">
      <ele>751.806</ele>
    </trkpt>
    <trkpt lat="67.52915" lon="17.38397">
      <ele>754.88</ele>
    </trkpt>
    <trkpt lat="67.52892" lon="17.38461">
      <ele>753.112</ele>
    </trkpt>
    <trkpt lat="67.52839" lon="17.38463">
      <ele>749.408</ele>
    </trkpt>
    <trkpt lat="67.528329176" lon="17.384536976">
      <ele>748.995</ele>
    </trkpt>
    <trkpt lat="67.526951037" lon="17.385864258">
      <ele>754.796</ele>
    </trkpt>
    <trkpt lat="67.527024338" lon="17.38602232">
      <ele>753.365</ele>
    </trkpt>
    <trkpt lat="67.52694" lon="17.38629">
      <ele>754.08</ele>
    </trkpt>
    <trkpt lat="67.52688" lon="17.38691">
      <ele>755.16</ele>
    </trkpt>
    <trkpt lat="67.52665" lon="17.38786">
      <ele>757.866</ele>
    </trkpt>
    <trkpt lat="67.52647" lon="17.38829">
      <ele>756.728</ele>
    </trkpt>
    <trkpt lat="67.52601" lon="17.38841">
      <ele>756.812</ele>
    </trkpt>
    <trkpt lat="67.52558" lon="17.38787">
      <ele>762.463</ele>
    </trkpt>
    <trkpt lat="67.52558" lon="17.38787">
      <ele>762.463</ele>
    </trkpt>
    <trkpt lat="67.52537" lon="17.38872">
      <ele>762.874</ele>
    </trkpt>
    <trkpt lat="67.52537" lon="17.38872">
      <ele>762.874</ele>
    </trkpt>
    <trkpt lat="67.52514" lon="17.38966">
      <ele>764.593</ele>
    </trkpt>
    <trkpt lat="67.5251" lon="17.39073">
      <ele>766.962</ele>
    </trkpt>
    <trkpt lat="67.5249" lon="17.39124">
      <ele>769.089</ele>
    </trkpt>
    <trkpt lat="67.52471" lon="17.39149">
      <ele>768.68</ele>
    </trkpt>
    <trkpt lat="67.5244" lon="17.39132">
      <ele>770.616</ele>
    </trkpt>
    <trkpt lat="67.52423" lon="17.39137">
      <ele>770.856</ele>
    </trkpt>
    <trkpt lat="67.52415" lon="17.39162">
      <ele>770.348</ele>
    </trkpt>
    <trkpt lat="67.52348" lon="17.39287">
      <ele>773.224</ele>
    </trkpt>
    <trkpt lat="67.52338" lon="17.39337">
      <ele>772.218</ele>
    </trkpt>
    <trkpt lat="67.52319" lon="17.39374">
      <ele>773.6</ele>
    </trkpt>
    <trkpt lat="67.52294" lon="17.39447">
      <ele>773.21</ele>
    </trkpt>
    <trkpt lat="67.52264" lon="17.39472">
      <ele>775.992</ele>
    </trkpt>
    <trkpt lat="67.52224" lon="17.39522">
      <ele>781.693</ele>
    </trkpt>
    <trkpt lat="67.52192" lon="17.39599">
      <ele>784.612</ele>
    </trkpt>
    <trkpt lat="67.52015" lon="17.39769">
      <ele>789.92</ele>
    </trkpt>
    <trkpt lat="67.51991" lon="17.3987">
      <ele>791.328</ele>
    </trkpt>
    <trkpt lat="67.51976" lon="17.39888">
      <ele>791.76</ele>
    </trkpt>
    <trkpt lat="67.51966" lon="17.39939">
      <ele>792.448</ele>
    </trkpt>
    <trkpt lat="67.51911" lon="17.40049">
      <ele>794.0</ele>
    </trkpt>
    <trkpt lat="67.51898" lon="17.40123">
      <ele>792.244</ele>
    </trkpt>
    <trkpt lat="67.51859" lon="17.40234">
      <ele>792.0</ele>
    </trkpt>
    <trkpt lat="67.51859" lon="17.40234">
      <ele>792.0</ele>
    </trkpt>
    <trkpt lat="67.51843" lon="17.40279">
      <ele>791.652</ele>
    </trkpt>
    <trkpt lat="67.51817" lon="17.40294">
      <ele>791.657</ele>
    </trkpt>
    <trkpt lat="67.51758" lon="17.40352">
      <ele>793.752</ele>
    </trkpt>
    <trkpt lat="67.51697" lon="17.40315">
      <ele>795.121</ele>
    </trkpt>
    <trkpt lat="67.51697" lon="17.40315">
      <ele>795.121</ele>
    </trkpt>
    <trkpt lat="67.51678" lon="17.40313">
      <ele>795.0</ele>
    </trkpt>
    <trkpt lat="67.51654" lon="17.40294">
      <ele>795.912</ele>
    </trkpt>
    <trkpt lat="67.5162" lon="17.40309">
      <ele>798.956</ele>
    </trkpt>
    <trkpt lat="67.51602" lon="17.40341">
      <ele>799.38</ele>
    </trkpt>
    <trkpt lat="67.51567" lon="17.40363">
      <ele>801.696</ele>
    </trkpt>
    <trkpt lat="67.51563" lon="17.40405">
      <ele>801.196</ele>
    </trkpt>
    <trkpt lat="67.51544" lon="17.40413">
      <ele>803.303</ele>
    </trkpt>
    <trkpt lat="67.51515" lon="17.40452">
      <ele>805.255</ele>
    </trkpt>
    <trkpt lat="67.51483" lon="17.40538">
      <ele>805.612</ele>
    </trkpt>
    <trkpt lat="67.51479" lon="17.40589">
      <ele>806.05</ele>
    </trkpt>
    <trkpt lat="67.5146" lon="17.40603">
      <ele>805.688</ele>
    </trkpt>
    <trkpt lat="67.51432" lon="17.40607">
      <ele>804.7</ele>
    </trkpt>
    <trkpt lat="67.51393" lon="17.40693">
      <ele>805.956</ele>
    </trkpt>
    <trkpt lat="67.51351" lon="17.40723">
      <ele>806.382</ele>
    </trkpt>
    <trkpt lat="67.51299" lon="17.4074">
      <ele>807.0</ele>
    </trkpt>
    <trkpt lat="67.5123" lon="17.40775">
      <ele>807.972</ele>
    </trkpt>
    <trkpt lat="67.51186" lon="17.40823">
      <ele>811.236</ele>
    </trkpt>
    <trkpt lat="67.51148" lon="17.4084">
      <ele>812.328</ele>
    </trkpt>
    <trkpt lat="67.51121" lon="17.40863">
      <ele>812.0</ele>
    </trkpt>
    <trkpt lat="67.51094" lon="17.40864">
      <ele>812.0</ele>
    </trkpt>
    <trkpt lat="67.51071" lon="17.4088">
      <ele>812.0</ele>
    </trkpt>
    <trkpt lat="67.51062" lon="17.40876">
      <ele>812.0</ele>
    </trkpt>
    <trkpt lat="67.51045" lon="17.40842">
      <ele>812.261</ele>
    </trkpt>
    <trkpt lat="67.51016" lon="17.40836">
      <ele>812.945</ele>
    </trkpt>
    <trkpt lat="67.51004" lon="17.40816">
      <ele>813.534</ele>
    </trkpt>
    <trkpt lat="67.50966" lon="17.40821">
      <ele>814.224</ele>
    </trkpt>
    <trkpt lat="67.50952" lon="17.40833">
      <ele>814.728</ele>
    </trkpt>
    <trkpt lat="67.50857" lon="17.40884">
      <ele>818.972</ele>
    </trkpt>
    <trkpt lat="67.50857" lon="17.40884">
      <ele>818.972</ele>
    </trkpt>
    <trkpt lat="67.50803" lon="17.40912">
      <ele>821.015</ele>
    </trkpt>
    <trkpt lat="67.50745" lon="17.4091">
      <ele>821.24</ele>
    </trkpt>
    <trkpt lat="67.50715" lon="17.40885">
      <ele>821.776</ele>
    </trkpt>
    <trkpt lat="67.50702" lon="17.40887">
      <ele>821.322</ele>
    </trkpt>
    <trkpt lat="67.50646" lon="17.40869">
      <ele>822.46</ele>
    </trkpt>
    <trkpt lat="67.50576" lon="17.40961">
      <ele>824.353</ele>
    </trkpt>
    <trkpt lat="67.50555" lon="17.40958">
      <ele>827.02</ele>
    </trkpt>
    <trkpt lat="67.50539" lon="17.40923">
      <ele>827.908</ele>
    </trkpt>
    <trkpt lat="67.50533" lon="17.40847">
      <ele>829.508</ele>
    </trkpt>
    <trkpt lat="67.50524" lon="17.40809">
      <ele>829.983</ele>
    </trkpt>
    <trkpt lat="67.50428" lon="17.4068">
      <ele>833.236</ele>
    </trkpt>
    <trkpt lat="67.50396" lon="17.40674">
      <ele>833.472</ele>
    </trkpt>
    <trkpt lat="67.50345" lon="17.40646">
      <ele>835.636</ele>
    </trkpt>
    <trkpt lat="67.5029" lon="17.40657">
      <ele>835.696</ele>
    </trkpt>
    <trkpt lat="67.50253" lon="17.40641">
      <ele>836.848</ele>
    </trkpt>
    <trkpt lat="67.50222" lon="17.40611">
      <ele>836.988</ele>
    </trkpt>
    <trkpt lat="67.50207" lon="17.40491">
      <ele>840.0</ele>
    </trkpt>
    <trkpt lat="67.5016" lon="17.40337">
      <ele>837.28</ele>
    </trkpt>
    <trkpt lat="67.50138" lon="17.40307">
      <ele>835.98</ele>
    </trkpt>
    <trkpt lat="67.50071" lon="17.40315">
      <ele>838.397</ele>
    </trkpt>
    <trkpt lat="67.50023" lon="17.40387">
      <ele>839.412</ele>
    </trkpt>
    <trkpt lat="67.50016" lon="17.40403">
      <ele>839.34</ele>
    </trkpt>
    <trkpt lat="67.50016" lon="17.40403">
      <ele>839.34</ele>
    </trkpt>
    <trkpt lat="67.4991" lon="17.40629">
      <ele>839.836</ele>
    </trkpt>
    <trkpt lat="67.49889" lon="17.40703">
      <ele>838.684</ele>
    </trkpt>
    <trkpt lat="67.49874" lon="17.40719">
      <ele>839.188</ele>
    </trkpt>
    <trkpt lat="67.49841" lon="17.40798">
      <ele>839.523</ele>
    </trkpt>
    <trkpt lat="67.49791" lon="17.40809">
      <ele>841.465</ele>
    </trkpt>
    <trkpt lat="67.49771" lon="17.4071">
      <ele>842.577</ele>
    </trkpt>
    <trkpt lat="67.49707" lon="17.40602">
      <ele>844.548</ele>
    </trkpt>
    <trkpt lat="67.49635" lon="17.40758">
      <ele>845.992</ele>
    </trkpt>
    <trkpt lat="67.49609" lon="17.40845">
      <ele>845.656</ele>
    </trkpt>
    <trkpt lat="67.49549" lon="17.40907">
      <ele>846.472</ele>
    </trkpt>
    <trkpt lat="67.49527" lon="17.40955">
      <ele>848.028</ele>
    </trkpt>
    <trkpt lat="67.49431" lon="17.41083">
      <ele>851.496</ele>
    </trkpt>
    <trkpt lat="67.49353" lon="17.41139">
      <ele>847.0</ele>
    </trkpt>
    <trkpt lat="67.49312" lon="17.41216">
      <ele>847.94</ele>
    </trkpt>
    <trkpt lat="67.49292" lon="17.41215">
      <ele>849.236</ele>
    </trkpt>
    <trkpt lat="67.49252" lon="17.41274">
      <ele>849.928</ele>
    </trkpt>
    <trkpt lat="67.49232" lon="17.41321">
      <ele>849.092</ele>
    </trkpt>
    <trkpt lat="67.49192" lon="17.41372">
      <ele>850.054</ele>
    </trkpt>
    <trkpt lat="67.49175" lon="17.41384">
      <ele>850.123</ele>
    </trkpt>
    <trkpt lat="67.49175" lon="17.41384">
      <ele>850.123</ele>
    </trkpt>
    <trkpt lat="67.49158" lon="17.41398">
      <ele>850.21</ele>
    </trkpt>
    <trkpt lat="67.49045" lon="17.41569">
      <ele>851.46</ele>
    </trkpt>
    <trkpt lat="67.49028" lon="17.416">
      <ele>852.976</ele>
    </trkpt>
    <trkpt lat="67.4901" lon="17.41713">
      <ele>852.612</ele>
    </trkpt>
    <trkpt lat="67.48999" lon="17.41745">
      <ele>852.294</ele>
    </trkpt>
    <trkpt lat="67.48977" lon="17.4176">
      <ele>853.528</ele>
    </trkpt>
    <trkpt lat="67.48905" lon="17.41771">
      <ele>855.386</ele>
    </trkpt>
    <trkpt lat="67.48877" lon="17.41729">
      <ele>857.621</ele>
    </trkpt>
    <trkpt lat="67.48836" lon="17.41735">
      <ele>856.54</ele>
    </trkpt>
    <trkpt lat="67.48822" lon="17.41725">
      <ele>856.9</ele>
    </trkpt>
    <trkpt lat="67.48783" lon="17.41728">
      <ele>856.792</ele>
    </trkpt>
    <trkpt lat="67.48644" lon="17.41834">
      <ele>856.792</ele>
    </trkpt>
    <trkpt lat="67.48594" lon="17.41979">
      <ele>858.766</ele>
    </trkpt>
    <trkpt lat="67.48536" lon="17.42063">
      <ele>863.079</ele>
    </trkpt>
    <trkpt lat="67.48396" lon="17.4229">
      <ele>860.56</ele>
    </trkpt>
    <trkpt lat="67.48334" lon="17.42359">
      <ele>860.978</ele>
    </trkpt>
    <trkpt lat="67.48334" lon="17.42359">
      <ele>860.978</ele>
    </trkpt>
    <trkpt lat="67.48327" lon="17.42367">
      <ele>860.836</ele>
    </trkpt>
    <trkpt lat="67.48302" lon="17.42432">
      <ele>860.256</ele>
    </trkpt>
    <trkpt lat="67.48302" lon="17.42432">
      <ele>860.256</ele>
    </trkpt>
    <trkpt lat="67.4829" lon="17.42463">
      <ele>860.746</ele>
    </trkpt>
    <trkpt lat="67.48241" lon="17.42518">
      <ele>861.676</ele>
    </trkpt>
    <trkpt lat="67.48194" lon="17.42561">
      <ele>862.823</ele>
    </trkpt>
    <trkpt lat="67.48167" lon="17.4262">
      <ele>864.644</ele>
    </trkpt>
    <trkpt lat="67.48153" lon="17.42657">
      <ele>864.995</ele>
    </trkpt>
    <trkpt lat="67.48108" lon="17.42688">
      <ele>865.55</ele>
    </trkpt>
    <trkpt lat="67.48073" lon="17.4266">
      <ele>867.48</ele>
    </trkpt>
    <trkpt lat="67.48023" lon="17.42654">
      <ele>866.456</ele>
    </trkpt>
    <trkpt lat="67.47995" lon="17.427">
      <ele>864.8</ele>
    </trkpt>
    <trkpt lat="67.47934" lon="17.42838">
      <ele>867.376</ele>
    </trkpt>
    <trkpt lat="67.47924" lon="17.42934">
      <ele>866.736</ele>
    </trkpt>
    <trkpt lat="67.47902" lon="17.43008">
      <ele>865.904</ele>
    </trkpt>
    <trkpt lat="67.47869" lon="17.4307">
      <ele>864.852</ele>
    </trkpt>
    <trkpt lat="67.47803" lon="17.43145">
      <ele>864.964</ele>
    </trkpt>
    <trkpt lat="67.47758" lon="17.43237">
      <ele>865.757</ele>
    </trkpt>
    <trkpt lat="67.47721" lon="17.43283">
      <ele>867.088</ele>
    </trkpt>
    <trkpt lat="67.47617" lon="17.43563">
      <ele>870.097</ele>
    </trkpt>
    <trkpt lat="67.47569" lon="17.43647">
      <ele>868.74</ele>
    </trkpt>
    <trkpt lat="67.47535" lon="17.43761">
      <ele>869.824</ele>
    </trkpt>
    <trkpt lat="67.47492" lon="17.43876">
      <ele>872.194</ele>
    </trkpt>
    <trkpt lat="67.47492" lon="17.43876">
      <ele>872.194</ele>
    </trkpt>
    <trkpt lat="67.47416" lon="17.44061">
      <ele>871.828</ele>
    </trkpt>
    <trkpt lat="67.47376" lon="17.44071">
      <ele>872.908</ele>
    </trkpt>
    <trkpt lat="67.47282" lon="17.44144">
      <ele>874.356</ele>
    </trkpt>
    <trkpt lat="67.47282" lon="17.44144">
      <ele>874.356</ele>
    </trkpt>
    <trkpt lat="67.47284" lon="17.44228">
      <ele>873.713</ele>
    </trkpt>
    <trkpt lat="67.47314" lon="17.44305">
      <ele>872.392</ele>
    </trkpt>
    <trkpt lat="67.47326" lon="17.44435">
      <ele>871.306</ele>
    </trkpt>
    <trkpt lat="67.47318" lon="17.44465">
      <ele>871.8</ele>
    </trkpt>
    <trkpt lat="67.47234" lon="17.44629">
      <ele>875.084</ele>
    </trkpt>
    <trkpt lat="67.47234" lon="17.44629">
      <ele>875.084</ele>
    </trkpt>
    <trkpt lat="67.47213" lon="17.44705">
      <ele>875.742</ele>
    </trkpt>
    <trkpt lat="67.4715" lon="17.44864">
      <ele>880.338</ele>
    </trkpt>
    <trkpt lat="67.47139" lon="17.44912">
      <ele>880.156</ele>
    </trkpt>
    <trkpt lat="67.47086" lon="17.45062">
      <ele>884.406</ele>
    </trkpt>
    <trkpt lat="67.47043" lon="17.4516">
      <ele>887.808</ele>
    </trkpt>
    <trkpt lat="67.47032" lon="17.45195">
      <ele>889.223</ele>
    </trkpt>
    <trkpt lat="67.47019" lon="17.45206">
      <ele>890.347</ele>
    </trkpt>
    <trkpt lat="67.46856" lon="17.45679">
      <ele>899.552</ele>
    </trkpt>
    <trkpt lat="67.46836" lon="17.4574">
      <ele>901.616</ele>
    </trkpt>
    <trkpt lat="67.46817" lon="17.4579">
      <ele>902.764</ele>
    </trkpt>
    <trkpt lat="67.46794" lon="17.4588">
      <ele>904.435</ele>
    </trkpt>
    <trkpt lat="67.4675" lon="17.46018">
      <ele>904.352</ele>
    </trkpt>
    <trkpt lat="67.4671" lon="17.46106">
      <ele>902.624</ele>
    </trkpt>
    <trkpt lat="67.46694" lon="17.46187">
      <ele>903.0</ele>
    </trkpt>
    <trkpt lat="67.46664" lon="17.46248">
      <ele>903.935</ele>
    </trkpt>
    <trkpt lat="67.4665" lon="17.46297">
      <ele>904.415</ele>
    </trkpt>
    <trkpt lat="67.4665" lon="17.46297">
      <ele>904.415</ele>
    </trkpt>
    <trkpt lat="67.46629" lon="17.46372">
      <ele>905.356</ele>
    </trkpt>
    <trkpt lat="67.46614" lon="17.46412">
      <ele>905.896</ele>
    </trkpt>
    <trkpt lat="67.46572" lon="17.46566">
      <ele>907.0</ele>
    </trkpt>
    <trkpt lat="67.465198806" lon="17.467106131">
      <ele>909.0</ele>
    </trkpt>
    <trkpt lat="67.465204492" lon="17.467124462">
      <ele>909.0</ele>
    </trkpt>
  </trkseg>
</trk>
</gpx>
