<?xml version="1.0"?>
<gpx xmlns="http://www.topografix.com/GPX/1/1" xmlns:gpxx="http://www.garmin.com/xmlschemas/GpxExtensions/v3" creator="CALTOPO" version="1.1"><metadata><name><![CDATA[Map Items]]></name></metadata><trk><extensions><gpxx:TrackExtension><gpxx:DisplayColor>Red</gpxx:DisplayColor></gpxx:TrackExtension></extensions><trkseg><trkpt lat="67.46493752508559" lon="17.467403411865238"/><trkpt lat="67.46388487769576" lon="17.46706008911133"/><trkpt lat="67.46217422627954" lon="17.465000152587894"/><trkpt lat="67.46039765030334" lon="17.463970184326175"/><trkpt lat="67.45802867584786" lon="17.463970184326175"/><trkpt lat="67.45664666509583" lon="17.464485168457035"/><trkpt lat="67.45500130948699" lon="17.467746734619144"/><trkpt lat="67.45361912281166" lon="17.47255325317383"/><trkpt lat="67.45184190763742" lon="17.47461318969727"/><trkpt lat="67.45019621964052" lon="17.471694946289066"/><trkpt lat="67.44920875219755" lon="17.46963500976563"/><trkpt lat="67.44795790126616" lon="17.469463348388675"/><trkpt lat="67.44657530530625" lon="17.469463348388675"/><trkpt lat="67.44492925298468" lon="17.46980667114258"/><trkpt lat="67.4427562895688" lon="17.46963500976563"/><trkpt lat="67.44097826283064" lon="17.468261718750004"/><trkpt lat="67.43946354269109" lon="17.46809005737305"/><trkpt lat="67.43755354077368" lon="17.467918395996097"/><trkpt lat="67.43590686439104" lon="17.468433380126957"/><trkpt lat="67.43406245161908" lon="17.468948364257816"/><trkpt lat="67.4328108044341" lon="17.469291687011722"/><trkpt lat="67.4310320347233" lon="17.470149993896488"/><trkpt lat="67.4293190197867" lon="17.47358322143555"/><trkpt lat="67.42833068588706" lon="17.47856140136719"/><trkpt lat="67.42727641785298" lon="17.483196258544925"/><trkpt lat="67.42628799918721" lon="17.48680114746094"/><trkpt lat="67.42503594332679" lon="17.48954772949219"/><trkpt lat="67.42371791868845" lon="17.492122650146488"/><trkpt lat="67.42292706890048" lon="17.494010925292972"/><trkpt lat="67.42239982112268" lon="17.495384216308597"/><trkpt lat="67.42154301859601" lon="17.496929168701175"/><trkpt lat="67.42015888788298" lon="17.49881744384766"/><trkpt lat="67.41857692574652" lon="17.496929168701175"/><trkpt lat="67.41732446456503" lon="17.494182586669925"/><trkpt lat="67.41607193755192" lon="17.492980957031254"/><trkpt lat="67.41389633942502" lon="17.492465972900394"/><trkpt lat="67.41165460635037" lon="17.492122650146488"/><trkpt lat="67.409808314912" lon="17.49177932739258"/><trkpt lat="67.40763214498097" lon="17.48559951782227"/><trkpt lat="67.40571958922799" lon="17.483711242675785"/><trkpt lat="67.40413666844029" lon="17.483882904052738"/><trkpt lat="67.40288344828924" lon="17.484912872314457"/><trkpt lat="67.40176209021908" lon="17.49658584594727"/><trkpt lat="67.40017890670342" lon="17.50534057617188"/><trkpt lat="67.39912339263704" lon="17.510490417480472"/><trkpt lat="67.3981338057746" lon="17.514095306396488"/><trkpt lat="67.39754003394934" lon="17.518386840820316"/><trkpt lat="67.39734210672287" lon="17.523880004882816"/><trkpt lat="67.39773795953344" lon="17.530574798583988"/><trkpt lat="67.3981338057746" lon="17.533321380615238"/><trkpt lat="67.3993213050827" lon="17.539672851562504"/><trkpt lat="67.39852964544646" lon="17.54825592041016"/><trkpt lat="67.3970122243624" lon="17.554435729980472"/><trkpt lat="67.39608852948209" lon="17.562160491943363"/><trkpt lat="67.39542872552556" lon="17.56593704223633"/><trkpt lat="67.3935151908478" lon="17.56868362426758"/><trkpt lat="67.39127154092942" lon="17.57143020629883"/><trkpt lat="67.38922567622913" lon="17.5752067565918"/><trkpt lat="67.38797167245058" lon="17.57949829101563"/><trkpt lat="67.38665159728066" lon="17.58516311645508"/><trkpt lat="67.38585951712872" lon="17.590312957763675"/><trkpt lat="67.3853314490895" lon="17.595806121826175"/><trkpt lat="67.38480336936638" lon="17.60215759277344"/><trkpt lat="67.38447331360607" lon="17.60696411132813"/><trkpt lat="67.38420926571162" lon="17.61194229125977"/><trkpt lat="67.38354913319564" lon="17.618465423583988"/><trkpt lat="67.38299474784063" lon="17.621512413024906"/><trkpt lat="67.38149284347006" lon="17.626104354858402"/><trkpt lat="67.38066758106284" lon="17.629065513610843"/><trkpt lat="67.37979277176228" lon="17.631983757019047"/><trkpt lat="67.37908299726546" lon="17.636532783508304"/><trkpt lat="67.37853827229378" lon="17.64060974121094"/><trkpt lat="67.37743227730004" lon="17.64417171478272"/></trkseg></trk></gpx>