<?xml version="1.0"?>
<gpx xmlns="http://www.topografix.com/GPX/1/1" xmlns:gpxx="http://www.garmin.com/xmlschemas/GpxExtensions/v3" creator="CALTOPO" version="1.1"><metadata><name><![CDATA[evac]]></name></metadata><trk><trkseg><trkpt lat="69.0530550097098" lon="20.253564963373325"/><trkpt lat="69.05308" lon="20.25347"/><trkpt lat="69.05308" lon="20.25347"/><trkpt lat="69.05318" lon="20.25252"/><trkpt lat="69.0532" lon="20.25203"/><trkpt lat="69.05336" lon="20.25168"/><trkpt lat="69.05354" lon="20.25098"/><trkpt lat="69.05369" lon="20.25026"/><trkpt lat="69.05373" lon="20.24986"/><trkpt lat="69.0537" lon="20.24952"/><trkpt lat="69.05374" lon="20.24919"/><trkpt lat="69.05381" lon="20.24898"/><trkpt lat="69.05381" lon="20.24898"/><trkpt lat="69.05351" lon="20.24883"/><trkpt lat="69.05377" lon="20.24764"/><trkpt lat="69.05382" lon="20.24721"/><trkpt lat="69.05405" lon="20.24636"/><trkpt lat="69.05423" lon="20.24528"/><trkpt lat="69.05439" lon="20.24465"/><trkpt lat="69.05453" lon="20.24357"/><trkpt lat="69.05526" lon="20.241"/><trkpt lat="69.05565" lon="20.23948"/><trkpt lat="69.05602" lon="20.23924"/><trkpt lat="69.05688" lon="20.23682"/><trkpt lat="69.05688" lon="20.23682"/><trkpt lat="69.05703" lon="20.23642"/><trkpt lat="69.05791" lon="20.23458"/><trkpt lat="69.0592" lon="20.22971"/><trkpt lat="69.05978" lon="20.22824"/><trkpt lat="69.0606" lon="20.22579"/><trkpt lat="69.06071" lon="20.22528"/><trkpt lat="69.06071" lon="20.22528"/><trkpt lat="69.06115" lon="20.22336"/><trkpt lat="69.06129" lon="20.22307"/><trkpt lat="69.06179" lon="20.22254"/><trkpt lat="69.06218" lon="20.22116"/><trkpt lat="69.06234" lon="20.21979"/><trkpt lat="69.06254" lon="20.21904"/><trkpt lat="69.06287" lon="20.2186"/><trkpt lat="69.06306" lon="20.21788"/><trkpt lat="69.06349" lon="20.21672"/><trkpt lat="69.06373" lon="20.21635"/><trkpt lat="69.06396" lon="20.2154"/><trkpt lat="69.06414" lon="20.21484"/><trkpt lat="69.06414" lon="20.21484"/><trkpt lat="69.06451" lon="20.21374"/><trkpt lat="69.06556" lon="20.2089"/><trkpt lat="69.06617" lon="20.20658"/><trkpt lat="69.0666" lon="20.20359"/><trkpt lat="69.06668" lon="20.20352"/><trkpt lat="69.06688" lon="20.20357"/><trkpt lat="69.06783" lon="20.20143"/><trkpt lat="69.06806" lon="20.20169"/><trkpt lat="69.06843" lon="20.20138"/><trkpt lat="69.06856" lon="20.20099"/><trkpt lat="69.06856" lon="20.20099"/><trkpt lat="69.06859" lon="20.2009"/><trkpt lat="69.06956" lon="20.19287"/><trkpt lat="69.06956" lon="20.19287"/><trkpt lat="69.06957" lon="20.19279"/><trkpt lat="69.0701" lon="20.19085"/><trkpt lat="69.071" lon="20.18824"/><trkpt lat="69.07106" lon="20.18696"/><trkpt lat="69.071" lon="20.18601"/><trkpt lat="69.07175041729033" lon="20.181108969561425"/><trkpt lat="69.07175165049395" lon="20.181101029494585"/><trkpt lat="69.07277" lon="20.17445"/><trkpt lat="69.07278" lon="20.17327"/><trkpt lat="69.07313" lon="20.17141"/><trkpt lat="69.0732" lon="20.1709"/><trkpt lat="69.0732" lon="20.1709"/><trkpt lat="69.07325" lon="20.17055"/><trkpt lat="69.07343" lon="20.16986"/><trkpt lat="69.07441" lon="20.16394"/><trkpt lat="69.07456" lon="20.16253"/><trkpt lat="69.07535" lon="20.15831"/><trkpt lat="69.07559" lon="20.15732"/><trkpt lat="69.0756" lon="20.15652"/><trkpt lat="69.07577" lon="20.15568"/><trkpt lat="69.0759" lon="20.1554"/><trkpt lat="69.07601" lon="20.15461"/><trkpt lat="69.07613" lon="20.15425"/><trkpt lat="69.07624" lon="20.15361"/><trkpt lat="69.07641" lon="20.153"/><trkpt lat="69.07641" lon="20.153"/><trkpt lat="69.07673" lon="20.15183"/><trkpt lat="69.07732" lon="20.15063"/><trkpt lat="69.0777" lon="20.14947"/><trkpt lat="69.0778" lon="20.14893"/><trkpt lat="69.0778" lon="20.14893"/><trkpt lat="69.07857" lon="20.14684"/><trkpt lat="69.0789" lon="20.14451"/><trkpt lat="69.07905" lon="20.14423"/><trkpt lat="69.07935" lon="20.14286"/><trkpt lat="69.07971" lon="20.14217"/><trkpt lat="69.08008" lon="20.14051"/><trkpt lat="69.08127" lon="20.13618"/><trkpt lat="69.08127" lon="20.13618"/><trkpt lat="69.08164" lon="20.13532"/><trkpt lat="69.08227" lon="20.13275"/><trkpt lat="69.08262" lon="20.13226"/><trkpt lat="69.0827" lon="20.13175"/><trkpt lat="69.08276" lon="20.13067"/><trkpt lat="69.08316" lon="20.12924"/><trkpt lat="69.08344" lon="20.12885"/><trkpt lat="69.08357" lon="20.128"/><trkpt lat="69.08358623324025" lon="20.127878250698025"/><trkpt lat="69.08358726225809" lon="20.127870533427323"/><trkpt lat="69.08371" lon="20.12695"/><trkpt lat="69.08371" lon="20.12695"/><trkpt lat="69.08379" lon="20.12633"/><trkpt lat="69.08426" lon="20.12374"/><trkpt lat="69.08426" lon="20.12374"/><trkpt lat="69.08456" lon="20.12206"/><trkpt lat="69.08538" lon="20.12007"/><trkpt lat="69.08543" lon="20.11939"/><trkpt lat="69.0858" lon="20.11886"/><trkpt lat="69.08583" lon="20.11815"/><trkpt lat="69.08584" lon="20.11757"/><trkpt lat="69.08596" lon="20.11715"/><trkpt lat="69.08625" lon="20.1167"/><trkpt lat="69.08636" lon="20.11644"/><trkpt lat="69.08646" lon="20.11629"/><trkpt lat="69.08659" lon="20.11618"/><trkpt lat="69.08673" lon="20.11585"/><trkpt lat="69.08687" lon="20.11533"/><trkpt lat="69.08714" lon="20.11441"/><trkpt lat="69.08734" lon="20.11408"/><trkpt lat="69.08756" lon="20.11388"/><trkpt lat="69.08773" lon="20.1133"/><trkpt lat="69.08795" lon="20.11292"/><trkpt lat="69.08824" lon="20.11264"/><trkpt lat="69.08849" lon="20.11247"/><trkpt lat="69.0887" lon="20.11204"/><trkpt lat="69.08908" lon="20.1106"/><trkpt lat="69.08931" lon="20.11013"/><trkpt lat="69.08954" lon="20.10982"/><trkpt lat="69.08995" lon="20.10951"/><trkpt lat="69.09008000000117" lon="20.109489999999823"/><trkpt lat="69.09008000000117" lon="20.109489999999823"/><trkpt lat="69.09021" lon="20.10947"/><trkpt lat="69.09058" lon="20.1097"/><trkpt lat="69.0909" lon="20.1098"/><trkpt lat="69.09121" lon="20.10971"/><trkpt lat="69.09148" lon="20.10914"/><trkpt lat="69.09192" lon="20.10827"/><trkpt lat="69.0921" lon="20.10811"/><trkpt lat="69.0921" lon="20.10811"/><trkpt lat="69.09222" lon="20.10801"/><trkpt lat="69.09251" lon="20.10791"/><trkpt lat="69.09267" lon="20.10801"/><trkpt lat="69.09286" lon="20.10797"/><trkpt lat="69.09299" lon="20.10755"/><trkpt lat="69.09319" lon="20.1074"/><trkpt lat="69.09349" lon="20.10635"/><trkpt lat="69.09366" lon="20.10624"/><trkpt lat="69.09401" lon="20.10695"/><trkpt lat="69.09419" lon="20.10757"/><trkpt lat="69.09434" lon="20.1077"/><trkpt lat="69.09471" lon="20.10758"/><trkpt lat="69.09492" lon="20.1073"/><trkpt lat="69.09519" lon="20.10665"/><trkpt lat="69.09564" lon="20.10665"/><trkpt lat="69.09564" lon="20.10665"/><trkpt lat="69.09606" lon="20.10632"/><trkpt lat="69.09634" lon="20.10577"/><trkpt lat="69.09656" lon="20.10546"/><trkpt lat="69.09681" lon="20.10498"/><trkpt lat="69.09681" lon="20.10498"/><trkpt lat="69.09711" lon="20.1044"/><trkpt lat="69.09775" lon="20.10345"/><trkpt lat="69.09845" lon="20.10335"/><trkpt lat="69.09972" lon="20.10436"/><trkpt lat="69.09994" lon="20.10467"/><trkpt lat="69.09994" lon="20.10467"/><trkpt lat="69.10015" lon="20.10498"/><trkpt lat="69.10015" lon="20.10498"/><trkpt lat="69.10031" lon="20.10521"/><trkpt lat="69.10104" lon="20.10593"/><trkpt lat="69.10202" lon="20.10571"/><trkpt lat="69.10243" lon="20.10537"/><trkpt lat="69.10258" lon="20.10498"/><trkpt lat="69.10258" lon="20.10498"/><trkpt lat="69.10264" lon="20.10483"/><trkpt lat="69.1032" lon="20.10432"/><trkpt lat="69.10351" lon="20.10485"/><trkpt lat="69.1037" lon="20.10492"/><trkpt lat="69.10446" lon="20.10419"/><trkpt lat="69.10475" lon="20.10422"/><trkpt lat="69.1053" lon="20.10405"/><trkpt lat="69.10653" lon="20.10419"/><trkpt lat="69.10715" lon="20.10405"/><trkpt lat="69.10751" lon="20.10408"/><trkpt lat="69.10778" lon="20.10386"/><trkpt lat="69.10778" lon="20.10386"/><trkpt lat="69.10795" lon="20.10372"/><trkpt lat="69.10868" lon="20.1028"/><trkpt lat="69.10905" lon="20.10251"/><trkpt lat="69.10924" lon="20.10224"/><trkpt lat="69.10955" lon="20.10195"/><trkpt lat="69.11013" lon="20.10164"/><trkpt lat="69.11057" lon="20.10179"/><trkpt lat="69.11086" lon="20.10206"/><trkpt lat="69.11112" lon="20.10193"/><trkpt lat="69.11148" lon="20.10193"/><trkpt lat="69.11187" lon="20.10166"/><trkpt lat="69.11217" lon="20.1017"/><trkpt lat="69.11267" lon="20.10158"/><trkpt lat="69.11345" lon="20.10149"/><trkpt lat="69.11386" lon="20.10123"/><trkpt lat="69.11423" lon="20.10082"/><trkpt lat="69.11481" lon="20.10073"/><trkpt lat="69.11561" lon="20.10066"/><trkpt lat="69.11561" lon="20.10066"/><trkpt lat="69.11591" lon="20.10068"/><trkpt lat="69.11608568360865" lon="20.10065226048285"/><trkpt lat="69.11608759224151" lon="20.100667476654056"/></trkseg></trk></gpx>