<?xml version="1.0"?>
<gpx xmlns="http://www.topografix.com/GPX/1/1" xmlns:gpxx="http://www.garmin.com/xmlschemas/GpxExtensions/v3" creator="CALTOPO" version="1.1"><metadata><name><![CDATA[Gappohytta]]></name></metadata><trk><name>Gappohytta</name><extensions><gpxx:TrackExtension><gpxx:DisplayColor>Red</gpxx:DisplayColor></gpxx:TrackExtension></extensions><trkseg><trkpt lat="69.07372552966591" lon="20.501217842102054"/><trkpt lat="69.07369477246007" lon="20.501209962885493"/><trkpt lat="69.0737" lon="20.50105"/><trkpt lat="69.07365" lon="20.50049"/><trkpt lat="69.07365" lon="20.50049"/><trkpt lat="69.07348" lon="20.49834"/><trkpt lat="69.07315" lon="20.49684"/><trkpt lat="69.07307" lon="20.49568"/><trkpt lat="69.07322" lon="20.49379"/><trkpt lat="69.07356" lon="20.49221"/><trkpt lat="69.07384" lon="20.49002"/><trkpt lat="69.07383" lon="20.48754"/><trkpt lat="69.07383" lon="20.48754"/><trkpt lat="69.07385" lon="20.48688"/><trkpt lat="69.07385" lon="20.48688"/><trkpt lat="69.07377" lon="20.48649"/><trkpt lat="69.07373" lon="20.48614"/><trkpt lat="69.07369" lon="20.48544"/><trkpt lat="69.07362" lon="20.48486"/><trkpt lat="69.07335" lon="20.48006"/><trkpt lat="69.07315" lon="20.47852"/><trkpt lat="69.07315" lon="20.47852"/><trkpt lat="69.07266" lon="20.4747"/><trkpt lat="69.07224" lon="20.47333"/><trkpt lat="69.07249" lon="20.47109"/><trkpt lat="69.07229" lon="20.46959"/><trkpt lat="69.0723" lon="20.46947"/><trkpt lat="69.07232" lon="20.46932"/><trkpt lat="69.07237" lon="20.46914"/><trkpt lat="69.07249" lon="20.46881"/><trkpt lat="69.07264" lon="20.46861"/><trkpt lat="69.07268" lon="20.46841"/><trkpt lat="69.07268" lon="20.46683"/><trkpt lat="69.07266" lon="20.46634"/><trkpt lat="69.07261" lon="20.46556"/><trkpt lat="69.07257" lon="20.46525"/><trkpt lat="69.07251" lon="20.46484"/><trkpt lat="69.07243" lon="20.46389"/><trkpt lat="69.07239" lon="20.46366"/><trkpt lat="69.0723" lon="20.4635"/><trkpt lat="69.07216" lon="20.4633"/><trkpt lat="69.07202" lon="20.46318"/><trkpt lat="69.07183" lon="20.46255"/><trkpt lat="69.07053" lon="20.46118"/><trkpt lat="69.06947" lon="20.45955"/><trkpt lat="69.06856" lon="20.45823"/><trkpt lat="69.06856" lon="20.45823"/><trkpt lat="69.06835" lon="20.45792"/><trkpt lat="69.0676" lon="20.45719"/><trkpt lat="69.06681" lon="20.45735"/><trkpt lat="69.06681" lon="20.45735"/><trkpt lat="69.06668" lon="20.45724"/><trkpt lat="69.06661" lon="20.45716"/><trkpt lat="69.06659" lon="20.45718"/><trkpt lat="69.06659" lon="20.45718"/><trkpt lat="69.06599" lon="20.45761"/><trkpt lat="69.06581" lon="20.45767"/><trkpt lat="69.06562" lon="20.45783"/><trkpt lat="69.06546" lon="20.45779"/><trkpt lat="69.06539" lon="20.45783"/><trkpt lat="69.0651" lon="20.45808"/><trkpt lat="69.06499" lon="20.45809"/><trkpt lat="69.06493" lon="20.45812"/><trkpt lat="69.06486" lon="20.45826"/><trkpt lat="69.06478" lon="20.45833"/><trkpt lat="69.06466" lon="20.4584"/><trkpt lat="69.06456" lon="20.45841"/><trkpt lat="69.06429" lon="20.45835"/><trkpt lat="69.06418" lon="20.45845"/><trkpt lat="69.06404" lon="20.45864"/><trkpt lat="69.064" lon="20.45876"/><trkpt lat="69.06392" lon="20.45911"/><trkpt lat="69.0639" lon="20.45934"/><trkpt lat="69.06389" lon="20.45944"/><trkpt lat="69.06389" lon="20.45944"/><trkpt lat="69.06389" lon="20.45944"/><trkpt lat="69.0638" lon="20.45948"/><trkpt lat="69.06376" lon="20.45953"/><trkpt lat="69.06358" lon="20.45983"/><trkpt lat="69.06351" lon="20.46007"/><trkpt lat="69.06342" lon="20.46024"/><trkpt lat="69.06337" lon="20.46031"/><trkpt lat="69.06332" lon="20.46031"/><trkpt lat="69.06323" lon="20.46018"/><trkpt lat="69.06318" lon="20.46014"/><trkpt lat="69.06297" lon="20.46019"/><trkpt lat="69.06261" lon="20.46015"/><trkpt lat="69.06247" lon="20.45992"/><trkpt lat="69.06243" lon="20.45972"/><trkpt lat="69.06243" lon="20.4593"/><trkpt lat="69.06239" lon="20.45887"/><trkpt lat="69.06232" lon="20.45842"/><trkpt lat="69.06223" lon="20.45815"/><trkpt lat="69.06195" lon="20.4575"/><trkpt lat="69.06189" lon="20.45712"/><trkpt lat="69.06184" lon="20.45654"/><trkpt lat="69.06184" lon="20.45654"/><trkpt lat="69.06181" lon="20.45634"/><trkpt lat="69.06182" lon="20.456"/><trkpt lat="69.06186" lon="20.45513"/><trkpt lat="69.06194" lon="20.45475"/><trkpt lat="69.062" lon="20.45431"/><trkpt lat="69.06204" lon="20.45391"/><trkpt lat="69.062" lon="20.45286"/><trkpt lat="69.06191" lon="20.45149"/><trkpt lat="69.06185" lon="20.45122"/><trkpt lat="69.06181" lon="20.45109"/><trkpt lat="69.06173" lon="20.45096"/><trkpt lat="69.06158" lon="20.4508"/><trkpt lat="69.06147" lon="20.45075"/><trkpt lat="69.06142" lon="20.45071"/><trkpt lat="69.06133" lon="20.45051"/><trkpt lat="69.06114" lon="20.44959"/><trkpt lat="69.0609" lon="20.44753"/><trkpt lat="69.0609" lon="20.44659"/><trkpt lat="69.06071" lon="20.44607"/><trkpt lat="69.06071" lon="20.44607"/><trkpt lat="69.06068" lon="20.44599"/><trkpt lat="69.06031" lon="20.44534"/><trkpt lat="69.05993" lon="20.44423"/><trkpt lat="69.05936" lon="20.4429"/><trkpt lat="69.05881" lon="20.4417"/><trkpt lat="69.05812" lon="20.43933"/><trkpt lat="69.05755" lon="20.43754"/><trkpt lat="69.05743" lon="20.43728"/><trkpt lat="69.05737" lon="20.43711"/><trkpt lat="69.05733" lon="20.43698"/><trkpt lat="69.0573" lon="20.43678"/><trkpt lat="69.05729" lon="20.43605"/><trkpt lat="69.05732" lon="20.43559"/><trkpt lat="69.05732" lon="20.43546"/><trkpt lat="69.05725" lon="20.43471"/><trkpt lat="69.05722" lon="20.43457"/><trkpt lat="69.05722" lon="20.43457"/><trkpt lat="69.05711" lon="20.43396"/><trkpt lat="69.05705" lon="20.43347"/><trkpt lat="69.05689" lon="20.43258"/><trkpt lat="69.05679" lon="20.43158"/><trkpt lat="69.05678" lon="20.43127"/><trkpt lat="69.0568" lon="20.42995"/><trkpt lat="69.05685" lon="20.42854"/><trkpt lat="69.05684" lon="20.42795"/><trkpt lat="69.05689" lon="20.42691"/><trkpt lat="69.05687" lon="20.4254"/><trkpt lat="69.0569" lon="20.42395"/><trkpt lat="69.0569" lon="20.42369"/><trkpt lat="69.05688" lon="20.42352"/><trkpt lat="69.05684" lon="20.42338"/><trkpt lat="69.05665" lon="20.42316"/><trkpt lat="69.05665" lon="20.42316"/><trkpt lat="69.05661" lon="20.42317"/><trkpt lat="69.05657" lon="20.42313"/><trkpt lat="69.05652" lon="20.42303"/><trkpt lat="69.05652" lon="20.42303"/><trkpt lat="69.05653" lon="20.42277"/><trkpt lat="69.05668" lon="20.42188"/><trkpt lat="69.05672" lon="20.42166"/><trkpt lat="69.05678" lon="20.42144"/><trkpt lat="69.05684" lon="20.42112"/><trkpt lat="69.05687" lon="20.42091"/><trkpt lat="69.05694" lon="20.42013"/><trkpt lat="69.05694" lon="20.4187"/><trkpt lat="69.05694" lon="20.41851"/><trkpt lat="69.0569" lon="20.41823"/><trkpt lat="69.0569" lon="20.41777"/><trkpt lat="69.05691" lon="20.41749"/><trkpt lat="69.05693" lon="20.41723"/><trkpt lat="69.05691" lon="20.41682"/><trkpt lat="69.05693" lon="20.41637"/><trkpt lat="69.05693" lon="20.41609"/><trkpt lat="69.05694" lon="20.41533"/><trkpt lat="69.05694" lon="20.41483"/><trkpt lat="69.05697" lon="20.41443"/><trkpt lat="69.05696" lon="20.41389"/><trkpt lat="69.05697" lon="20.41344"/><trkpt lat="69.05696" lon="20.41308"/><trkpt lat="69.05699" lon="20.4126"/><trkpt lat="69.05699" lon="20.4126"/><trkpt lat="69.05699" lon="20.41184"/><trkpt lat="69.05701" lon="20.41127"/><trkpt lat="69.05698" lon="20.41067"/><trkpt lat="69.05699" lon="20.41051"/><trkpt lat="69.05704" lon="20.40982"/><trkpt lat="69.05712" lon="20.40907"/><trkpt lat="69.05715" lon="20.40891"/><trkpt lat="69.05722" lon="20.40871"/><trkpt lat="69.05746" lon="20.4074"/><trkpt lat="69.05838" lon="20.40349"/><trkpt lat="69.05864" lon="20.4008"/><trkpt lat="69.05897" lon="20.39604"/><trkpt lat="69.05954" lon="20.39062"/><trkpt lat="69.05954" lon="20.39062"/><trkpt lat="69.05996" lon="20.38649"/><trkpt lat="69.06007" lon="20.381"/><trkpt lat="69.06014" lon="20.37367"/><trkpt lat="69.06071" lon="20.36943"/><trkpt lat="69.06071" lon="20.36943"/><trkpt lat="69.06082" lon="20.36865"/><trkpt lat="69.06082" lon="20.36865"/><trkpt lat="69.06126" lon="20.3653"/><trkpt lat="69.06237" lon="20.35483"/><trkpt lat="69.06323" lon="20.35028"/><trkpt lat="69.06323" lon="20.35028"/><trkpt lat="69.06305" lon="20.34851"/><trkpt lat="69.0636" lon="20.34719"/><trkpt lat="69.06344" lon="20.34668"/><trkpt lat="69.06344" lon="20.34668"/><trkpt lat="69.06323" lon="20.34603"/><trkpt lat="69.06232" lon="20.34428"/><trkpt lat="69.06232" lon="20.34428"/><trkpt lat="69.06209" lon="20.33695"/><trkpt lat="69.06181" lon="20.33201"/><trkpt lat="69.06143" lon="20.32471"/><trkpt lat="69.06143" lon="20.32471"/><trkpt lat="69.06133" lon="20.32224"/><trkpt lat="69.0611" lon="20.32013"/><trkpt lat="69.06071" lon="20.31675"/><trkpt lat="69.06071" lon="20.31675"/><trkpt lat="69.06041" lon="20.31406"/><trkpt lat="69.05995" lon="20.30273"/><trkpt lat="69.05995" lon="20.30273"/><trkpt lat="69.0596" lon="20.29402"/><trkpt lat="69.0594" lon="20.29318"/><trkpt lat="69.05926" lon="20.2918"/><trkpt lat="69.05917" lon="20.28995"/><trkpt lat="69.05925" lon="20.28789"/><trkpt lat="69.05871" lon="20.28434"/><trkpt lat="69.05736" lon="20.28123"/><trkpt lat="69.05708" lon="20.28076"/><trkpt lat="69.05708" lon="20.28076"/><trkpt lat="69.05632" lon="20.2795"/><trkpt lat="69.05437" lon="20.27289"/><trkpt lat="69.05392" lon="20.26913"/><trkpt lat="69.05298" lon="20.2649"/><trkpt lat="69.05286" lon="20.26459"/><trkpt lat="69.05286" lon="20.26459"/><trkpt lat="69.0524" lon="20.26336"/><trkpt lat="69.05212" lon="20.26038"/><trkpt lat="69.05246" lon="20.25887"/><trkpt lat="69.05244" lon="20.25879"/><trkpt lat="69.05244" lon="20.25879"/><trkpt lat="69.05214" lon="20.25709"/><trkpt lat="69.05286" lon="20.25433"/><trkpt lat="69.05286" lon="20.25433"/><trkpt lat="69.05286" lon="20.25433"/><trkpt lat="69.05290032698748" lon="20.254454612731937"/></trkseg></trk></gpx>