<?xml version="1.0"?>
<gpx xmlns="http://www.topografix.com/GPX/1/1" xmlns:gpxx="http://www.garmin.com/xmlschemas/GpxExtensions/v3" creator="CALTOPO" version="1.1"><metadata><name><![CDATA[Golddaluokta]]></name></metadata><trk><name>Golddaluokta</name><extensions><gpxx:TrackExtension><gpxx:DisplayColor>Red</gpxx:DisplayColor></gpxx:TrackExtension></extensions><trkseg><trkpt lat="68.97423097690978" lon="20.36927461624146"/><trkpt lat="68.9742105710961" lon="20.369271445889773"/><trkpt lat="68.974199878853" lon="20.36980605858617"/><trkpt lat="68.974199878853" lon="20.36980605858617"/><trkpt lat="68.97418" lon="20.3708"/><trkpt lat="68.97446" lon="20.37181"/><trkpt lat="68.97537" lon="20.37425"/><trkpt lat="68.9759" lon="20.37538"/><trkpt lat="68.97648" lon="20.37627"/><trkpt lat="68.97708" lon="20.37657"/><trkpt lat="68.9775" lon="20.37773"/><trkpt lat="68.97797" lon="20.37958"/><trkpt lat="68.97818" lon="20.38052"/><trkpt lat="68.97868" lon="20.38374"/><trkpt lat="68.97899" lon="20.38447"/><trkpt lat="68.97964" lon="20.38709"/><trkpt lat="68.98004" lon="20.38915"/><trkpt lat="68.98021" lon="20.39062"/><trkpt lat="68.98021" lon="20.39062"/><trkpt lat="68.9803" lon="20.39142"/><trkpt lat="68.98055" lon="20.39288"/><trkpt lat="68.98075" lon="20.3955"/><trkpt lat="68.98075" lon="20.39713"/><trkpt lat="68.98067" lon="20.40026"/><trkpt lat="68.98078" lon="20.40224"/><trkpt lat="68.98136" lon="20.40666"/><trkpt lat="68.98158" lon="20.40927"/><trkpt lat="68.98181" lon="20.41065"/><trkpt lat="68.98205" lon="20.41138"/><trkpt lat="68.98205" lon="20.41138"/><trkpt lat="68.98209" lon="20.4115"/><trkpt lat="68.98211" lon="20.4126"/><trkpt lat="68.98211" lon="20.4126"/><trkpt lat="68.98215" lon="20.41395"/><trkpt lat="68.98215" lon="20.41532"/><trkpt lat="68.98221" lon="20.41584"/><trkpt lat="68.98267" lon="20.41863"/><trkpt lat="68.98301" lon="20.42296"/><trkpt lat="68.98324" lon="20.42464"/><trkpt lat="68.98349" lon="20.42532"/><trkpt lat="68.98382" lon="20.42653"/><trkpt lat="68.98484" lon="20.42847"/><trkpt lat="68.98507" lon="20.42991"/><trkpt lat="68.98518" lon="20.43086"/><trkpt lat="68.98578" lon="20.43408"/><trkpt lat="68.9859" lon="20.43457"/><trkpt lat="68.9859" lon="20.43457"/><trkpt lat="68.98667" lon="20.43768"/><trkpt lat="68.98647" lon="20.43952"/><trkpt lat="68.9866" lon="20.44"/><trkpt lat="68.98681" lon="20.43977"/><trkpt lat="68.98723" lon="20.43987"/><trkpt lat="68.98787" lon="20.4403"/><trkpt lat="68.98993" lon="20.44319"/><trkpt lat="68.98993" lon="20.44319"/><trkpt lat="68.99056" lon="20.44408"/><trkpt lat="68.99106" lon="20.44524"/><trkpt lat="68.9919" lon="20.4476"/><trkpt lat="68.99278" lon="20.45021"/><trkpt lat="68.9934" lon="20.4521"/><trkpt lat="68.99398" lon="20.45335"/><trkpt lat="68.99433" lon="20.45451"/><trkpt lat="68.99472" lon="20.45601"/><trkpt lat="68.99481" lon="20.45654"/><trkpt lat="68.99481" lon="20.45654"/><trkpt lat="68.99524" lon="20.45914"/><trkpt lat="68.99547" lon="20.46004"/><trkpt lat="68.99564" lon="20.46047"/><trkpt lat="68.99603" lon="20.4612"/><trkpt lat="68.99621" lon="20.46146"/><trkpt lat="68.9969" lon="20.4618"/><trkpt lat="68.9978" lon="20.46258"/><trkpt lat="68.9978" lon="20.46258"/><trkpt lat="68.99838" lon="20.46313"/><trkpt lat="68.99907" lon="20.46399"/><trkpt lat="69.00012" lon="20.46622"/><trkpt lat="69.00055" lon="20.46755"/><trkpt lat="69.00093" lon="20.46867"/><trkpt lat="69.00121" lon="20.46991"/><trkpt lat="69.00164" lon="20.47214"/><trkpt lat="69.00281" lon="20.47558"/><trkpt lat="69.00367" lon="20.47789"/><trkpt lat="69.00395" lon="20.47852"/><trkpt lat="69.00395" lon="20.47852"/><trkpt lat="69.00501" lon="20.48086"/><trkpt lat="69.00568" lon="20.48215"/><trkpt lat="69.00568" lon="20.48215"/><trkpt lat="69.00722" lon="20.48515"/><trkpt lat="69.00817" lon="20.48631"/><trkpt lat="69.00867" lon="20.48746"/><trkpt lat="69.00919" lon="20.48768"/><trkpt lat="69.00957" lon="20.48845"/><trkpt lat="69.01054" lon="20.48983"/><trkpt lat="69.01325" lon="20.49313"/><trkpt lat="69.01355" lon="20.49345"/><trkpt lat="69.01355" lon="20.49345"/><trkpt lat="69.01454" lon="20.4945"/><trkpt lat="69.01584" lon="20.4954"/><trkpt lat="69.01675" lon="20.49643"/><trkpt lat="69.01697" lon="20.49712"/><trkpt lat="69.01846" lon="20.50049"/><trkpt lat="69.01846" lon="20.50049"/><trkpt lat="69.01912" lon="20.50158"/><trkpt lat="69.02022" lon="20.50279"/><trkpt lat="69.02044" lon="20.50326"/><trkpt lat="69.02081" lon="20.50459"/><trkpt lat="69.02128" lon="20.50605"/><trkpt lat="69.02141" lon="20.50658"/><trkpt lat="69.02141" lon="20.50658"/><trkpt lat="69.02155" lon="20.50712"/><trkpt lat="69.0221" lon="20.50875"/><trkpt lat="69.02264" lon="20.51"/><trkpt lat="69.02322" lon="20.51128"/><trkpt lat="69.02408" lon="20.51343"/><trkpt lat="69.02439" lon="20.51373"/><trkpt lat="69.0252" lon="20.51497"/><trkpt lat="69.02595" lon="20.51639"/><trkpt lat="69.02683" lon="20.51819"/><trkpt lat="69.0274" lon="20.51888"/><trkpt lat="69.02754019137751" lon="20.518946909521084"/><trkpt lat="69.02754" lon="20.51895"/><trkpt lat="69.02759" lon="20.5193"/><trkpt lat="69.02774" lon="20.51967"/><trkpt lat="69.02835" lon="20.52096"/><trkpt lat="69.02864" lon="20.52181"/><trkpt lat="69.02877" lon="20.52237"/><trkpt lat="69.02883" lon="20.52246"/><trkpt lat="69.02883" lon="20.52246"/><trkpt lat="69.02928" lon="20.52323"/><trkpt lat="69.02928" lon="20.52323"/><trkpt lat="69.02963" lon="20.52384"/><trkpt lat="69.0301" lon="20.52444"/><trkpt lat="69.03085" lon="20.52528"/><trkpt lat="69.03112" lon="20.52531"/><trkpt lat="69.03142" lon="20.52544"/><trkpt lat="69.0317" lon="20.52545"/><trkpt lat="69.03183" lon="20.52564"/><trkpt lat="69.03201" lon="20.52571"/><trkpt lat="69.03219" lon="20.52585"/><trkpt lat="69.03236" lon="20.52601"/><trkpt lat="69.03253" lon="20.52604"/><trkpt lat="69.03275" lon="20.52621"/><trkpt lat="69.03342" lon="20.52704"/><trkpt lat="69.03369" lon="20.52728"/><trkpt lat="69.03395" lon="20.52746"/><trkpt lat="69.03453" lon="20.52763"/><trkpt lat="69.03562" lon="20.52815"/><trkpt lat="69.03599" lon="20.52868"/><trkpt lat="69.03625" lon="20.52899"/><trkpt lat="69.03646" lon="20.52949"/><trkpt lat="69.03659" lon="20.53014"/><trkpt lat="69.03662" lon="20.5306"/><trkpt lat="69.03666" lon="20.53097"/><trkpt lat="69.03673" lon="20.53122"/><trkpt lat="69.03674" lon="20.53174"/><trkpt lat="69.03677" lon="20.53227"/><trkpt lat="69.03696" lon="20.53279"/><trkpt lat="69.03714" lon="20.53347"/><trkpt lat="69.03714" lon="20.53347"/><trkpt lat="69.03724" lon="20.53385"/><trkpt lat="69.0374" lon="20.53483"/><trkpt lat="69.03763" lon="20.53581"/><trkpt lat="69.03791" lon="20.53714"/><trkpt lat="69.03812" lon="20.53823"/><trkpt lat="69.03839" lon="20.53905"/><trkpt lat="69.03849" lon="20.5395"/><trkpt lat="69.03859" lon="20.54024"/><trkpt lat="69.03869" lon="20.5414"/><trkpt lat="69.03877" lon="20.54211"/><trkpt lat="69.03876" lon="20.54284"/><trkpt lat="69.03872" lon="20.54363"/><trkpt lat="69.03872" lon="20.54402"/><trkpt lat="69.03883" lon="20.54443"/><trkpt lat="69.03883" lon="20.54443"/><trkpt lat="69.03887" lon="20.54454"/><trkpt lat="69.03887" lon="20.54454"/><trkpt lat="69.03899" lon="20.54455"/><trkpt lat="69.03899" lon="20.54455"/><trkpt lat="69.03904" lon="20.54461"/><trkpt lat="69.03913" lon="20.54488"/><trkpt lat="69.0393" lon="20.54561"/><trkpt lat="69.0394" lon="20.54635"/><trkpt lat="69.03945" lon="20.54673"/><trkpt lat="69.03947" lon="20.54748"/><trkpt lat="69.03943" lon="20.5496"/><trkpt lat="69.03965" lon="20.55256"/><trkpt lat="69.03987" lon="20.55343"/><trkpt lat="69.04001" lon="20.55523"/><trkpt lat="69.04007" lon="20.55583"/><trkpt lat="69.04026" lon="20.55676"/><trkpt lat="69.04038" lon="20.55761"/><trkpt lat="69.04054" lon="20.55818"/><trkpt lat="69.04069" lon="20.55894"/><trkpt lat="69.04079" lon="20.55982"/><trkpt lat="69.04088" lon="20.5604"/><trkpt lat="69.04104" lon="20.561"/><trkpt lat="69.04122" lon="20.56158"/><trkpt lat="69.0413" lon="20.56224"/><trkpt lat="69.04152" lon="20.56327"/><trkpt lat="69.04154" lon="20.56369"/><trkpt lat="69.04168" lon="20.56471"/><trkpt lat="69.04172" lon="20.56534"/><trkpt lat="69.04175" lon="20.56594"/><trkpt lat="69.04172" lon="20.56641"/><trkpt lat="69.04172" lon="20.56641"/><trkpt lat="69.0417" lon="20.56719"/><trkpt lat="69.04171" lon="20.56759"/><trkpt lat="69.04181" lon="20.56821"/><trkpt lat="69.04192" lon="20.56892"/><trkpt lat="69.04199" lon="20.56964"/><trkpt lat="69.04201" lon="20.57005"/><trkpt lat="69.04199" lon="20.57049"/><trkpt lat="69.04199" lon="20.57083"/><trkpt lat="69.04207" lon="20.57116"/><trkpt lat="69.04212" lon="20.57204"/><trkpt lat="69.04215" lon="20.57225"/><trkpt lat="69.04225" lon="20.57243"/><trkpt lat="69.0424" lon="20.57249"/><trkpt lat="69.04255" lon="20.57271"/><trkpt lat="69.04276" lon="20.57342"/><trkpt lat="69.04296" lon="20.57395"/><trkpt lat="69.04308" lon="20.57443"/><trkpt lat="69.04318" lon="20.57466"/><trkpt lat="69.04346" lon="20.57503"/><trkpt lat="69.04398" lon="20.57554"/><trkpt lat="69.04417" lon="20.57592"/><trkpt lat="69.04443" lon="20.57658"/><trkpt lat="69.0445" lon="20.57693"/><trkpt lat="69.04454" lon="20.57746"/><trkpt lat="69.04453" lon="20.57791"/><trkpt lat="69.04448" lon="20.57845"/><trkpt lat="69.04441" lon="20.57892"/><trkpt lat="69.04441" lon="20.57933"/><trkpt lat="69.04444" lon="20.57968"/><trkpt lat="69.04458" lon="20.57997"/><trkpt lat="69.04482" lon="20.58085"/><trkpt lat="69.045" lon="20.58182"/><trkpt lat="69.045" lon="20.58182"/><trkpt lat="69.04507" lon="20.5823"/><trkpt lat="69.04506" lon="20.58273"/><trkpt lat="69.04509" lon="20.58301"/><trkpt lat="69.04522" lon="20.58393"/><trkpt lat="69.04534" lon="20.5846"/><trkpt lat="69.04539" lon="20.58506"/><trkpt lat="69.04549" lon="20.58562"/><trkpt lat="69.04556" lon="20.58633"/><trkpt lat="69.04559" lon="20.58682"/><trkpt lat="69.04559" lon="20.58682"/><trkpt lat="69.04562" lon="20.58713"/><trkpt lat="69.04562" lon="20.58713"/><trkpt lat="69.04575" lon="20.58782"/><trkpt lat="69.04583" lon="20.58838"/><trkpt lat="69.04583" lon="20.58838"/><trkpt lat="69.0459" lon="20.58899"/><trkpt lat="69.04599" lon="20.58961"/><trkpt lat="69.04629" lon="20.59064"/><trkpt lat="69.04644" lon="20.59157"/><trkpt lat="69.0465" lon="20.59215"/><trkpt lat="69.04652" lon="20.59243"/><trkpt lat="69.0465" lon="20.59271"/><trkpt lat="69.04645" lon="20.59304"/><trkpt lat="69.04644" lon="20.59322"/><trkpt lat="69.04647" lon="20.59367"/><trkpt lat="69.04648" lon="20.59451"/><trkpt lat="69.04645" lon="20.59521"/><trkpt lat="69.04628" lon="20.59684"/><trkpt lat="69.04628" lon="20.59733"/><trkpt lat="69.0463" lon="20.598"/><trkpt lat="69.04639" lon="20.59857"/><trkpt lat="69.04649" lon="20.59889"/><trkpt lat="69.04649" lon="20.59889"/><trkpt lat="69.04656" lon="20.59907"/><trkpt lat="69.04656" lon="20.59907"/><trkpt lat="69.04674" lon="20.59966"/><trkpt lat="69.04681" lon="20.60013"/><trkpt lat="69.04686" lon="20.60085"/><trkpt lat="69.04688" lon="20.60147"/><trkpt lat="69.04685" lon="20.60383"/><trkpt lat="69.04688" lon="20.60447"/><trkpt lat="69.04686" lon="20.60482"/><trkpt lat="69.04687" lon="20.60509"/><trkpt lat="69.04684" lon="20.60568"/><trkpt lat="69.04676" lon="20.6069"/><trkpt lat="69.04674" lon="20.60751"/><trkpt lat="69.04686" lon="20.60863"/><trkpt lat="69.04686" lon="20.60863"/><trkpt lat="69.04674" lon="20.60903"/><trkpt lat="69.04667618859642" lon="20.609325127741553"/><trkpt lat="69.0466646087564" lon="20.609300136566166"/></trkseg></trk></gpx>