<?xml version="1.0"?>
<gpx xmlns="http://www.topografix.com/GPX/1/1" xmlns:gpxx="http://www.garmin.com/xmlschemas/GpxExtensions/v3" creator="CALTOPO" version="1.1"><metadata><name><![CDATA[Pältsastugan]]></name></metadata><trk><name>Pältsastugan</name><extensions><gpxx:TrackExtension><gpxx:DisplayColor>Red</gpxx:DisplayColor></gpxx:TrackExtension></extensions><trkseg><trkpt lat="68.93973858435508" lon="20.028076171875004"/><trkpt lat="68.93968098781765" lon="20.028184769711228"/><trkpt lat="68.93958" lon="20.02777"/><trkpt lat="68.93958" lon="20.02777"/><trkpt lat="68.93968" lon="20.02982"/><trkpt lat="68.93991" lon="20.03116"/><trkpt lat="68.93987" lon="20.03243"/><trkpt lat="68.93989" lon="20.03371"/><trkpt lat="68.93967" lon="20.03605"/><trkpt lat="68.9396" lon="20.03668"/><trkpt lat="68.93945" lon="20.03814"/><trkpt lat="68.93945" lon="20.03906"/><trkpt lat="68.93945" lon="20.03906"/><trkpt lat="68.93945" lon="20.03957"/><trkpt lat="68.93856" lon="20.04273"/><trkpt lat="68.93827" lon="20.04389"/><trkpt lat="68.9383" lon="20.04458"/><trkpt lat="68.93839" lon="20.04535"/><trkpt lat="68.93839" lon="20.04561"/><trkpt lat="68.93831" lon="20.04562"/><trkpt lat="68.93831" lon="20.04562"/><trkpt lat="68.93815" lon="20.04566"/><trkpt lat="68.93815" lon="20.04566"/><trkpt lat="68.93811" lon="20.04568"/><trkpt lat="68.9381" lon="20.04582"/><trkpt lat="68.93796" lon="20.04763"/><trkpt lat="68.93776" lon="20.05114"/><trkpt lat="68.93745" lon="20.05273"/><trkpt lat="68.93707" lon="20.05438"/><trkpt lat="68.9368" lon="20.05612"/><trkpt lat="68.93648" lon="20.05835"/><trkpt lat="68.93645" lon="20.0596"/><trkpt lat="68.93649" lon="20.06093"/><trkpt lat="68.93648" lon="20.06104"/><trkpt lat="68.93648" lon="20.06104"/><trkpt lat="68.93635" lon="20.062"/><trkpt lat="68.93507" lon="20.069"/><trkpt lat="68.93471" lon="20.07036"/><trkpt lat="68.93471" lon="20.07036"/><trkpt lat="68.93463" lon="20.07067"/><trkpt lat="68.93375" lon="20.0732"/><trkpt lat="68.93333" lon="20.07393"/><trkpt lat="68.93324" lon="20.07471"/><trkpt lat="68.93231" lon="20.07891"/><trkpt lat="68.93197" lon="20.08131"/><trkpt lat="68.93175" lon="20.08301"/><trkpt lat="68.93175" lon="20.08301"/><trkpt lat="68.93142" lon="20.08548"/><trkpt lat="68.93116" lon="20.08878"/><trkpt lat="68.93075" lon="20.09303"/><trkpt lat="68.93043" lon="20.09556"/><trkpt lat="68.92989" lon="20.09857"/><trkpt lat="68.9294" lon="20.10093"/><trkpt lat="68.9292" lon="20.10363"/><trkpt lat="68.92908" lon="20.10498"/><trkpt lat="68.92908" lon="20.10498"/><trkpt lat="68.92893" lon="20.10676"/><trkpt lat="68.92858" lon="20.10801"/><trkpt lat="68.92798" lon="20.11063"/><trkpt lat="68.92747" lon="20.11496"/><trkpt lat="68.92721" lon="20.11778"/><trkpt lat="68.92707" lon="20.11989"/><trkpt lat="68.92708" lon="20.12234"/><trkpt lat="68.92687" lon="20.12397"/><trkpt lat="68.92681" lon="20.1241"/><trkpt lat="68.92681" lon="20.1241"/><trkpt lat="68.92591" lon="20.12629"/><trkpt lat="68.92577" lon="20.12695"/><trkpt lat="68.92577" lon="20.12695"/><trkpt lat="68.92528" lon="20.12929"/><trkpt lat="68.92403" lon="20.13492"/><trkpt lat="68.92409" lon="20.13564"/><trkpt lat="68.92367" lon="20.13625"/><trkpt lat="68.92333" lon="20.13723"/><trkpt lat="68.92242" lon="20.13951"/><trkpt lat="68.92204" lon="20.14071"/><trkpt lat="68.91963" lon="20.14861"/><trkpt lat="68.9195" lon="20.14893"/><trkpt lat="68.9195" lon="20.14893"/><trkpt lat="68.91891" lon="20.15038"/><trkpt lat="68.91891" lon="20.15038"/><trkpt lat="68.91813" lon="20.1523"/><trkpt lat="68.91781" lon="20.15427"/><trkpt lat="68.91734" lon="20.15676"/><trkpt lat="68.91668" lon="20.16092"/><trkpt lat="68.91631" lon="20.16174"/><trkpt lat="68.91589" lon="20.16328"/><trkpt lat="68.91548" lon="20.16427"/><trkpt lat="68.91532" lon="20.16491"/><trkpt lat="68.91551" lon="20.16611"/><trkpt lat="68.91552" lon="20.16684"/><trkpt lat="68.91527" lon="20.16659"/><trkpt lat="68.91507" lon="20.16727"/><trkpt lat="68.91481" lon="20.16882"/><trkpt lat="68.91432" lon="20.1709"/><trkpt lat="68.91432" lon="20.1709"/><trkpt lat="68.91409" lon="20.17187"/><trkpt lat="68.91378" lon="20.1744"/><trkpt lat="68.91344" lon="20.17646"/><trkpt lat="68.91327" lon="20.18045"/><trkpt lat="68.91334" lon="20.18139"/><trkpt lat="68.91313" lon="20.18521"/><trkpt lat="68.91223" lon="20.19199"/><trkpt lat="68.9121" lon="20.19287"/><trkpt lat="68.9121" lon="20.19287"/><trkpt lat="68.91168" lon="20.19577"/><trkpt lat="68.91154" lon="20.19804"/><trkpt lat="68.91134684685134" lon="20.200131092783188"/><trkpt lat="68.91134743866489" lon="20.200124687524426"/><trkpt lat="68.91131" lon="20.20053"/><trkpt lat="68.91131" lon="20.20148"/><trkpt lat="68.91131" lon="20.20148"/><trkpt lat="68.91157" lon="20.20345"/><trkpt lat="68.91234" lon="20.20903"/><trkpt lat="68.91259" lon="20.21075"/><trkpt lat="68.91343" lon="20.21484"/><trkpt lat="68.91343" lon="20.21484"/><trkpt lat="68.91365" lon="20.21594"/><trkpt lat="68.9139" lon="20.21796"/><trkpt lat="68.91446" lon="20.22139"/><trkpt lat="68.91563" lon="20.22838"/><trkpt lat="68.91599" lon="20.22993"/><trkpt lat="68.91666" lon="20.23332"/><trkpt lat="68.91758" lon="20.23581"/><trkpt lat="68.91795" lon="20.23645"/><trkpt lat="68.91813" lon="20.23682"/><trkpt lat="68.91813" lon="20.23682"/><trkpt lat="68.91849" lon="20.23753"/><trkpt lat="68.91891" lon="20.23788"/><trkpt lat="68.91891" lon="20.23788"/><trkpt lat="68.91988" lon="20.23834"/><trkpt lat="68.9208" lon="20.23796"/><trkpt lat="68.92131" lon="20.23735"/><trkpt lat="68.92191" lon="20.23774"/><trkpt lat="68.92272" lon="20.23903"/><trkpt lat="68.92395" lon="20.24199"/><trkpt lat="68.92497" lon="20.24409"/><trkpt lat="68.92576" lon="20.24542"/><trkpt lat="68.92665" lon="20.24757"/><trkpt lat="68.92681" lon="20.24807"/><trkpt lat="68.92681" lon="20.24807"/><trkpt lat="68.92775" lon="20.251"/><trkpt lat="68.9292" lon="20.25474"/><trkpt lat="68.93083" lon="20.25879"/><trkpt lat="68.93083" lon="20.25879"/><trkpt lat="68.93299" lon="20.26418"/><trkpt lat="68.9337" lon="20.26585"/><trkpt lat="68.9344" lon="20.26778"/><trkpt lat="68.93471" lon="20.26847"/><trkpt lat="68.93471" lon="20.26847"/><trkpt lat="68.93526" lon="20.26967"/><trkpt lat="68.93589" lon="20.27117"/><trkpt lat="68.93652" lon="20.27323"/><trkpt lat="68.93708" lon="20.2743"/><trkpt lat="68.93719" lon="20.27538"/><trkpt lat="68.93733" lon="20.27581"/><trkpt lat="68.93797" lon="20.27735"/><trkpt lat="68.93825" lon="20.27924"/><trkpt lat="68.93825" lon="20.27924"/><trkpt lat="68.93834" lon="20.28061"/><trkpt lat="68.93838" lon="20.28076"/><trkpt lat="68.93838" lon="20.28076"/><trkpt lat="68.93976" lon="20.28714"/><trkpt lat="68.94032" lon="20.28799"/><trkpt lat="68.94143" lon="20.29375"/><trkpt lat="68.94261" lon="20.29671"/><trkpt lat="68.94261" lon="20.29671"/><trkpt lat="68.94322" lon="20.29821"/><trkpt lat="68.94393" lon="20.30217"/><trkpt lat="68.94417" lon="20.30273"/><trkpt lat="68.94417" lon="20.30273"/><trkpt lat="68.94479" lon="20.30422"/><trkpt lat="68.94735" lon="20.30868"/><trkpt lat="68.94846" lon="20.30954"/><trkpt lat="68.9505" lon="20.31353"/><trkpt lat="68.9505" lon="20.31353"/><trkpt lat="68.95074" lon="20.314"/><trkpt lat="68.95089" lon="20.31598"/><trkpt lat="68.95163" lon="20.32087"/><trkpt lat="68.95214" lon="20.32233"/><trkpt lat="68.95228" lon="20.3228"/><trkpt lat="68.95308" lon="20.32434"/><trkpt lat="68.95339" lon="20.32471"/><trkpt lat="68.95339" lon="20.32471"/><trkpt lat="68.95421" lon="20.32567"/><trkpt lat="68.95526" lon="20.32726"/><trkpt lat="68.9558" lon="20.32855"/><trkpt lat="68.9568" lon="20.33082"/><trkpt lat="68.95726" lon="20.33215"/><trkpt lat="68.95808" lon="20.33464"/><trkpt lat="68.95839" lon="20.33518"/><trkpt lat="68.95839" lon="20.33518"/><trkpt lat="68.95891" lon="20.33606"/><trkpt lat="68.95928" lon="20.33679"/><trkpt lat="68.95985" lon="20.33902"/><trkpt lat="68.96026" lon="20.34005"/><trkpt lat="68.961" lon="20.34263"/><trkpt lat="68.96139" lon="20.34439"/><trkpt lat="68.96165" lon="20.34456"/><trkpt lat="68.96217" lon="20.34443"/><trkpt lat="68.96257" lon="20.34511"/><trkpt lat="68.96294" lon="20.34529"/><trkpt lat="68.9637" lon="20.34645"/><trkpt lat="68.96402" lon="20.34623"/><trkpt lat="68.96453" lon="20.34623"/><trkpt lat="68.96551" lon="20.34668"/><trkpt lat="68.96551" lon="20.34668"/><trkpt lat="68.96556" lon="20.3467"/><trkpt lat="68.96593" lon="20.34713"/><trkpt lat="68.96628" lon="20.34886"/><trkpt lat="68.96628" lon="20.34886"/><trkpt lat="68.96649" lon="20.34984"/><trkpt lat="68.96654" lon="20.3503"/><trkpt lat="68.96654" lon="20.35062"/><trkpt lat="68.96666" lon="20.35112"/><trkpt lat="68.96689" lon="20.35142"/><trkpt lat="68.96749" lon="20.35262"/><trkpt lat="68.96754" lon="20.3528"/><trkpt lat="68.96766" lon="20.35287"/><trkpt lat="68.96798" lon="20.35336"/><trkpt lat="68.96812" lon="20.35335"/><trkpt lat="68.9682" lon="20.35348"/><trkpt lat="68.96866" lon="20.3537"/><trkpt lat="68.96917" lon="20.35321"/><trkpt lat="68.96932" lon="20.35318"/><trkpt lat="68.96945" lon="20.35309"/><trkpt lat="68.96981" lon="20.35326"/><trkpt lat="68.96999" lon="20.35364"/><trkpt lat="68.96999" lon="20.35364"/><trkpt lat="68.9702" lon="20.35398"/><trkpt lat="68.9702" lon="20.35398"/><trkpt lat="68.97035" lon="20.3543"/><trkpt lat="68.97099" lon="20.35602"/><trkpt lat="68.97119" lon="20.358"/><trkpt lat="68.97134" lon="20.35856"/><trkpt lat="68.97169" lon="20.36133"/><trkpt lat="68.97214" lon="20.36297"/><trkpt lat="68.97251" lon="20.36447"/><trkpt lat="68.97294" lon="20.36503"/><trkpt lat="68.97313" lon="20.36571"/><trkpt lat="68.97351" lon="20.36593"/><trkpt lat="68.97372" lon="20.36674"/><trkpt lat="68.97372" lon="20.36674"/><trkpt lat="68.97372" lon="20.36674"/><trkpt lat="68.97382" lon="20.36729"/><trkpt lat="68.97391" lon="20.36757"/><trkpt lat="68.97402" lon="20.36839"/><trkpt lat="68.97402" lon="20.36839"/><trkpt lat="68.97415" lon="20.36865"/><trkpt lat="68.97415" lon="20.36865"/><trkpt lat="68.97416" lon="20.36869"/><trkpt lat="68.97418667971792" lon="20.368695259094242"/></trkseg></trk></gpx>