<?xml version="1.0"?>
<gpx version="1.1" creator="GPS Visualizer https://www.gpsvisualizer.com/" xmlns="http://www.topografix.com/GPX/1/1" xmlns:xsi="http://www.w3.org/2001/XMLSchema-instance" xsi:schemaLocation="http://www.topografix.com/GPX/1/1 http://www.topografix.com/GPX/1/1/gpx.xsd">
	<trk>
		<name>Rostahytta</name>
		<trkseg>
			<trkpt lat="69.05295522319625" lon="20.25387525558472"><ele>699.393</ele></trkpt>
			<trkpt lat="69.05296698233526" lon="20.253899467488097"><ele>699.319</ele></trkpt>
			<trkpt lat="69.05308" lon="20.25347"><ele>699.957</ele></trkpt>
			<trkpt lat="69.05308" lon="20.25347"><ele>699.957</ele></trkpt>
			<trkpt lat="69.05313" lon="20.25223"><ele>701</ele></trkpt>
			<trkpt lat="69.05296" lon="20.25184"><ele>702.72</ele></trkpt>
			<trkpt lat="69.05286" lon="20.2519"><ele>702.864</ele></trkpt>
			<trkpt lat="69.05286" lon="20.2519"><ele>702.864</ele></trkpt>
			<trkpt lat="69.05257" lon="20.25206"><ele>704.08</ele></trkpt>
			<trkpt lat="69.05235" lon="20.2442"><ele>707.565</ele></trkpt>
			<trkpt lat="69.05235" lon="20.2442"><ele>707.565</ele></trkpt>
			<trkpt lat="69.05213" lon="20.23924"><ele>714.064</ele></trkpt>
			<trkpt lat="69.05222" lon="20.23682"><ele>721.468</ele></trkpt>
			<trkpt lat="69.05222" lon="20.23682"><ele>721.468</ele></trkpt>
			<trkpt lat="69.05231" lon="20.23438"><ele>727.527</ele></trkpt>
			<trkpt lat="69.05193" lon="20.23245"><ele>730.232</ele></trkpt>
			<trkpt lat="69.05196" lon="20.23031"><ele>736.772</ele></trkpt>
			<trkpt lat="69.05148" lon="20.22283"><ele>734.688</ele></trkpt>
			<trkpt lat="69.05075" lon="20.21836"><ele>737.6</ele></trkpt>
			<trkpt lat="69.05056" lon="20.21484"><ele>742.961</ele></trkpt>
			<trkpt lat="69.05056" lon="20.21484"><ele>742.961</ele></trkpt>
			<trkpt lat="69.05051" lon="20.21381"><ele>745.539</ele></trkpt>
			<trkpt lat="69.05043" lon="20.21098"><ele>754.635</ele></trkpt>
			<trkpt lat="69.0501" lon="20.20386"><ele>776.28</ele></trkpt>
			<trkpt lat="69.04805" lon="20.19287"><ele>795.953</ele></trkpt>
			<trkpt lat="69.04805" lon="20.19287"><ele>795.953</ele></trkpt>
			<trkpt lat="69.04713" lon="20.18781"><ele>791.927</ele></trkpt>
			<trkpt lat="69.04519" lon="20.17682"><ele>773.368</ele></trkpt>
			<trkpt lat="69.045" lon="20.17495"><ele>770</ele></trkpt>
			<trkpt lat="69.045" lon="20.17495"><ele>770</ele></trkpt>
			<trkpt lat="69.0446" lon="20.1709"><ele>760.88</ele></trkpt>
			<trkpt lat="69.0446" lon="20.1709"><ele>760.88</ele></trkpt>
			<trkpt lat="69.04451" lon="20.16995"><ele>760.846</ele></trkpt>
			<trkpt lat="69.04411" lon="20.16729"><ele>759.338</ele></trkpt>
			<trkpt lat="69.0435" lon="20.16515"><ele>754.876</ele></trkpt>
			<trkpt lat="69.04301" lon="20.16264"><ele>754</ele></trkpt>
			<trkpt lat="69.03957" lon="20.15631"><ele>767.128</ele></trkpt>
			<trkpt lat="69.0386" lon="20.15511"><ele>768.604</ele></trkpt>
			<trkpt lat="69.03819" lon="20.15423"><ele>773.288</ele></trkpt>
			<trkpt lat="69.03747" lon="20.14924"><ele>774.892</ele></trkpt>
			<trkpt lat="69.03747" lon="20.14924"><ele>774.892</ele></trkpt>
			<trkpt lat="69.03737" lon="20.14893"><ele>774.532</ele></trkpt>
			<trkpt lat="69.03737" lon="20.14893"><ele>774.532</ele></trkpt>
			<trkpt lat="69.03714" lon="20.14824"><ele>775</ele></trkpt>
			<trkpt lat="69.03714" lon="20.14824"><ele>775</ele></trkpt>
			<trkpt lat="69.03638" lon="20.14595"><ele>777.625</ele></trkpt>
			<trkpt lat="69.03638" lon="20.14595"><ele>777.625</ele></trkpt>
			<trkpt lat="69.03592" lon="20.14534"><ele>781.91</ele></trkpt>
			<trkpt lat="69.03473" lon="20.14233"><ele>784.972</ele></trkpt>
			<trkpt lat="69.03438" lon="20.13886"><ele>788.312</ele></trkpt>
			<trkpt lat="69.03272" lon="20.13296"><ele>791.864</ele></trkpt>
			<trkpt lat="69.031" lon="20.12918"><ele>802.752</ele></trkpt>
			<trkpt lat="69.02928" lon="20.12786"><ele>815.184</ele></trkpt>
			<trkpt lat="69.02928" lon="20.12786"><ele>815.184</ele></trkpt>
			<trkpt lat="69.02909" lon="20.12772"><ele>816.552</ele></trkpt>
			<trkpt lat="69.02821" lon="20.12738"><ele>825.332</ele></trkpt>
			<trkpt lat="69.02806" lon="20.12695"><ele>826.936</ele></trkpt>
			<trkpt lat="69.02806" lon="20.12695"><ele>826.936</ele></trkpt>
			<trkpt lat="69.02741" lon="20.12515"><ele>834.119</ele></trkpt>
			<trkpt lat="69.02694" lon="20.12112"><ele>840.128</ele></trkpt>
			<trkpt lat="69.02615" lon="20.1176"><ele>851.3</ele></trkpt>
			<trkpt lat="69.02578" lon="20.11683"><ele>860.564</ele></trkpt>
			<trkpt lat="69.0256" lon="20.11519"><ele>869.771</ele></trkpt>
			<trkpt lat="69.02529" lon="20.11416"><ele>878.759</ele></trkpt>
			<trkpt lat="69.02482" lon="20.11382"><ele>886.944</ele></trkpt>
			<trkpt lat="69.02434" lon="20.11136"><ele>892.024</ele></trkpt>
			<trkpt lat="69.02199" lon="20.10839"><ele>890.04</ele></trkpt>
			<trkpt lat="69.02147" lon="20.107"><ele>882.492</ele></trkpt>
			<trkpt lat="69.02147" lon="20.107"><ele>882.492</ele></trkpt>
			<trkpt lat="69.02141" lon="20.10685"><ele>881.736</ele></trkpt>
			<trkpt lat="69.02141" lon="20.10685"><ele>881.736</ele></trkpt>
			<trkpt lat="69.02067" lon="20.10498"><ele>882.826</ele></trkpt>
			<trkpt lat="69.02067" lon="20.10498"><ele>882.826</ele></trkpt>
			<trkpt lat="69.0204" lon="20.10429"><ele>882.061</ele></trkpt>
			<trkpt lat="69.01886" lon="20.10198"><ele>873.232</ele></trkpt>
			<trkpt lat="69.0177" lon="20.10077"><ele>873.052</ele></trkpt>
			<trkpt lat="69.01656" lon="20.09949"><ele>879.932</ele></trkpt>
			<trkpt lat="69.01444" lon="20.09768"><ele>880.016</ele></trkpt>
			<trkpt lat="69.01355" lon="20.09782"><ele>883.185</ele></trkpt>
			<trkpt lat="69.01355" lon="20.09782"><ele>883.185</ele></trkpt>
			<trkpt lat="69.01328" lon="20.09786"><ele>883.535</ele></trkpt>
			<trkpt lat="69.01225" lon="20.09696"><ele>884.856</ele></trkpt>
			<trkpt lat="69.00973" lon="20.09554"><ele>905.86</ele></trkpt>
			<trkpt lat="69.00841" lon="20.09391"><ele>907.524</ele></trkpt>
			<trkpt lat="69.00626" lon="20.09511"><ele>922.932</ele></trkpt>
			<trkpt lat="69.00568" lon="20.09524"><ele>920.624</ele></trkpt>
			<trkpt lat="69.00568" lon="20.09524"><ele>920.624</ele></trkpt>
			<trkpt lat="69.00549" lon="20.09528"><ele>920.022</ele></trkpt>
			<trkpt lat="69.00288" lon="20.09185"><ele>910.896</ele></trkpt>
			<trkpt lat="69.00226" lon="20.09219"><ele>915.632</ele></trkpt>
			<trkpt lat="69.00126568972286" lon="20.09157416911867"><ele>917.554</ele></trkpt>
			<trkpt lat="69.0012877393468" lon="20.09158781775035"><ele>917.444</ele></trkpt>
			<trkpt lat="69.00071" lon="20.09123"><ele>921.76</ele></trkpt>
			<trkpt lat="69.0001" lon="20.09108"><ele>930.56</ele></trkpt>
			<trkpt lat="68.99943" lon="20.09065"><ele>939.496</ele></trkpt>
			<trkpt lat="68.99859" lon="20.09155"><ele>948.624</ele></trkpt>
			<trkpt lat="68.99811" lon="20.09254"><ele>953.144</ele></trkpt>
			<trkpt lat="68.9978" lon="20.09274"><ele>953.739</ele></trkpt>
			<trkpt lat="68.9978" lon="20.09274"><ele>953.739</ele></trkpt>
			<trkpt lat="68.99709" lon="20.09322"><ele>952.854</ele></trkpt>
			<trkpt lat="68.99709" lon="20.09322"><ele>952.854</ele></trkpt>
			<trkpt lat="68.99651" lon="20.09271"><ele>952.884</ele></trkpt>
			<trkpt lat="68.99478" lon="20.09204"><ele>968.304</ele></trkpt>
			<trkpt lat="68.99349" lon="20.09187"><ele>974.268</ele></trkpt>
			<trkpt lat="68.99233" lon="20.09193"><ele>975.312</ele></trkpt>
			<trkpt lat="68.99186" lon="20.09236"><ele>981.386</ele></trkpt>
			<trkpt lat="68.99137" lon="20.09176"><ele>979.574</ele></trkpt>
			<trkpt lat="68.99026" lon="20.09142"><ele>976.297</ele></trkpt>
			<trkpt lat="68.98993" lon="20.09098"><ele>973.419</ele></trkpt>
			<trkpt lat="68.98993" lon="20.09098"><ele>973.419</ele></trkpt>
			<trkpt lat="68.98934" lon="20.09022"><ele>964.406</ele></trkpt>
			<trkpt lat="68.98854" lon="20.08996"><ele>957.787</ele></trkpt>
			<trkpt lat="68.98694" lon="20.08713"><ele>938.561</ele></trkpt>
			<trkpt lat="68.98694" lon="20.08713"><ele>938.561</ele></trkpt>
			<trkpt lat="68.9858" lon="20.08764"><ele>911.084</ele></trkpt>
			<trkpt lat="68.98488" lon="20.0905"><ele>901.176</ele></trkpt>
			<trkpt lat="68.98469" lon="20.09153"><ele>892.623</ele></trkpt>
			<trkpt lat="68.98451" lon="20.09176"><ele>887.573</ele></trkpt>
			<trkpt lat="68.9838" lon="20.09365"><ele>873.94</ele></trkpt>
			<trkpt lat="68.98322" lon="20.09382"><ele>854.36</ele></trkpt>
			<trkpt lat="68.98269" lon="20.097"><ele>816.589</ele></trkpt>
			<trkpt lat="68.98269" lon="20.09794"><ele>808.984</ele></trkpt>
			<trkpt lat="68.983" lon="20.09854"><ele>804.01</ele></trkpt>
			<trkpt lat="68.98254" lon="20.09974"><ele>794.936</ele></trkpt>
			<trkpt lat="68.9823" lon="20.1"><ele>794</ele></trkpt>
			<trkpt lat="68.98205" lon="20.10015"><ele>794.65</ele></trkpt>
			<trkpt lat="68.98205" lon="20.10015"><ele>794.65</ele></trkpt>
			<trkpt lat="68.98144" lon="20.10051"><ele>794.826</ele></trkpt>
			<trkpt lat="68.98112" lon="20.10052"><ele>793.192</ele></trkpt>
			<trkpt lat="68.98026" lon="20.10036"><ele>785.448</ele></trkpt>
			<trkpt lat="68.97936" lon="20.09992"><ele>778.88</ele></trkpt>
			<trkpt lat="68.97655" lon="20.09886"><ele>756.9</ele></trkpt>
			<trkpt lat="68.97605" lon="20.09749"><ele>747.936</ele></trkpt>
			<trkpt lat="68.97552" lon="20.09597"><ele>741.616</ele></trkpt>
			<trkpt lat="68.97506" lon="20.09476"><ele>737.325</ele></trkpt>
			<trkpt lat="68.97438" lon="20.09365"><ele>730.836</ele></trkpt>
			<trkpt lat="68.97416" lon="20.09308"><ele>732.086</ele></trkpt>
			<trkpt lat="68.97416" lon="20.09308"><ele>732.086</ele></trkpt>
			<trkpt lat="68.97312" lon="20.0903"><ele>718.715</ele></trkpt>
			<trkpt lat="68.97134" lon="20.08725"><ele>693.59</ele></trkpt>
			<trkpt lat="68.9706" lon="20.0863"><ele>681.68</ele></trkpt>
			<trkpt lat="68.9706" lon="20.0863"><ele>681.68</ele></trkpt>
			<trkpt lat="68.97028" lon="20.08569"><ele>678.488</ele></trkpt>
			<trkpt lat="68.96856" lon="20.08301"><ele>666.582</ele></trkpt>
			<trkpt lat="68.96856" lon="20.08301"><ele>666.582</ele></trkpt>
			<trkpt lat="68.96819" lon="20.08224"><ele>662.419</ele></trkpt>
			<trkpt lat="68.96787" lon="20.08226"><ele>660.287</ele></trkpt>
			<trkpt lat="68.96701" lon="20.08209"><ele>650.719</ele></trkpt>
			<trkpt lat="68.96674" lon="20.08231"><ele>648.295</ele></trkpt>
			<trkpt lat="68.96647" lon="20.08196"><ele>647.369</ele></trkpt>
			<trkpt lat="68.96628" lon="20.08204"><ele>646.798</ele></trkpt>
			<trkpt lat="68.96628" lon="20.08204"><ele>646.798</ele></trkpt>
			<trkpt lat="68.96611" lon="20.08211"><ele>645.982</ele></trkpt>
			<trkpt lat="68.96569" lon="20.08284"><ele>639.792</ele></trkpt>
			<trkpt lat="68.9644" lon="20.08275"><ele>645.68</ele></trkpt>
			<trkpt lat="68.9642" lon="20.08301"><ele>644.039</ele></trkpt>
			<trkpt lat="68.9642" lon="20.08301"><ele>644.039</ele></trkpt>
			<trkpt lat="68.964" lon="20.08327"><ele>644.754</ele></trkpt>
			<trkpt lat="68.96369" lon="20.08301"><ele>646.984</ele></trkpt>
			<trkpt lat="68.96369" lon="20.08301"><ele>646.984</ele></trkpt>
			<trkpt lat="68.96338" lon="20.08275"><ele>646.9</ele></trkpt>
			<trkpt lat="68.96237" lon="20.08301"><ele>647.468</ele></trkpt>
			<trkpt lat="68.96237" lon="20.08301"><ele>647.468</ele></trkpt>
			<trkpt lat="68.96025" lon="20.08354"><ele>647.8</ele></trkpt>
			<trkpt lat="68.95972" lon="20.08318"><ele>645.1</ele></trkpt>
			<trkpt lat="68.95923" lon="20.08333"><ele>645.556</ele></trkpt>
			<trkpt lat="68.95839" lon="20.08332"><ele>645.816</ele></trkpt>
			<trkpt lat="68.95839" lon="20.08332"><ele>645.816</ele></trkpt>
			<trkpt lat="68.95762" lon="20.08309"><ele>643.864</ele></trkpt>
			<trkpt lat="68.95683" lon="20.08312"><ele>637.629</ele></trkpt>
			<trkpt lat="68.9568" lon="20.08301"><ele>637.565</ele></trkpt>
			<trkpt lat="68.9568" lon="20.08301"><ele>637.565</ele></trkpt>
			<trkpt lat="68.95657" lon="20.08226"><ele>641.519</ele></trkpt>
			<trkpt lat="68.95629" lon="20.08262"><ele>642.471</ele></trkpt>
			<trkpt lat="68.95606" lon="20.08276"><ele>643.327</ele></trkpt>
			<trkpt lat="68.95355" lon="20.08232"><ele>650.648</ele></trkpt>
			<trkpt lat="68.95238" lon="20.08168"><ele>650.931</ele></trkpt>
			<trkpt lat="68.95118" lon="20.08078"><ele>646.832</ele></trkpt>
			<trkpt lat="68.9505" lon="20.08018"><ele>643.034</ele></trkpt>
			<trkpt lat="68.9505" lon="20.08018"><ele>643.034</ele></trkpt>
			<trkpt lat="68.95027" lon="20.07997"><ele>641.126</ele></trkpt>
			<trkpt lat="68.94939" lon="20.07786"><ele>635.962</ele></trkpt>
			<trkpt lat="68.94853" lon="20.07609"><ele>633.2</ele></trkpt>
			<trkpt lat="68.94818" lon="20.07346"><ele>629.996</ele></trkpt>
			<trkpt lat="68.9473" lon="20.07176"><ele>623.69</ele></trkpt>
			<trkpt lat="68.94688" lon="20.07084"><ele>620.066</ele></trkpt>
			<trkpt lat="68.94625" lon="20.06862"><ele>616.468</ele></trkpt>
			<trkpt lat="68.94493" lon="20.06376"><ele>602.109</ele></trkpt>
			<trkpt lat="68.94424" lon="20.06104"><ele>593.056</ele></trkpt>
			<trkpt lat="68.94424" lon="20.06104"><ele>593.056</ele></trkpt>
			<trkpt lat="68.94315" lon="20.0567"><ele>573.82</ele></trkpt>
			<trkpt lat="68.94261" lon="20.05529"><ele>563.98</ele></trkpt>
			<trkpt lat="68.94261" lon="20.05529"><ele>563.98</ele></trkpt>
			<trkpt lat="68.94214" lon="20.05407"><ele>551.979</ele></trkpt>
			<trkpt lat="68.94189" lon="20.05314"><ele>546.352</ele></trkpt>
			<trkpt lat="68.94171" lon="20.05211"><ele>544.561</ele></trkpt>
			<trkpt lat="68.94175" lon="20.05148"><ele>543.758</ele></trkpt>
			<trkpt lat="68.94156" lon="20.05063"><ele>539.678</ele></trkpt>
			<trkpt lat="68.94115" lon="20.04961"><ele>531.104</ele></trkpt>
			<trkpt lat="68.94081" lon="20.04829"><ele>522.424</ele></trkpt>
			<trkpt lat="68.94063" lon="20.04702"><ele>516.145</ele></trkpt>
			<trkpt lat="68.94023" lon="20.04661"><ele>509.452</ele></trkpt>
			<trkpt lat="68.93993" lon="20.04603"><ele>506.286</ele></trkpt>
			<trkpt lat="68.93956" lon="20.0446"><ele>492.616</ele></trkpt>
			<trkpt lat="68.93971" lon="20.04267"><ele>484.436</ele></trkpt>
			<trkpt lat="68.93986" lon="20.03992"><ele>475.702</ele></trkpt>
			<trkpt lat="68.94004" lon="20.03906"><ele>473.192</ele></trkpt>
			<trkpt lat="68.94004" lon="20.03906"><ele>473.192</ele></trkpt>
			<trkpt lat="68.94014" lon="20.03855"><ele>473.401</ele></trkpt>
			<trkpt lat="68.94011" lon="20.037"><ele>468.871</ele></trkpt>
			<trkpt lat="68.94048" lon="20.03505"><ele>466.636</ele></trkpt>
			<trkpt lat="68.9404" lon="20.0345"><ele>465.536</ele></trkpt>
			<trkpt lat="68.9403" lon="20.03351"><ele>465.92</ele></trkpt>
			<trkpt lat="68.94036" lon="20.03242"><ele>466.704</ele></trkpt>
			<trkpt lat="68.94019" lon="20.03095"><ele>467</ele></trkpt>
			<trkpt lat="68.94006" lon="20.03043"><ele>467</ele></trkpt>
			<trkpt lat="68.93986" lon="20.02892"><ele>465.992</ele></trkpt>
			<trkpt lat="68.93958" lon="20.02777"><ele>465.01</ele></trkpt>
			<trkpt lat="68.93958" lon="20.02777"><ele>465.01</ele></trkpt>
			<trkpt lat="68.93951369925004" lon="20.027199076875323"><ele>464.73</ele></trkpt>
			<trkpt lat="68.93941977817296" lon="20.027303695678714"><ele>464.796</ele></trkpt>
		</trkseg>
	</trk>
</gpx>
