<?xml version="1.0"?>
<gpx xmlns="http://www.topografix.com/GPX/1/1" xmlns:gpxx="http://www.garmin.com/xmlschemas/GpxExtensions/v3" creator="CALTOPO" version="1.1"><metadata><name><![CDATA[halti-pitsus]]></name></metadata><trk><name>halti-pitsus</name><trkseg><trkpt lat="69.28619693708019" lon="21.268008407934595"/><trkpt lat="69.28616" lon="21.26815"/><trkpt lat="69.28611183042607" lon="21.268701274012784"/><trkpt lat="69.28611183042607" lon="21.268701274012784"/><trkpt lat="69.28607" lon="21.26918"/><trkpt lat="69.28597" lon="21.26953"/><trkpt lat="69.28597" lon="21.26953"/><trkpt lat="69.28589" lon="21.27109"/><trkpt lat="69.28583" lon="21.27152"/><trkpt lat="69.28574" lon="21.27208"/><trkpt lat="69.28567" lon="21.27237"/><trkpt lat="69.28553" lon="21.27313"/><trkpt lat="69.28546" lon="21.27336"/><trkpt lat="69.28531" lon="21.2743"/><trkpt lat="69.28505" lon="21.2755"/><trkpt lat="69.28496" lon="21.27616"/><trkpt lat="69.28492" lon="21.27662"/><trkpt lat="69.2849" lon="21.27737"/><trkpt lat="69.28485" lon="21.27778"/><trkpt lat="69.28463" lon="21.27869"/><trkpt lat="69.28446" lon="21.27985"/><trkpt lat="69.28444" lon="21.28012"/><trkpt lat="69.28441" lon="21.28091"/><trkpt lat="69.28434" lon="21.28146"/><trkpt lat="69.28423" lon="21.28202"/><trkpt lat="69.28396" lon="21.28262"/><trkpt lat="69.28389" lon="21.28305"/><trkpt lat="69.28368" lon="21.28367"/><trkpt lat="69.28353" lon="21.28426"/><trkpt lat="69.28347" lon="21.28464"/><trkpt lat="69.28347" lon="21.28507"/><trkpt lat="69.28342" lon="21.28536"/><trkpt lat="69.28306" lon="21.28669"/><trkpt lat="69.28291" lon="21.28716"/><trkpt lat="69.28278" lon="21.28742"/><trkpt lat="69.28261" lon="21.28797"/><trkpt lat="69.28245" lon="21.28857"/><trkpt lat="69.28236" lon="21.2891"/><trkpt lat="69.28228" lon="21.28941"/><trkpt lat="69.28217" lon="21.28957"/><trkpt lat="69.28207" lon="21.28991"/><trkpt lat="69.2819" lon="21.29052"/><trkpt lat="69.2818" lon="21.29103"/><trkpt lat="69.28175" lon="21.29142"/><trkpt lat="69.28174" lon="21.2915"/><trkpt lat="69.28174" lon="21.2915"/><trkpt lat="69.28168" lon="21.29175"/><trkpt lat="69.28167994369389" lon="21.29174926541915"/><trkpt lat="69.28163" lon="21.29178"/><trkpt lat="69.2814" lon="21.29202"/><trkpt lat="69.28095" lon="21.29243"/><trkpt lat="69.2805" lon="21.29257"/><trkpt lat="69.28006" lon="21.29238"/><trkpt lat="69.27962" lon="21.2923"/><trkpt lat="69.27948" lon="21.29234"/><trkpt lat="69.27948" lon="21.29234"/><trkpt lat="69.27901" lon="21.29251"/><trkpt lat="69.27829" lon="21.2926"/><trkpt lat="69.27799" lon="21.29253"/><trkpt lat="69.27792" lon="21.29256"/><trkpt lat="69.27784" lon="21.2925"/><trkpt lat="69.27777" lon="21.29253"/><trkpt lat="69.27759" lon="21.29253"/><trkpt lat="69.27754" lon="21.2925"/><trkpt lat="69.27742" lon="21.2925"/><trkpt lat="69.27706" lon="21.29255"/><trkpt lat="69.27684" lon="21.29255"/><trkpt lat="69.27643" lon="21.2924"/><trkpt lat="69.27628" lon="21.29219"/><trkpt lat="69.27598" lon="21.29198"/><trkpt lat="69.27577" lon="21.29168"/><trkpt lat="69.2755" lon="21.29153"/><trkpt lat="69.27534" lon="21.2915"/><trkpt lat="69.27534" lon="21.2915"/><trkpt lat="69.27462" lon="21.2911"/><trkpt lat="69.27419" lon="21.29064"/><trkpt lat="69.27402" lon="21.29028"/><trkpt lat="69.27332" lon="21.28813"/><trkpt lat="69.27309" lon="21.28766"/><trkpt lat="69.2727" lon="21.28734"/><trkpt lat="69.27239" lon="21.28661"/><trkpt lat="69.27195" lon="21.28543"/><trkpt lat="69.27177" lon="21.28468"/><trkpt lat="69.27171" lon="21.28458"/><trkpt lat="69.27171" lon="21.28458"/><trkpt lat="69.27147" lon="21.28415"/><trkpt lat="69.27126016487213" lon="21.283940164872146"/><trkpt lat="69.27126016492132" lon="21.283940164872146"/><trkpt lat="69.27125" lon="21.28393"/><trkpt lat="69.27102" lon="21.2838"/><trkpt lat="69.27056" lon="21.28368"/><trkpt lat="69.2702" lon="21.28339"/><trkpt lat="69.26973" lon="21.28316"/><trkpt lat="69.26934" lon="21.28302"/><trkpt lat="69.2693" lon="21.28296"/><trkpt lat="69.26901" lon="21.28278"/><trkpt lat="69.26883" lon="21.28275"/><trkpt lat="69.26876" lon="21.28281"/><trkpt lat="69.26865" lon="21.2828"/><trkpt lat="69.26854" lon="21.28269"/><trkpt lat="69.26829" lon="21.28266"/><trkpt lat="69.26822" lon="21.28271"/><trkpt lat="69.26808" lon="21.28263"/><trkpt lat="69.26801" lon="21.28265"/><trkpt lat="69.26792" lon="21.28253"/><trkpt lat="69.26778" lon="21.28267"/><trkpt lat="69.26749" lon="21.28266"/><trkpt lat="69.2673" lon="21.28254"/><trkpt lat="69.26725" lon="21.28258"/><trkpt lat="69.26698" lon="21.28263"/><trkpt lat="69.26685" lon="21.28268"/><trkpt lat="69.26677" lon="21.2826"/><trkpt lat="69.26649" lon="21.28256"/><trkpt lat="69.2664" lon="21.2825"/><trkpt lat="69.26617" lon="21.28245"/><trkpt lat="69.26613" lon="21.28234"/><trkpt lat="69.26604" lon="21.2823"/><trkpt lat="69.26604" lon="21.2823"/><trkpt lat="69.2659" lon="21.28236"/><trkpt lat="69.26582" lon="21.28244"/><trkpt lat="69.26569" lon="21.2824"/><trkpt lat="69.26546" lon="21.28242"/><trkpt lat="69.26536" lon="21.28248"/><trkpt lat="69.26529" lon="21.28248"/><trkpt lat="69.26524" lon="21.28254"/><trkpt lat="69.26496" lon="21.28259"/><trkpt lat="69.26486" lon="21.28259"/><trkpt lat="69.26476" lon="21.28254"/><trkpt lat="69.26467" lon="21.28256"/><trkpt lat="69.26452" lon="21.28252"/><trkpt lat="69.26424" lon="21.28266"/><trkpt lat="69.26393" lon="21.28273"/><trkpt lat="69.26393" lon="21.28273"/><trkpt lat="69.26368" lon="21.28288"/><trkpt lat="69.26347" lon="21.28292"/><trkpt lat="69.26321" lon="21.28284"/><trkpt lat="69.26321" lon="21.28284"/><trkpt lat="69.26321" lon="21.28284"/><trkpt lat="69.26264" lon="21.28251"/><trkpt lat="69.26245" lon="21.28237"/><trkpt lat="69.2622609215789" lon="21.28206059868058"/><trkpt lat="69.2622609215789" lon="21.28206059868058"/><trkpt lat="69.26223" lon="21.28201"/><trkpt lat="69.26211" lon="21.28167"/><trkpt lat="69.26207" lon="21.28151"/><trkpt lat="69.26189" lon="21.2811"/><trkpt lat="69.2618" lon="21.28093"/><trkpt lat="69.26176" lon="21.28079"/><trkpt lat="69.26171" lon="21.28072"/><trkpt lat="69.26163" lon="21.2807"/><trkpt lat="69.26133" lon="21.28034"/><trkpt lat="69.26084" lon="21.2799"/><trkpt lat="69.26082" lon="21.27984"/><trkpt lat="69.26065" lon="21.27968"/><trkpt lat="69.26047" lon="21.27942"/><trkpt lat="69.26037" lon="21.27913"/><trkpt lat="69.26022" lon="21.27884"/><trkpt lat="69.26009" lon="21.2785"/><trkpt lat="69.26003" lon="21.2783"/><trkpt lat="69.25998" lon="21.27818"/><trkpt lat="69.25995" lon="21.27796"/><trkpt lat="69.25987" lon="21.27766"/><trkpt lat="69.25979" lon="21.27757"/><trkpt lat="69.25965" lon="21.27783"/><trkpt lat="69.25958" lon="21.27813"/><trkpt lat="69.25948" lon="21.27835"/><trkpt lat="69.25936" lon="21.27846"/><trkpt lat="69.25908" lon="21.27892"/><trkpt lat="69.25892" lon="21.27901"/><trkpt lat="69.25872" lon="21.27928"/><trkpt lat="69.25846" lon="21.27945"/><trkpt lat="69.25816" lon="21.27934"/><trkpt lat="69.25802" lon="21.27921"/><trkpt lat="69.25777" lon="21.27905"/><trkpt lat="69.25756" lon="21.27905"/><trkpt lat="69.25706" lon="21.2794"/><trkpt lat="69.2569" lon="21.27964"/><trkpt lat="69.25679" lon="21.27967"/><trkpt lat="69.25632" lon="21.28001"/><trkpt lat="69.25632" lon="21.28001"/><trkpt lat="69.25632" lon="21.28001"/><trkpt lat="69.25615" lon="21.28026"/><trkpt lat="69.25615" lon="21.28026"/><trkpt lat="69.25608" lon="21.28037"/><trkpt lat="69.25548" lon="21.2809"/><trkpt lat="69.25536" lon="21.28088"/><trkpt lat="69.25536" lon="21.28088"/><trkpt lat="69.25536" lon="21.28088"/><trkpt lat="69.25521" lon="21.28091"/><trkpt lat="69.25505" lon="21.28105"/><trkpt lat="69.25459" lon="21.2811"/><trkpt lat="69.25413" lon="21.28146"/><trkpt lat="69.25256" lon="21.28193"/><trkpt lat="69.25215" lon="21.28215"/><trkpt lat="69.25194" lon="21.28253"/><trkpt lat="69.25173" lon="21.28267"/><trkpt lat="69.25134" lon="21.28282"/><trkpt lat="69.25122" lon="21.28277"/><trkpt lat="69.25059" lon="21.28305"/><trkpt lat="69.24997" lon="21.28316"/><trkpt lat="69.24976" lon="21.28311"/><trkpt lat="69.24934" lon="21.28329"/><trkpt lat="69.24837" lon="21.28339"/><trkpt lat="69.24837" lon="21.28339"/><trkpt lat="69.24782" lon="21.28347"/><trkpt lat="69.24743" lon="21.28349"/><trkpt lat="69.24691" lon="21.28339"/><trkpt lat="69.24632" lon="21.28314"/><trkpt lat="69.24616" lon="21.28317"/><trkpt lat="69.246" lon="21.28305"/><trkpt lat="69.24589" lon="21.28312"/><trkpt lat="69.24574" lon="21.28296"/><trkpt lat="69.24536" lon="21.28272"/><trkpt lat="69.24488" lon="21.2829"/><trkpt lat="69.24479" lon="21.28284"/><trkpt lat="69.24421" lon="21.28293"/><trkpt lat="69.24396" lon="21.28289"/><trkpt lat="69.24377" lon="21.28304"/><trkpt lat="69.24342" lon="21.2831"/><trkpt lat="69.24306" lon="21.28326"/><trkpt lat="69.24239" lon="21.28347"/><trkpt lat="69.24064" lon="21.2838"/><trkpt lat="69.24058" lon="21.28388"/><trkpt lat="69.24058" lon="21.28388"/><trkpt lat="69.24032" lon="21.28416"/><trkpt lat="69.23965" lon="21.2845"/><trkpt lat="69.23908" lon="21.28439"/><trkpt lat="69.2389" lon="21.28452"/><trkpt lat="69.23883" lon="21.28465"/><trkpt lat="69.23826" lon="21.28468"/><trkpt lat="69.23781" lon="21.28506"/><trkpt lat="69.23752" lon="21.28543"/><trkpt lat="69.2373" lon="21.28575"/><trkpt lat="69.23681" lon="21.28665"/><trkpt lat="69.2364" lon="21.28712"/><trkpt lat="69.2363726053133" lon="21.287158766068806"/><trkpt lat="69.2363726053133" lon="21.287158766068806"/><trkpt lat="69.23587" lon="21.28787"/><trkpt lat="69.23570061177325" lon="21.287959488119796"/><trkpt lat="69.23570061177325" lon="21.287959488119796"/><trkpt lat="69.23534" lon="21.28815"/><trkpt lat="69.23493" lon="21.28804"/><trkpt lat="69.23477" lon="21.2881"/><trkpt lat="69.23459" lon="21.28806"/><trkpt lat="69.23444" lon="21.28819"/><trkpt lat="69.23412" lon="21.28819"/><trkpt lat="69.23397" lon="21.28813"/><trkpt lat="69.23387" lon="21.28813"/><trkpt lat="69.23364" lon="21.2882"/><trkpt lat="69.23333" lon="21.28818"/><trkpt lat="69.23312" lon="21.2883"/><trkpt lat="69.23279" lon="21.28842"/><trkpt lat="69.23279" lon="21.28842"/><trkpt lat="69.23252" lon="21.28854"/><trkpt lat="69.23228" lon="21.2886"/><trkpt lat="69.23209" lon="21.28873"/><trkpt lat="69.23188" lon="21.28877"/><trkpt lat="69.23177" lon="21.28883"/><trkpt lat="69.23152" lon="21.28904"/><trkpt lat="69.23134" lon="21.28906"/><trkpt lat="69.23121" lon="21.28913"/><trkpt lat="69.23121" lon="21.28913"/><trkpt lat="69.23115746927334" lon="21.28915918307957"/></trkseg></trk></gpx>