<?xml version="1.0"?>
<gpx xmlns="http://www.topografix.com/GPX/1/1" xmlns:gpxx="http://www.garmin.com/xmlschemas/GpxExtensions/v3" creator="CALTOPO" version="1.1"><metadata><name><![CDATA[kilpisjarvi-kuonjarjoki]]></name></metadata><trk><name>kilpisjarvi-kuonjarjoki</name><trkseg><trkpt lat="69.01401145908825" lon="20.8785664565166"/><trkpt lat="69.01401" lon="20.87857"/><trkpt lat="69.01401" lon="20.87857"/><trkpt lat="69.01388" lon="20.87978"/><trkpt lat="69.01388" lon="20.87978"/><trkpt lat="69.01388" lon="20.87978"/><trkpt lat="69.01397" lon="20.88058"/><trkpt lat="69.01398" lon="20.88087"/><trkpt lat="69.01397" lon="20.88109"/><trkpt lat="69.01393" lon="20.88124"/><trkpt lat="69.01355" lon="20.88228"/><trkpt lat="69.01355" lon="20.88228"/><trkpt lat="69.01331" lon="20.88291"/><trkpt lat="69.01323" lon="20.88294"/><trkpt lat="69.01312" lon="20.88277"/><trkpt lat="69.01308" lon="20.88278"/><trkpt lat="69.01304" lon="20.88287"/><trkpt lat="69.01301" lon="20.88297"/><trkpt lat="69.01298" lon="20.88316"/><trkpt lat="69.01298" lon="20.88345"/><trkpt lat="69.01291" lon="20.88398"/><trkpt lat="69.012910498131" lon="20.883978852178323"/><trkpt lat="69.01305" lon="20.88445"/><trkpt lat="69.01309308178408" lon="20.884582322182222"/><trkpt lat="69.01309308178408" lon="20.884582322182222"/><trkpt lat="69.01276" lon="20.88559"/><trkpt lat="69.01276" lon="20.88559"/><trkpt lat="69.01268" lon="20.88584"/><trkpt lat="69.01268" lon="20.88584"/><trkpt lat="69.01254" lon="20.88622"/><trkpt lat="69.01254" lon="20.88622"/><trkpt lat="69.01238059381413" lon="20.886677426467188"/><trkpt lat="69.01238059381413" lon="20.886677426467188"/><trkpt lat="69.01242" lon="20.88717"/><trkpt lat="69.01242160714018" lon="20.88717421875795"/><trkpt lat="69.01166" lon="20.88944"/><trkpt lat="69.01166" lon="20.88944"/><trkpt lat="69.01183" lon="20.88987"/><trkpt lat="69.01183" lon="20.88987"/><trkpt lat="69.01193088769271" lon="20.890025535192926"/><trkpt lat="69.01193088769271" lon="20.890025535192926"/><trkpt lat="69.01207" lon="20.89024"/><trkpt lat="69.01207" lon="20.89024"/><trkpt lat="69.01214" lon="20.8903"/><trkpt lat="69.01214" lon="20.8903"/><trkpt lat="69.01241" lon="20.89073"/><trkpt lat="69.01241" lon="20.89073"/><trkpt lat="69.01255" lon="20.89091"/><trkpt lat="69.01282" lon="20.89117"/><trkpt lat="69.01291" lon="20.89135"/><trkpt lat="69.01293" lon="20.89147"/><trkpt lat="69.01293" lon="20.89147"/><trkpt lat="69.01326" lon="20.89197"/><trkpt lat="69.01326" lon="20.89197"/><trkpt lat="69.01326" lon="20.89197"/><trkpt lat="69.01347" lon="20.89252"/><trkpt lat="69.01355" lon="20.89264"/><trkpt lat="69.01355" lon="20.89264"/><trkpt lat="69.01361" lon="20.89274"/><trkpt lat="69.01377" lon="20.89282"/><trkpt lat="69.01377" lon="20.89282"/><trkpt lat="69.01377" lon="20.89282"/><trkpt lat="69.01391" lon="20.89298"/><trkpt lat="69.01408" lon="20.8931"/><trkpt lat="69.01417" lon="20.89328"/><trkpt lat="69.01423" lon="20.89333"/><trkpt lat="69.0143" lon="20.89322"/><trkpt lat="69.01439" lon="20.893"/><trkpt lat="69.01456" lon="20.89282"/><trkpt lat="69.01469" lon="20.89262"/><trkpt lat="69.01485" lon="20.89253"/><trkpt lat="69.01494" lon="20.89255"/><trkpt lat="69.01509" lon="20.89269"/><trkpt lat="69.01517" lon="20.89264"/><trkpt lat="69.0153" lon="20.89241"/><trkpt lat="69.0153" lon="20.89241"/><trkpt lat="69.01542" lon="20.89242"/><trkpt lat="69.01549" lon="20.8923"/><trkpt lat="69.01574" lon="20.89223"/><trkpt lat="69.01588" lon="20.89215"/><trkpt lat="69.01598" lon="20.89214"/><trkpt lat="69.01608" lon="20.89218"/><trkpt lat="69.01614" lon="20.89239"/><trkpt lat="69.01622" lon="20.89274"/><trkpt lat="69.01641" lon="20.893"/><trkpt lat="69.01655" lon="20.89311"/><trkpt lat="69.0167" lon="20.89329"/><trkpt lat="69.01683" lon="20.89327"/><trkpt lat="69.01683" lon="20.89327"/><trkpt lat="69.01683" lon="20.89327"/><trkpt lat="69.01699" lon="20.89369"/><trkpt lat="69.01704" lon="20.89391"/><trkpt lat="69.01709" lon="20.89407"/><trkpt lat="69.01769" lon="20.89467"/><trkpt lat="69.01813" lon="20.896"/><trkpt lat="69.01813" lon="20.896"/><trkpt lat="69.01823" lon="20.89615"/><trkpt lat="69.01827" lon="20.89629"/><trkpt lat="69.01833" lon="20.89667"/><trkpt lat="69.01838" lon="20.89681"/><trkpt lat="69.01845" lon="20.89695"/><trkpt lat="69.01854" lon="20.89698"/><trkpt lat="69.01854205986292" lon="20.89697379962615"/><trkpt lat="69.01857" lon="20.89705"/><trkpt lat="69.01878" lon="20.89759"/><trkpt lat="69.01887" lon="20.89793"/><trkpt lat="69.01899" lon="20.89918"/><trkpt lat="69.01905" lon="20.89947"/><trkpt lat="69.01916" lon="20.89973"/><trkpt lat="69.01929" lon="20.89996"/><trkpt lat="69.01955" lon="20.90034"/><trkpt lat="69.01971" lon="20.90067"/><trkpt lat="69.01984" lon="20.90074"/><trkpt lat="69.01984" lon="20.90074"/><trkpt lat="69.02003" lon="20.90165"/><trkpt lat="69.02024" lon="20.90239"/><trkpt lat="69.02024" lon="20.90239"/><trkpt lat="69.02023" lon="20.90305"/><trkpt lat="69.0203" lon="20.90336"/><trkpt lat="69.0203" lon="20.90336"/><trkpt lat="69.0203" lon="20.90336"/><trkpt lat="69.02038" lon="20.90407"/><trkpt lat="69.02038" lon="20.90407"/><trkpt lat="69.02049" lon="20.90428"/><trkpt lat="69.02055" lon="20.90473"/><trkpt lat="69.02055" lon="20.90503"/><trkpt lat="69.02053" lon="20.90542"/><trkpt lat="69.02058" lon="20.90589"/><trkpt lat="69.02058" lon="20.90589"/><trkpt lat="69.02058" lon="20.90589"/><trkpt lat="69.02068" lon="20.90634"/><trkpt lat="69.02085" lon="20.90689"/><trkpt lat="69.02085" lon="20.90689"/><trkpt lat="69.02102" lon="20.90741"/><trkpt lat="69.02113" lon="20.90808"/><trkpt lat="69.02106" lon="20.90851"/><trkpt lat="69.02091" lon="20.90911"/><trkpt lat="69.02069" lon="20.90964"/><trkpt lat="69.02068" lon="20.91009"/><trkpt lat="69.02073" lon="20.91127"/><trkpt lat="69.0205" lon="20.91265"/><trkpt lat="69.02051" lon="20.91337"/><trkpt lat="69.02064" lon="20.914"/><trkpt lat="69.02074" lon="20.91432"/><trkpt lat="69.02108" lon="20.91513"/><trkpt lat="69.02134" lon="20.91632"/><trkpt lat="69.02134" lon="20.91696"/><trkpt lat="69.02135" lon="20.91797"/><trkpt lat="69.02135" lon="20.91797"/><trkpt lat="69.02131" lon="20.91897"/><trkpt lat="69.02122" lon="20.91995"/><trkpt lat="69.02118" lon="20.92103"/><trkpt lat="69.02137" lon="20.92258"/><trkpt lat="69.02141" lon="20.92321"/><trkpt lat="69.02141" lon="20.92321"/><trkpt lat="69.02144" lon="20.92358"/><trkpt lat="69.02141" lon="20.924"/><trkpt lat="69.02141" lon="20.924"/><trkpt lat="69.02139" lon="20.92439"/><trkpt lat="69.02128" lon="20.92524"/><trkpt lat="69.02113" lon="20.9258"/><trkpt lat="69.02109" lon="20.92709"/><trkpt lat="69.02118" lon="20.92766"/><trkpt lat="69.02114" lon="20.92801"/><trkpt lat="69.02121" lon="20.92889"/><trkpt lat="69.02122" lon="20.92959"/><trkpt lat="69.02128" lon="20.9299"/><trkpt lat="69.0213" lon="20.93131"/><trkpt lat="69.02136049721628" lon="20.931847751363353"/><trkpt lat="69.02136049721628" lon="20.931847751363353"/><trkpt lat="69.02139" lon="20.93211"/><trkpt lat="69.02139100359832" lon="20.932140107949557"/><trkpt lat="69.02139161154243" lon="20.932158346272942"/><trkpt lat="69.02139212649553" lon="20.932173794866095"/><trkpt lat="69.02139263608939" lon="20.9321890826817"/><trkpt lat="69.02141" lon="20.93271"/><trkpt lat="69.02141" lon="20.93271"/><trkpt lat="69.02141" lon="20.93271"/><trkpt lat="69.02141" lon="20.9329"/><trkpt lat="69.02141" lon="20.9329"/><trkpt lat="69.02145" lon="20.93363"/><trkpt lat="69.02148" lon="20.93388"/><trkpt lat="69.02148" lon="20.93472"/><trkpt lat="69.02144" lon="20.93505"/><trkpt lat="69.02143" lon="20.93551"/><trkpt lat="69.02153" lon="20.93598"/><trkpt lat="69.02161" lon="20.93658"/><trkpt lat="69.02166" lon="20.93686"/><trkpt lat="69.0217" lon="20.93726"/><trkpt lat="69.02178" lon="20.93787"/><trkpt lat="69.02191" lon="20.93832"/><trkpt lat="69.02199" lon="20.93879"/><trkpt lat="69.02199" lon="20.93879"/><trkpt lat="69.02203" lon="20.93893"/><trkpt lat="69.02203" lon="20.93893"/><trkpt lat="69.02207" lon="20.93909"/><trkpt lat="69.02207" lon="20.93909"/><trkpt lat="69.02209" lon="20.93902"/><trkpt lat="69.02222" lon="20.93896"/><trkpt lat="69.02235" lon="20.93878"/><trkpt lat="69.02252" lon="20.93854"/><trkpt lat="69.02267" lon="20.93822"/><trkpt lat="69.0227" lon="20.93812"/><trkpt lat="69.0227" lon="20.93812"/><trkpt lat="69.02281" lon="20.93804"/><trkpt lat="69.02287" lon="20.93795"/><trkpt lat="69.02293" lon="20.93798"/><trkpt lat="69.02293" lon="20.93798"/><trkpt lat="69.02293" lon="20.93798"/><trkpt lat="69.02327" lon="20.93852"/><trkpt lat="69.02346" lon="20.93864"/><trkpt lat="69.02375" lon="20.93907"/><trkpt lat="69.02397" lon="20.93917"/><trkpt lat="69.02404" lon="20.93956"/><trkpt lat="69.0242" lon="20.93972"/><trkpt lat="69.02438" lon="20.93943"/><trkpt lat="69.0245" lon="20.93946"/><trkpt lat="69.02485" lon="20.93966"/><trkpt lat="69.02511" lon="20.93994"/><trkpt lat="69.02511" lon="20.93994"/><trkpt lat="69.02516" lon="20.93999"/><trkpt lat="69.02527" lon="20.93994"/><trkpt lat="69.02527" lon="20.93994"/><trkpt lat="69.02534" lon="20.93987"/><trkpt lat="69.02542" lon="20.93987"/><trkpt lat="69.02542" lon="20.93987"/><trkpt lat="69.02542" lon="20.93987"/><trkpt lat="69.02546" lon="20.93994"/><trkpt lat="69.02546" lon="20.93994"/><trkpt lat="69.02559" lon="20.94015"/><trkpt lat="69.0257" lon="20.94047"/><trkpt lat="69.02576" lon="20.94054"/><trkpt lat="69.02584" lon="20.94092"/><trkpt lat="69.02615" lon="20.94154"/><trkpt lat="69.02629" lon="20.9415"/><trkpt lat="69.02639" lon="20.94158"/><trkpt lat="69.02648" lon="20.94184"/><trkpt lat="69.02668" lon="20.94232"/><trkpt lat="69.0269" lon="20.94243"/><trkpt lat="69.02698" lon="20.94258"/><trkpt lat="69.02736" lon="20.94314"/><trkpt lat="69.02748" lon="20.94338"/><trkpt lat="69.02758" lon="20.94383"/><trkpt lat="69.02772" lon="20.94405"/><trkpt lat="69.02803" lon="20.94432"/><trkpt lat="69.02839" lon="20.94445"/><trkpt lat="69.02882" lon="20.94455"/><trkpt lat="69.02928" lon="20.94454"/><trkpt lat="69.02928" lon="20.94454"/><trkpt lat="69.02987" lon="20.94453"/><trkpt lat="69.03064" lon="20.94398"/><trkpt lat="69.0308" lon="20.94408"/><trkpt lat="69.03093" lon="20.94431"/><trkpt lat="69.03106" lon="20.94436"/><trkpt lat="69.03114" lon="20.94452"/><trkpt lat="69.03128" lon="20.9449"/><trkpt lat="69.03138" lon="20.94503"/><trkpt lat="69.03138" lon="20.94503"/><trkpt lat="69.03162" lon="20.94551"/><trkpt lat="69.03174" lon="20.94589"/><trkpt lat="69.03178" lon="20.94594"/><trkpt lat="69.0321" lon="20.94612"/><trkpt lat="69.03236" lon="20.94604"/><trkpt lat="69.03246" lon="20.94593"/><trkpt lat="69.03265" lon="20.94592"/><trkpt lat="69.03304" lon="20.94582"/><trkpt lat="69.03318" lon="20.94584"/><trkpt lat="69.03329" lon="20.94603"/><trkpt lat="69.03358" lon="20.94629"/><trkpt lat="69.03371" lon="20.94669"/><trkpt lat="69.03392" lon="20.94726"/><trkpt lat="69.03415" lon="20.94831"/><trkpt lat="69.03457" lon="20.94929"/><trkpt lat="69.03469" lon="20.94938"/><trkpt lat="69.03484" lon="20.94946"/><trkpt lat="69.03533" lon="20.94939"/><trkpt lat="69.03553" lon="20.94946"/><trkpt lat="69.0357" lon="20.94982"/><trkpt lat="69.03585" lon="20.95023"/><trkpt lat="69.03597" lon="20.9507"/><trkpt lat="69.03641" lon="20.95315"/><trkpt lat="69.03668" lon="20.95397"/><trkpt lat="69.03668" lon="20.95397"/><trkpt lat="69.03668" lon="20.95397"/><trkpt lat="69.03714" lon="20.95513"/><trkpt lat="69.03714" lon="20.95513"/><trkpt lat="69.03718" lon="20.95523"/><trkpt lat="69.03731" lon="20.95565"/><trkpt lat="69.03741" lon="20.9559"/><trkpt lat="69.03756" lon="20.95651"/><trkpt lat="69.0378" lon="20.9573"/><trkpt lat="69.03792" lon="20.95778"/><trkpt lat="69.03803" lon="20.95801"/><trkpt lat="69.03813" lon="20.95814"/><trkpt lat="69.03823" lon="20.95856"/><trkpt lat="69.03835" lon="20.95884"/><trkpt lat="69.03847" lon="20.95901"/><trkpt lat="69.03859" lon="20.95906"/><trkpt lat="69.03874" lon="20.95934"/><trkpt lat="69.0391" lon="20.95977"/><trkpt lat="69.03919065939405" lon="20.95994737707531"/><trkpt lat="69.03919" lon="20.95995"/><trkpt lat="69.03924" lon="20.96033"/><trkpt lat="69.0393" lon="20.9606"/><trkpt lat="69.03936" lon="20.96093"/><trkpt lat="69.03941" lon="20.96134"/><trkpt lat="69.03941" lon="20.96134"/><trkpt lat="69.03942" lon="20.96191"/><trkpt lat="69.03942" lon="20.96191"/><trkpt lat="69.03942" lon="20.96208"/><trkpt lat="69.03936" lon="20.96269"/><trkpt lat="69.0393" lon="20.96287"/><trkpt lat="69.0393" lon="20.96407"/><trkpt lat="69.03933" lon="20.96423"/><trkpt lat="69.0394" lon="20.96431"/><trkpt lat="69.03944" lon="20.96447"/><trkpt lat="69.03947" lon="20.96486"/><trkpt lat="69.0395" lon="20.96608"/><trkpt lat="69.03955" lon="20.96628"/><trkpt lat="69.03982" lon="20.96684"/><trkpt lat="69.04017172377468" lon="20.967835120923493"/><trkpt lat="69.04017172377468" lon="20.967835120923493"/><trkpt lat="69.04023" lon="20.968"/><trkpt lat="69.04045" lon="20.96903"/><trkpt lat="69.04063" lon="20.97007"/><trkpt lat="69.04076" lon="20.97063"/><trkpt lat="69.04084" lon="20.97109"/><trkpt lat="69.04084" lon="20.97109"/><trkpt lat="69.04113" lon="20.97224"/><trkpt lat="69.0412" lon="20.97285"/><trkpt lat="69.04139" lon="20.97375"/><trkpt lat="69.04158" lon="20.97423"/><trkpt lat="69.04167" lon="20.97473"/><trkpt lat="69.04171" lon="20.97528"/><trkpt lat="69.04188" lon="20.97662"/><trkpt lat="69.04202" lon="20.9794"/><trkpt lat="69.04209" lon="20.98058"/><trkpt lat="69.04204" lon="20.98102"/><trkpt lat="69.04203" lon="20.9817"/><trkpt lat="69.04202" lon="20.98254"/><trkpt lat="69.04196" lon="20.98389"/><trkpt lat="69.04196" lon="20.98389"/><trkpt lat="69.04194" lon="20.98427"/><trkpt lat="69.04195" lon="20.9849"/><trkpt lat="69.04189" lon="20.9855"/><trkpt lat="69.04183" lon="20.9863"/><trkpt lat="69.04174" lon="20.98691"/><trkpt lat="69.04172" lon="20.98797"/><trkpt lat="69.04176" lon="20.98877"/><trkpt lat="69.04171" lon="20.99038"/><trkpt lat="69.04177" lon="20.99125"/><trkpt lat="69.04181" lon="20.99264"/><trkpt lat="69.04179" lon="20.99343"/><trkpt lat="69.04181" lon="20.99391"/><trkpt lat="69.04177" lon="20.99432"/><trkpt lat="69.04177" lon="20.9949"/><trkpt lat="69.04176" lon="20.99554"/><trkpt lat="69.0418" lon="20.99601"/><trkpt lat="69.04179" lon="20.99637"/><trkpt lat="69.04158" lon="20.99738"/><trkpt lat="69.04158" lon="20.99809"/><trkpt lat="69.04155" lon="20.99899"/><trkpt lat="69.04157" lon="20.99938"/><trkpt lat="69.04163" lon="20.9997"/><trkpt lat="69.04177" lon="21.00122"/><trkpt lat="69.04188" lon="21.00185"/><trkpt lat="69.04192" lon="21.00275"/><trkpt lat="69.04204" lon="21.00395"/><trkpt lat="69.04204" lon="21.00432"/><trkpt lat="69.04209131200852" lon="21.004563731951663"/><trkpt lat="69.04209131200852" lon="21.004563731951663"/><trkpt lat="69.0422" lon="21.00508"/><trkpt lat="69.04231" lon="21.00586"/><trkpt lat="69.04231" lon="21.00586"/><trkpt lat="69.04242" lon="21.00671"/><trkpt lat="69.04259" lon="21.00731"/><trkpt lat="69.0428" lon="21.00821"/><trkpt lat="69.04288" lon="21.00877"/><trkpt lat="69.04297" lon="21.00967"/><trkpt lat="69.04297" lon="21.00967"/><trkpt lat="69.04313" lon="21.0101"/><trkpt lat="69.04323" lon="21.01068"/><trkpt lat="69.04341" lon="21.0116"/><trkpt lat="69.04369" lon="21.01325"/><trkpt lat="69.04376" lon="21.01428"/><trkpt lat="69.04384" lon="21.01482"/><trkpt lat="69.04385" lon="21.0151"/><trkpt lat="69.04392" lon="21.0157"/><trkpt lat="69.044" lon="21.01597"/><trkpt lat="69.04402" lon="21.01651"/><trkpt lat="69.04405" lon="21.0168"/><trkpt lat="69.04404" lon="21.01712"/><trkpt lat="69.04405" lon="21.01742"/><trkpt lat="69.04408" lon="21.01763"/><trkpt lat="69.04419" lon="21.01796"/><trkpt lat="69.04419" lon="21.01823"/><trkpt lat="69.04431" lon="21.01842"/><trkpt lat="69.04439" lon="21.0185"/><trkpt lat="69.04445" lon="21.01878"/><trkpt lat="69.04446" lon="21.01914"/><trkpt lat="69.04457" lon="21.01974"/><trkpt lat="69.0446" lon="21.02015"/><trkpt lat="69.04459" lon="21.02047"/><trkpt lat="69.04478" lon="21.02198"/><trkpt lat="69.04485" lon="21.02296"/><trkpt lat="69.04489" lon="21.02334"/><trkpt lat="69.0449" lon="21.02362"/><trkpt lat="69.04498" lon="21.02402"/><trkpt lat="69.04497" lon="21.02414"/><trkpt lat="69.04497" lon="21.02414"/><trkpt lat="69.04496" lon="21.0243"/><trkpt lat="69.045" lon="21.02457"/><trkpt lat="69.045" lon="21.02457"/><trkpt lat="69.04504" lon="21.0247"/><trkpt lat="69.04518" lon="21.02558"/><trkpt lat="69.04524" lon="21.02587"/><trkpt lat="69.04529" lon="21.02688"/><trkpt lat="69.04537" lon="21.02737"/><trkpt lat="69.04548" lon="21.02773"/><trkpt lat="69.0455" lon="21.02783"/><trkpt lat="69.0455" lon="21.02783"/><trkpt lat="69.04565" lon="21.02888"/><trkpt lat="69.04581" lon="21.02946"/><trkpt lat="69.04586" lon="21.02982"/><trkpt lat="69.04597" lon="21.03021"/><trkpt lat="69.04613" lon="21.03095"/><trkpt lat="69.04621" lon="21.03183"/><trkpt lat="69.04639" lon="21.03245"/><trkpt lat="69.04647" lon="21.03314"/><trkpt lat="69.04662" lon="21.03385"/><trkpt lat="69.04662" lon="21.03402"/><trkpt lat="69.04671" lon="21.03458"/><trkpt lat="69.04672" lon="21.03484"/><trkpt lat="69.04679" lon="21.03517"/><trkpt lat="69.04681" lon="21.03548"/><trkpt lat="69.04685" lon="21.0357"/><trkpt lat="69.04692" lon="21.03588"/><trkpt lat="69.04695" lon="21.03616"/><trkpt lat="69.04695" lon="21.03616"/><trkpt lat="69.04695" lon="21.03616"/><trkpt lat="69.04695" lon="21.03663"/><trkpt lat="69.04696" lon="21.03703"/><trkpt lat="69.04702" lon="21.03782"/><trkpt lat="69.04713" lon="21.03864"/><trkpt lat="69.04721" lon="21.03897"/><trkpt lat="69.04727" lon="21.03937"/><trkpt lat="69.04734" lon="21.03997"/><trkpt lat="69.04734" lon="21.03997"/><trkpt lat="69.04744" lon="21.04035"/><trkpt lat="69.04748" lon="21.04092"/><trkpt lat="69.04757" lon="21.04138"/><trkpt lat="69.04763" lon="21.04242"/><trkpt lat="69.04771" lon="21.0429"/><trkpt lat="69.0479" lon="21.04342"/><trkpt lat="69.04795" lon="21.04374"/><trkpt lat="69.04802" lon="21.04386"/><trkpt lat="69.04808" lon="21.04409"/><trkpt lat="69.04817" lon="21.04537"/><trkpt lat="69.04817" lon="21.04537"/><trkpt lat="69.04817" lon="21.04537"/><trkpt lat="69.04817328337954" lon="21.04547178476587"/><trkpt lat="69.04827082264079" lon="21.045951211954073"/><trkpt lat="69.04834" lon="21.04635"/><trkpt lat="69.04844" lon="21.04713"/><trkpt lat="69.04853" lon="21.04847"/><trkpt lat="69.04851" lon="21.04893"/><trkpt lat="69.04845" lon="21.0495"/><trkpt lat="69.04845" lon="21.0498"/><trkpt lat="69.04845" lon="21.0498"/><trkpt lat="69.04844" lon="21.05012"/><trkpt lat="69.04844" lon="21.05012"/><trkpt lat="69.04844" lon="21.05012"/><trkpt lat="69.04849" lon="21.05091"/><trkpt lat="69.04849" lon="21.05141"/><trkpt lat="69.04857" lon="21.05198"/><trkpt lat="69.04859" lon="21.05311"/><trkpt lat="69.04868" lon="21.05413"/><trkpt lat="69.04869" lon="21.05461"/><trkpt lat="69.04868" lon="21.05485"/><trkpt lat="69.04871" lon="21.05507"/><trkpt lat="69.04874919079658" lon="21.05561866807104"/><trkpt lat="69.04875" lon="21.05561"/><trkpt lat="69.04868" lon="21.05636"/><trkpt lat="69.04868" lon="21.05673"/><trkpt lat="69.04872" lon="21.0577"/><trkpt lat="69.04876" lon="21.05825"/><trkpt lat="69.04874" lon="21.05854"/><trkpt lat="69.04875" lon="21.0588"/><trkpt lat="69.04872" lon="21.05946"/><trkpt lat="69.04869" lon="21.05965"/><trkpt lat="69.04867" lon="21.05983"/><trkpt lat="69.04869" lon="21.06009"/><trkpt lat="69.04868" lon="21.06032"/><trkpt lat="69.0487" lon="21.06106"/><trkpt lat="69.04875" lon="21.06199"/><trkpt lat="69.04875" lon="21.06199"/><trkpt lat="69.04878" lon="21.06242"/><trkpt lat="69.04875" lon="21.06294"/><trkpt lat="69.04877" lon="21.06332"/><trkpt lat="69.04876999984272" lon="21.063320001923028"/><trkpt lat="69.04876999984272" lon="21.063320001923028"/><trkpt lat="69.04874" lon="21.06399"/><trkpt lat="69.04873" lon="21.06488"/><trkpt lat="69.0487" lon="21.06536"/><trkpt lat="69.0487" lon="21.06536"/><trkpt lat="69.0487" lon="21.06536"/><trkpt lat="69.04869" lon="21.06577"/><trkpt lat="69.04864" lon="21.06611"/><trkpt lat="69.04867" lon="21.0666"/><trkpt lat="69.04865" lon="21.06678"/><trkpt lat="69.04865" lon="21.06678"/><trkpt lat="69.04867" lon="21.06749"/><trkpt lat="69.04872" lon="21.06773"/><trkpt lat="69.04875" lon="21.06811"/><trkpt lat="69.04881" lon="21.06821"/><trkpt lat="69.04884" lon="21.06844"/><trkpt lat="69.04892" lon="21.06883"/><trkpt lat="69.04905" lon="21.0693"/><trkpt lat="69.04912" lon="21.06942"/><trkpt lat="69.04916" lon="21.06955"/><trkpt lat="69.04937" lon="21.06988"/><trkpt lat="69.04966" lon="21.0704"/><trkpt lat="69.04966" lon="21.0704"/><trkpt lat="69.04985" lon="21.07049"/><trkpt lat="69.04997" lon="21.07064"/><trkpt lat="69.05014" lon="21.07102"/><trkpt lat="69.05028" lon="21.07154"/><trkpt lat="69.05036" lon="21.07178"/><trkpt lat="69.05036" lon="21.07178"/><trkpt lat="69.05041" lon="21.07212"/><trkpt lat="69.05041" lon="21.07212"/><trkpt lat="69.05052" lon="21.07243"/><trkpt lat="69.05059" lon="21.07255"/><trkpt lat="69.05066" lon="21.07279"/><trkpt lat="69.05074" lon="21.07296"/><trkpt lat="69.05087" lon="21.07335"/><trkpt lat="69.05092" lon="21.07343"/><trkpt lat="69.05096" lon="21.07337"/><trkpt lat="69.05104" lon="21.07341"/><trkpt lat="69.05125" lon="21.07368"/><trkpt lat="69.05134" lon="21.07369"/><trkpt lat="69.05154" lon="21.07386"/><trkpt lat="69.05206" lon="21.07399"/><trkpt lat="69.05248" lon="21.0738"/><trkpt lat="69.05286" lon="21.07405"/><trkpt lat="69.05286" lon="21.07405"/><trkpt lat="69.05302" lon="21.07416"/><trkpt lat="69.05333" lon="21.07478"/><trkpt lat="69.05348" lon="21.07527"/><trkpt lat="69.05358" lon="21.07551"/><trkpt lat="69.0537" lon="21.07614"/><trkpt lat="69.05383" lon="21.07651"/><trkpt lat="69.05394" lon="21.07668"/><trkpt lat="69.05407" lon="21.07707"/><trkpt lat="69.05436" lon="21.07708"/><trkpt lat="69.0545" lon="21.07696"/><trkpt lat="69.05455" lon="21.07683"/><trkpt lat="69.05467" lon="21.07688"/><trkpt lat="69.05477" lon="21.07698"/><trkpt lat="69.05487" lon="21.07694"/><trkpt lat="69.0551" lon="21.07733"/><trkpt lat="69.05519" lon="21.07741"/><trkpt lat="69.05524" lon="21.07762"/><trkpt lat="69.05559" lon="21.0781"/><trkpt lat="69.05567" lon="21.07839"/><trkpt lat="69.0558" lon="21.07851"/><trkpt lat="69.05588" lon="21.07877"/><trkpt lat="69.05605" lon="21.07895"/><trkpt lat="69.05632" lon="21.07902"/><trkpt lat="69.05646" lon="21.07916"/><trkpt lat="69.05658" lon="21.0796"/><trkpt lat="69.05675" lon="21.0805"/><trkpt lat="69.05675" lon="21.0805"/><trkpt lat="69.05675" lon="21.0805"/><trkpt lat="69.05681" lon="21.08074"/><trkpt lat="69.05688" lon="21.08094"/><trkpt lat="69.05688748396854" lon="21.080971599148803"/><trkpt lat="69.05688748396854" lon="21.080971599148803"/><trkpt lat="69.05691" lon="21.08136"/><trkpt lat="69.057" lon="21.08176"/><trkpt lat="69.057" lon="21.08176"/><trkpt lat="69.057" lon="21.08176"/><trkpt lat="69.05704" lon="21.08245"/><trkpt lat="69.05708" lon="21.08283"/><trkpt lat="69.05718" lon="21.08325"/><trkpt lat="69.05721" lon="21.08349"/><trkpt lat="69.05721" lon="21.08349"/><trkpt lat="69.05721" lon="21.08349"/><trkpt lat="69.05749" lon="21.08372"/><trkpt lat="69.05761" lon="21.08388"/><trkpt lat="69.05767" lon="21.08387"/><trkpt lat="69.05801" lon="21.08412"/><trkpt lat="69.05827" lon="21.08417"/><trkpt lat="69.05848" lon="21.0845"/><trkpt lat="69.05866" lon="21.08493"/><trkpt lat="69.05905" lon="21.08526"/><trkpt lat="69.05912" lon="21.08543"/><trkpt lat="69.05934" lon="21.08583"/><trkpt lat="69.05963042638069" lon="21.08629790916888"/><trkpt lat="69.05963042638069" lon="21.08629790916888"/><trkpt lat="69.0597" lon="21.08641"/><trkpt lat="69.05978" lon="21.08642"/><trkpt lat="69.05991" lon="21.0867"/><trkpt lat="69.0600799996" lon="21.087309999206116"/><trkpt lat="69.0600799996" lon="21.087309999206116"/><trkpt lat="69.06008" lon="21.08731"/><trkpt lat="69.06019" lon="21.08756"/><trkpt lat="69.06026" lon="21.08796"/><trkpt lat="69.06047" lon="21.08885"/><trkpt lat="69.06056" lon="21.08904"/><trkpt lat="69.06071" lon="21.08912"/><trkpt lat="69.06071" lon="21.08912"/><trkpt lat="69.06073" lon="21.08919"/><trkpt lat="69.06082" lon="21.08921"/><trkpt lat="69.06101314276016" lon="21.089514571418913"/><trkpt lat="69.06101314276016" lon="21.089514571418913"/><trkpt lat="69.06108" lon="21.08962"/><trkpt lat="69.06127" lon="21.08982"/><trkpt lat="69.06149" lon="21.09034"/><trkpt lat="69.06167" lon="21.09049"/><trkpt lat="69.06183" lon="21.09055"/><trkpt lat="69.06188" lon="21.09065"/><trkpt lat="69.06194" lon="21.09113"/><trkpt lat="69.06201" lon="21.09139"/><trkpt lat="69.06201883086133" lon="21.091628433256062"/><trkpt lat="69.06201883086156" lon="21.091628433256062"/><trkpt lat="69.06202" lon="21.09166"/><trkpt lat="69.06201" lon="21.09184"/><trkpt lat="69.06202" lon="21.09205"/><trkpt lat="69.06202" lon="21.09205"/><trkpt lat="69.06202" lon="21.09205"/><trkpt lat="69.06207" lon="21.09213"/><trkpt lat="69.06207" lon="21.09213"/><trkpt lat="69.06207" lon="21.09213"/><trkpt lat="69.06216" lon="21.09212"/><trkpt lat="69.06228" lon="21.09205"/><trkpt lat="69.0623" lon="21.09195"/><trkpt lat="69.06239" lon="21.09181"/><trkpt lat="69.06246" lon="21.09175"/><trkpt lat="69.06246" lon="21.09175"/><trkpt lat="69.06272" lon="21.09137"/><trkpt lat="69.06283" lon="21.09127"/><trkpt lat="69.06283" lon="21.09127"/><trkpt lat="69.063" lon="21.09144"/><trkpt lat="69.063" lon="21.09144"/><trkpt lat="69.06312" lon="21.09144"/><trkpt lat="69.06325" lon="21.09139"/><trkpt lat="69.06351" lon="21.09137"/><trkpt lat="69.06361" lon="21.09132"/><trkpt lat="69.06381" lon="21.09147"/><trkpt lat="69.06407" lon="21.09133"/><trkpt lat="69.06424" lon="21.09166"/><trkpt lat="69.06439" lon="21.09181"/><trkpt lat="69.06444" lon="21.09182"/><trkpt lat="69.06449" lon="21.09198"/><trkpt lat="69.06455" lon="21.09206"/><trkpt lat="69.06465" lon="21.09212"/><trkpt lat="69.06475" lon="21.09232"/><trkpt lat="69.06497" lon="21.09242"/><trkpt lat="69.06505" lon="21.09253"/><trkpt lat="69.06505" lon="21.09253"/><trkpt lat="69.06505" lon="21.09253"/><trkpt lat="69.06529" lon="21.09276"/><trkpt lat="69.06534139667782" lon="21.092856368608658"/><trkpt lat="69.06534139667782" lon="21.092856368608658"/><trkpt lat="69.06537" lon="21.09291"/><trkpt lat="69.06561" lon="21.0932"/><trkpt lat="69.06575" lon="21.09356"/><trkpt lat="69.06585" lon="21.09366"/><trkpt lat="69.0659" lon="21.09375"/><trkpt lat="69.0659" lon="21.09375"/><trkpt lat="69.06593" lon="21.09381"/><trkpt lat="69.06632" lon="21.09388"/><trkpt lat="69.06652" lon="21.09382"/><trkpt lat="69.06661" lon="21.09375"/><trkpt lat="69.06661" lon="21.09375"/><trkpt lat="69.06677" lon="21.09361"/><trkpt lat="69.06702" lon="21.09347"/><trkpt lat="69.06718" lon="21.0933"/><trkpt lat="69.06736" lon="21.09325"/><trkpt lat="69.0675" lon="21.09305"/><trkpt lat="69.06773" lon="21.09288"/><trkpt lat="69.0678" lon="21.09299"/><trkpt lat="69.068" lon="21.09309"/><trkpt lat="69.06816" lon="21.09326"/><trkpt lat="69.06836" lon="21.09314"/><trkpt lat="69.06856" lon="21.09309"/><trkpt lat="69.06856" lon="21.09309"/><trkpt lat="69.06871" lon="21.09305"/><trkpt lat="69.06876" lon="21.09293"/><trkpt lat="69.06875" lon="21.09286"/><trkpt lat="69.06891" lon="21.09285"/><trkpt lat="69.06907" lon="21.09191"/><trkpt lat="69.06912" lon="21.09181"/><trkpt lat="69.06939" lon="21.09173"/><trkpt lat="69.06955" lon="21.09144"/><trkpt lat="69.07002" lon="21.09134"/><trkpt lat="69.07027" lon="21.09105"/><trkpt lat="69.07056" lon="21.09092"/><trkpt lat="69.0707" lon="21.09067"/><trkpt lat="69.07079" lon="21.09068"/><trkpt lat="69.07084" lon="21.09089"/><trkpt lat="69.07088" lon="21.09096"/><trkpt lat="69.07125" lon="21.09106"/><trkpt lat="69.07145" lon="21.09114"/><trkpt lat="69.07158" lon="21.09135"/><trkpt lat="69.07172" lon="21.09175"/><trkpt lat="69.07187" lon="21.09239"/><trkpt lat="69.07187" lon="21.09239"/><trkpt lat="69.07187" lon="21.09254"/><trkpt lat="69.07199" lon="21.09281"/><trkpt lat="69.07209" lon="21.09295"/><trkpt lat="69.07214" lon="21.09316"/><trkpt lat="69.07225" lon="21.09349"/><trkpt lat="69.07237" lon="21.09375"/><trkpt lat="69.07237" lon="21.09375"/><trkpt lat="69.07254" lon="21.09403"/><trkpt lat="69.07267" lon="21.09433"/><trkpt lat="69.07267" lon="21.09433"/><trkpt lat="69.07307" lon="21.09494"/><trkpt lat="69.07324" lon="21.09504"/><trkpt lat="69.07345" lon="21.09532"/><trkpt lat="69.07351" lon="21.09535"/><trkpt lat="69.0738" lon="21.09574"/><trkpt lat="69.07399" lon="21.09573"/><trkpt lat="69.07418" lon="21.09583"/><trkpt lat="69.07443" lon="21.09575"/><trkpt lat="69.07482" lon="21.09596"/><trkpt lat="69.07493" lon="21.09593"/><trkpt lat="69.07524" lon="21.09614"/><trkpt lat="69.07534" lon="21.09605"/><trkpt lat="69.0756" lon="21.09624"/><trkpt lat="69.07576" lon="21.09676"/><trkpt lat="69.07595" lon="21.097"/><trkpt lat="69.07609" lon="21.09744"/><trkpt lat="69.0762" lon="21.09758"/><trkpt lat="69.07641" lon="21.09801"/><trkpt lat="69.07641" lon="21.09801"/><trkpt lat="69.07656" lon="21.09828"/><trkpt lat="69.07678" lon="21.09862"/><trkpt lat="69.07696" lon="21.09907"/><trkpt lat="69.07736" lon="21.09956"/><trkpt lat="69.07745" lon="21.09985"/><trkpt lat="69.07745" lon="21.09985"/><trkpt lat="69.07745" lon="21.09985"/><trkpt lat="69.07764" lon="21.10005"/><trkpt lat="69.07772" lon="21.10025"/><trkpt lat="69.07781" lon="21.10024"/><trkpt lat="69.07799" lon="21.10043"/><trkpt lat="69.07822" lon="21.10082"/><trkpt lat="69.07839" lon="21.10095"/><trkpt lat="69.07853" lon="21.10086"/><trkpt lat="69.07868" lon="21.10089"/><trkpt lat="69.07881" lon="21.10112"/><trkpt lat="69.07878" lon="21.10107"/><trkpt lat="69.07893" lon="21.10118"/><trkpt lat="69.07917" lon="21.10119"/><trkpt lat="69.07925" lon="21.10132"/><trkpt lat="69.07944" lon="21.10142"/><trkpt lat="69.07964" lon="21.10168"/><trkpt lat="69.07985" lon="21.10185"/><trkpt lat="69.07988" lon="21.10183"/><trkpt lat="69.08011" lon="21.10212"/><trkpt lat="69.0802" lon="21.10219"/><trkpt lat="69.08029" lon="21.10234"/><trkpt lat="69.08038" lon="21.10238"/><trkpt lat="69.08087" lon="21.10286"/><trkpt lat="69.08092" lon="21.10293"/><trkpt lat="69.08097" lon="21.10313"/><trkpt lat="69.08121" lon="21.10347"/><trkpt lat="69.08139" lon="21.10386"/><trkpt lat="69.08159" lon="21.10459"/><trkpt lat="69.08172" lon="21.10495"/><trkpt lat="69.08177" lon="21.10516"/><trkpt lat="69.08189" lon="21.10549"/><trkpt lat="69.08189" lon="21.10549"/><trkpt lat="69.08205" lon="21.10549"/><trkpt lat="69.08228" lon="21.1054"/><trkpt lat="69.08254" lon="21.10537"/><trkpt lat="69.08287" lon="21.10574"/><trkpt lat="69.08306" lon="21.10623"/><trkpt lat="69.08318" lon="21.10647"/><trkpt lat="69.08321" lon="21.10682"/><trkpt lat="69.08353" lon="21.1081"/><trkpt lat="69.08359" lon="21.10858"/><trkpt lat="69.08369" lon="21.10888"/><trkpt lat="69.08369" lon="21.10888"/><trkpt lat="69.08385" lon="21.10952"/><trkpt lat="69.08405" lon="21.11003"/><trkpt lat="69.08426" lon="21.11063"/><trkpt lat="69.08426" lon="21.11063"/><trkpt lat="69.08434" lon="21.11088"/><trkpt lat="69.08449" lon="21.11113"/><trkpt lat="69.08467" lon="21.11132"/><trkpt lat="69.08481" lon="21.11141"/><trkpt lat="69.08481" lon="21.11141"/><trkpt lat="69.08537" lon="21.1119"/><trkpt lat="69.0857" lon="21.11241"/><trkpt lat="69.08616" lon="21.11288"/><trkpt lat="69.0863" lon="21.11316"/><trkpt lat="69.08658" lon="21.11355"/><trkpt lat="69.08686" lon="21.11386"/><trkpt lat="69.08747" lon="21.11422"/><trkpt lat="69.08766" lon="21.1144"/><trkpt lat="69.0879" lon="21.11454"/><trkpt lat="69.08871" lon="21.1152"/><trkpt lat="69.08883" lon="21.11524"/><trkpt lat="69.08901" lon="21.11542"/><trkpt lat="69.08901" lon="21.11542"/><trkpt lat="69.08906" lon="21.11572"/><trkpt lat="69.08906" lon="21.11572"/><trkpt lat="69.08911" lon="21.11604"/><trkpt lat="69.08916" lon="21.11723"/><trkpt lat="69.0892" lon="21.11753"/><trkpt lat="69.08921" lon="21.11782"/><trkpt lat="69.08949" lon="21.11845"/><trkpt lat="69.08955" lon="21.11873"/><trkpt lat="69.08959" lon="21.11905"/><trkpt lat="69.08965" lon="21.11936"/><trkpt lat="69.08971" lon="21.11956"/><trkpt lat="69.08983" lon="21.12019"/><trkpt lat="69.08995" lon="21.12116"/><trkpt lat="69.09003" lon="21.12204"/><trkpt lat="69.09008" lon="21.12252"/><trkpt lat="69.09009" lon="21.12328"/><trkpt lat="69.09015" lon="21.12372"/><trkpt lat="69.09026" lon="21.12423"/><trkpt lat="69.09028" lon="21.12446"/><trkpt lat="69.09026" lon="21.12505"/><trkpt lat="69.09022" lon="21.12547"/><trkpt lat="69.09023" lon="21.12571"/><trkpt lat="69.09028" lon="21.12605"/><trkpt lat="69.09028" lon="21.12663"/><trkpt lat="69.09032" lon="21.12743"/><trkpt lat="69.0903" lon="21.12759"/><trkpt lat="69.09023" lon="21.12775"/><trkpt lat="69.09021" lon="21.12807"/><trkpt lat="69.09016" lon="21.12843"/><trkpt lat="69.09008" lon="21.12891"/><trkpt lat="69.09006" lon="21.12924"/><trkpt lat="69.09006" lon="21.13018"/><trkpt lat="69.09003" lon="21.13075"/><trkpt lat="69.08978" lon="21.13264"/><trkpt lat="69.08976" lon="21.13313"/><trkpt lat="69.08984" lon="21.13374"/><trkpt lat="69.08993" lon="21.13459"/><trkpt lat="69.09002" lon="21.13506"/><trkpt lat="69.09026" lon="21.13549"/><trkpt lat="69.09046" lon="21.13602"/><trkpt lat="69.09063" lon="21.13673"/><trkpt lat="69.09076" lon="21.13747"/><trkpt lat="69.09082" lon="21.1377"/><trkpt lat="69.09082" lon="21.1377"/><trkpt lat="69.09094" lon="21.1382"/><trkpt lat="69.09133" lon="21.13921"/><trkpt lat="69.09163" lon="21.14003"/><trkpt lat="69.09177" lon="21.14049"/><trkpt lat="69.09193" lon="21.14106"/><trkpt lat="69.0921" lon="21.14203"/><trkpt lat="69.0921" lon="21.14203"/><trkpt lat="69.09213" lon="21.14223"/><trkpt lat="69.09223" lon="21.14269"/><trkpt lat="69.09222" lon="21.14302"/><trkpt lat="69.09215" lon="21.14372"/><trkpt lat="69.0921" lon="21.14429"/><trkpt lat="69.0921" lon="21.14429"/><trkpt lat="69.0921" lon="21.14438"/><trkpt lat="69.0921" lon="21.14438"/><trkpt lat="69.09214" lon="21.14492"/><trkpt lat="69.09223" lon="21.14539"/><trkpt lat="69.09231" lon="21.14553"/><trkpt lat="69.09271" lon="21.14584"/><trkpt lat="69.09283" lon="21.1462"/><trkpt lat="69.09291" lon="21.14679"/><trkpt lat="69.09312" lon="21.14778"/><trkpt lat="69.09319" lon="21.14796"/><trkpt lat="69.09329" lon="21.1484"/><trkpt lat="69.09341" lon="21.14871"/><trkpt lat="69.09392" lon="21.14889"/><trkpt lat="69.09413" lon="21.14928"/><trkpt lat="69.09429" lon="21.14942"/><trkpt lat="69.09447" lon="21.14946"/><trkpt lat="69.09472" lon="21.14959"/><trkpt lat="69.09497" lon="21.14983"/><trkpt lat="69.09523" lon="21.15"/><trkpt lat="69.09565" lon="21.15"/><trkpt lat="69.09588" lon="21.14996"/><trkpt lat="69.09607" lon="21.14987"/><trkpt lat="69.09624" lon="21.14975"/><trkpt lat="69.0965" lon="21.14972"/><trkpt lat="69.09658" lon="21.14978"/><trkpt lat="69.09668" lon="21.14996"/><trkpt lat="69.09677" lon="21.15003"/><trkpt lat="69.09695" lon="21.14995"/><trkpt lat="69.09735" lon="21.15021"/><trkpt lat="69.09771" lon="21.15034"/><trkpt lat="69.09788" lon="21.15046"/><trkpt lat="69.09928" lon="21.15292"/><trkpt lat="69.09944" lon="21.1532"/><trkpt lat="69.09967" lon="21.15351"/><trkpt lat="69.09983" lon="21.1538"/><trkpt lat="69.09994" lon="21.15406"/><trkpt lat="69.09994" lon="21.15406"/><trkpt lat="69.10009" lon="21.15438"/><trkpt lat="69.10029" lon="21.15452"/><trkpt lat="69.10067" lon="21.15497"/><trkpt lat="69.10087" lon="21.15522"/><trkpt lat="69.10109" lon="21.15561"/><trkpt lat="69.10119" lon="21.15604"/><trkpt lat="69.10123" lon="21.1563"/><trkpt lat="69.10138" lon="21.15658"/><trkpt lat="69.10181" lon="21.15765"/><trkpt lat="69.10218" lon="21.15849"/><trkpt lat="69.1023" lon="21.1589"/><trkpt lat="69.10243" lon="21.15954"/><trkpt lat="69.10244" lon="21.15967"/><trkpt lat="69.10244" lon="21.15967"/><trkpt lat="69.1025" lon="21.16021"/><trkpt lat="69.10246" lon="21.16158"/><trkpt lat="69.1025" lon="21.16193"/><trkpt lat="69.1027" lon="21.16293"/><trkpt lat="69.10283" lon="21.1635"/><trkpt lat="69.10296" lon="21.16394"/><trkpt lat="69.10317" lon="21.16435"/><trkpt lat="69.10333" lon="21.16457"/><trkpt lat="69.10383" lon="21.16509"/><trkpt lat="69.10391130280367" lon="21.165342038691342"/><trkpt lat="69.10391130283841" lon="21.165342038691342"/><trkpt lat="69.10393" lon="21.1654"/><trkpt lat="69.10412" lon="21.16585"/><trkpt lat="69.10415" lon="21.16617"/><trkpt lat="69.10435" lon="21.16654"/><trkpt lat="69.10458" lon="21.16671"/><trkpt lat="69.10475" lon="21.16677"/><trkpt lat="69.10486" lon="21.16704"/><trkpt lat="69.10528" lon="21.16765"/><trkpt lat="69.10544" lon="21.16797"/><trkpt lat="69.10551" lon="21.16819"/><trkpt lat="69.10567" lon="21.16895"/><trkpt lat="69.10586" lon="21.16951"/><trkpt lat="69.1061" lon="21.16991"/><trkpt lat="69.10631" lon="21.17034"/><trkpt lat="69.10644" lon="21.17065"/><trkpt lat="69.10674" lon="21.17117"/><trkpt lat="69.10687445542702" lon="21.17171742576963"/><trkpt lat="69.10687445542702" lon="21.17171742576963"/><trkpt lat="69.10687587035356" lon="21.171743601816253"/><trkpt lat="69.10687587035356" lon="21.171743601816253"/><trkpt lat="69.10688" lon="21.17182"/><trkpt lat="69.10688" lon="21.17182"/><trkpt lat="69.10691" lon="21.1721"/><trkpt lat="69.10697" lon="21.17239"/><trkpt lat="69.10697403446211" lon="21.172518094171828"/><trkpt lat="69.10698" lon="21.17253"/><trkpt lat="69.10698214779427" lon="21.172543960662765"/><trkpt lat="69.10697558893187" lon="21.172567448586705"/><trkpt lat="69.10697602199716" lon="21.172581198409354"/><trkpt lat="69.10697602199716" lon="21.172581198409354"/><trkpt lat="69.10697683858615" lon="21.172607125109568"/><trkpt lat="69.10699381584266" lon="21.172619802977252"/><trkpt lat="69.10708" lon="21.17318"/><trkpt lat="69.10732" lon="21.17372"/><trkpt lat="69.10751" lon="21.17426"/><trkpt lat="69.10761" lon="21.17444"/><trkpt lat="69.10773" lon="21.17518"/><trkpt lat="69.10778" lon="21.17543"/><trkpt lat="69.10778" lon="21.17543"/><trkpt lat="69.10782" lon="21.17565"/><trkpt lat="69.10785" lon="21.17615"/><trkpt lat="69.10778" lon="21.1768"/><trkpt lat="69.10778" lon="21.1768"/><trkpt lat="69.10775" lon="21.17829"/><trkpt lat="69.10773" lon="21.17879"/><trkpt lat="69.10774" lon="21.17909"/><trkpt lat="69.10773" lon="21.17977"/><trkpt lat="69.10769" lon="21.18087"/><trkpt lat="69.10769" lon="21.18146"/><trkpt lat="69.10767" lon="21.18164"/><trkpt lat="69.10767" lon="21.18164"/><trkpt lat="69.10754" lon="21.18296"/><trkpt lat="69.10759" lon="21.18425"/><trkpt lat="69.10761" lon="21.18494"/><trkpt lat="69.10761" lon="21.18494"/><trkpt lat="69.10757" lon="21.18527"/><trkpt lat="69.10759" lon="21.18547"/><trkpt lat="69.10756" lon="21.18615"/><trkpt lat="69.10748" lon="21.18761"/><trkpt lat="69.10747" lon="21.18813"/><trkpt lat="69.10748" lon="21.18848"/><trkpt lat="69.10732" lon="21.18986"/><trkpt lat="69.10727" lon="21.19049"/><trkpt lat="69.10718" lon="21.19144"/><trkpt lat="69.10711" lon="21.1918"/><trkpt lat="69.10698" lon="21.19277"/><trkpt lat="69.10691" lon="21.19314"/><trkpt lat="69.10663" lon="21.19495"/><trkpt lat="69.10651" lon="21.19518"/><trkpt lat="69.10651" lon="21.19548"/><trkpt lat="69.10636" lon="21.19589"/><trkpt lat="69.10624" lon="21.19637"/><trkpt lat="69.10621" lon="21.19657"/><trkpt lat="69.10616" lon="21.19722"/><trkpt lat="69.1061" lon="21.19764"/><trkpt lat="69.10584" lon="21.19918"/><trkpt lat="69.10554" lon="21.20003"/><trkpt lat="69.1052" lon="21.20109"/><trkpt lat="69.10473" lon="21.20361"/><trkpt lat="69.10473" lon="21.20361"/><trkpt lat="69.10464575667397" lon="21.2039820746899"/><trkpt lat="69.10464139783993" lon="21.204001326206907"/><trkpt lat="69.10463761229317" lon="21.20401804570509"/><trkpt lat="69.10463257629286" lon="21.20404028803985"/><trkpt lat="69.10461" lon="21.20414"/><trkpt lat="69.10449" lon="21.20457"/><trkpt lat="69.10401" lon="21.20648"/><trkpt lat="69.10393" lon="21.20697"/><trkpt lat="69.10388" lon="21.20746"/><trkpt lat="69.10382346741099" lon="21.208511507430202"/><trkpt lat="69.10382237015035" lon="21.20853191624875"/><trkpt lat="69.10381737102743" lon="21.20862489888993"/><trkpt lat="69.10381" lon="21.20864"/><trkpt lat="69.10380737190991" lon="21.208655768540524"/><trkpt lat="69.10381451770428" lon="21.20867797070044"/><trkpt lat="69.10381363270595" lon="21.20869443166942"/><trkpt lat="69.10381363270595" lon="21.20869443166942"/><trkpt lat="69.10378" lon="21.20932"/><trkpt lat="69.10372" lon="21.20963"/><trkpt lat="69.10353" lon="21.21037"/><trkpt lat="69.10332" lon="21.21143"/><trkpt lat="69.10312301517362" lon="21.21184135078095"/><trkpt lat="69.10312301517362" lon="21.21184135078095"/><trkpt lat="69.10312" lon="21.21187"/><trkpt lat="69.1031145771834" lon="21.21185897128321"/><trkpt lat="69.10298" lon="21.21214"/><trkpt lat="69.10281" lon="21.21263"/><trkpt lat="69.10271" lon="21.21286"/><trkpt lat="69.10264" lon="21.21314"/><trkpt lat="69.10263863254603" lon="21.21313848157414"/><trkpt lat="69.1025" lon="21.21412"/><trkpt lat="69.10236" lon="21.21475"/><trkpt lat="69.10229" lon="21.21561"/><trkpt lat="69.1021" lon="21.21638"/><trkpt lat="69.10209203663409" lon="21.21677020492943"/><trkpt lat="69.10209203663409" lon="21.21677020492943"/><trkpt lat="69.10209" lon="21.21687"/><trkpt lat="69.1018" lon="21.21798"/><trkpt lat="69.10177" lon="21.21818"/><trkpt lat="69.10175" lon="21.21842"/><trkpt lat="69.10175" lon="21.21842"/><trkpt lat="69.10179948325188" lon="21.218980810187922"/><trkpt lat="69.10179" lon="21.21899"/><trkpt lat="69.10178955887577" lon="21.21898950986197"/></trkseg></trk></gpx>