<?xml version="1.0"?>
<gpx xmlns="http://www.topografix.com/GPX/1/1" xmlns:gpxx="http://www.garmin.com/xmlschemas/GpxExtensions/v3" creator="CALTOPO" version="1.1"><metadata><name><![CDATA[kuonjarjoki-pihtsusjarvi]]></name></metadata><trk><name>kuonjarjoki-pihtsusjarvi</name><trkseg><trkpt lat="69.10180999999999" lon="21.2191"/><trkpt lat="69.10181" lon="21.2191"/><trkpt lat="69.10181" lon="21.2191"/><trkpt lat="69.10183" lon="21.21949"/><trkpt lat="69.10186" lon="21.21967"/><trkpt lat="69.10186" lon="21.22002"/><trkpt lat="69.10191" lon="21.22131"/><trkpt lat="69.10195" lon="21.22155"/><trkpt lat="69.10195" lon="21.22155"/><trkpt lat="69.10195" lon="21.22155"/><trkpt lat="69.10207" lon="21.22197"/><trkpt lat="69.10228" lon="21.22285"/><trkpt lat="69.10235" lon="21.22329"/><trkpt lat="69.10241" lon="21.22369"/><trkpt lat="69.10248" lon="21.22406"/><trkpt lat="69.10256" lon="21.22458"/><trkpt lat="69.10275" lon="21.22518"/><trkpt lat="69.10294" lon="21.22559"/><trkpt lat="69.10294" lon="21.22559"/><trkpt lat="69.10316" lon="21.22603"/><trkpt lat="69.10378" lon="21.22794"/><trkpt lat="69.10408" lon="21.22875"/><trkpt lat="69.10454" lon="21.23081"/><trkpt lat="69.10465" lon="21.23146"/><trkpt lat="69.10472" lon="21.23178"/><trkpt lat="69.10484" lon="21.23208"/><trkpt lat="69.10564" lon="21.23535"/><trkpt lat="69.10613" lon="21.23698"/><trkpt lat="69.10637" lon="21.23806"/><trkpt lat="69.1066" lon="21.23893"/><trkpt lat="69.1066" lon="21.23893"/><trkpt lat="69.1066" lon="21.23893"/><trkpt lat="69.10671" lon="21.23901"/><trkpt lat="69.10677" lon="21.23914"/><trkpt lat="69.10688" lon="21.23929"/><trkpt lat="69.10716" lon="21.2399"/><trkpt lat="69.10738" lon="21.24023"/><trkpt lat="69.10738" lon="21.24023"/><trkpt lat="69.10748" lon="21.2404"/><trkpt lat="69.10778" lon="21.24076"/><trkpt lat="69.10778" lon="21.24076"/><trkpt lat="69.10783" lon="21.24082"/><trkpt lat="69.10797" lon="21.24113"/><trkpt lat="69.10843" lon="21.24199"/><trkpt lat="69.10881" lon="21.24265"/><trkpt lat="69.10915" lon="21.24306"/><trkpt lat="69.10961" lon="21.24348"/><trkpt lat="69.10976" lon="21.24358"/><trkpt lat="69.11031" lon="21.24446"/><trkpt lat="69.11053" lon="21.24485"/><trkpt lat="69.11076" lon="21.2451"/><trkpt lat="69.11086" lon="21.24527"/><trkpt lat="69.11093" lon="21.24555"/><trkpt lat="69.11113" lon="21.24601"/><trkpt lat="69.11138" lon="21.24679"/><trkpt lat="69.11159" lon="21.24756"/><trkpt lat="69.11159" lon="21.24756"/><trkpt lat="69.11176" lon="21.24809"/><trkpt lat="69.11181" lon="21.24832"/><trkpt lat="69.11197" lon="21.24877"/><trkpt lat="69.11219" lon="21.24955"/><trkpt lat="69.11226" lon="21.24966"/><trkpt lat="69.1124" lon="21.25018"/><trkpt lat="69.11261" lon="21.25043"/><trkpt lat="69.11272" lon="21.25067"/><trkpt lat="69.11284" lon="21.25085"/><trkpt lat="69.11295" lon="21.25119"/><trkpt lat="69.11313" lon="21.2515"/><trkpt lat="69.1132" lon="21.25179"/><trkpt lat="69.11341" lon="21.25231"/><trkpt lat="69.11355" lon="21.25294"/><trkpt lat="69.11415" lon="21.25596"/><trkpt lat="69.11434" lon="21.25655"/><trkpt lat="69.11445" lon="21.2572"/><trkpt lat="69.1145" lon="21.25732"/><trkpt lat="69.11463" lon="21.25808"/><trkpt lat="69.11482" lon="21.25877"/><trkpt lat="69.11508" lon="21.25995"/><trkpt lat="69.11512" lon="21.2602"/><trkpt lat="69.11519" lon="21.26036"/><trkpt lat="69.11523" lon="21.26067"/><trkpt lat="69.11561" lon="21.26224"/><trkpt lat="69.11561" lon="21.26224"/><trkpt lat="69.11567" lon="21.26249"/><trkpt lat="69.11581" lon="21.26352"/><trkpt lat="69.11601" lon="21.2644"/><trkpt lat="69.11612" lon="21.26511"/><trkpt lat="69.11629" lon="21.26589"/><trkpt lat="69.11633" lon="21.26618"/><trkpt lat="69.11634" lon="21.26681"/><trkpt lat="69.11638" lon="21.26724"/><trkpt lat="69.11649" lon="21.26756"/><trkpt lat="69.1167" lon="21.2686"/><trkpt lat="69.11677" lon="21.26877"/><trkpt lat="69.11681" lon="21.26908"/><trkpt lat="69.11693" lon="21.26953"/><trkpt lat="69.11693" lon="21.26953"/><trkpt lat="69.11702" lon="21.27"/><trkpt lat="69.11718" lon="21.27067"/><trkpt lat="69.1172" lon="21.27108"/><trkpt lat="69.11717" lon="21.27179"/><trkpt lat="69.11725" lon="21.27241"/><trkpt lat="69.11742" lon="21.27262"/><trkpt lat="69.11763" lon="21.27252"/><trkpt lat="69.11774" lon="21.27264"/><trkpt lat="69.11782" lon="21.27287"/><trkpt lat="69.11793" lon="21.27445"/><trkpt lat="69.11801" lon="21.27609"/><trkpt lat="69.11801" lon="21.27609"/><trkpt lat="69.11814" lon="21.27696"/><trkpt lat="69.11836" lon="21.27744"/><trkpt lat="69.11849" lon="21.27781"/><trkpt lat="69.1188" lon="21.27841"/><trkpt lat="69.11893" lon="21.27886"/><trkpt lat="69.11907" lon="21.27949"/><trkpt lat="69.11922" lon="21.27999"/><trkpt lat="69.11931" lon="21.28042"/><trkpt lat="69.1195" lon="21.28111"/><trkpt lat="69.1195" lon="21.28111"/><trkpt lat="69.11959" lon="21.28143"/><trkpt lat="69.1198" lon="21.28276"/><trkpt lat="69.11997" lon="21.28367"/><trkpt lat="69.12083" lon="21.28869"/><trkpt lat="69.12106" lon="21.29095"/><trkpt lat="69.12113" lon="21.29124"/><trkpt lat="69.12116" lon="21.2915"/><trkpt lat="69.12116" lon="21.2915"/><trkpt lat="69.12124" lon="21.29216"/><trkpt lat="69.12125" lon="21.29249"/><trkpt lat="69.12131" lon="21.29291"/><trkpt lat="69.12146" lon="21.29435"/><trkpt lat="69.12145" lon="21.29458"/><trkpt lat="69.12172" lon="21.297"/><trkpt lat="69.12179" lon="21.29779"/><trkpt lat="69.12189" lon="21.29831"/><trkpt lat="69.12196" lon="21.29885"/><trkpt lat="69.12206" lon="21.29927"/><trkpt lat="69.1222" lon="21.30019"/><trkpt lat="69.12293" lon="21.30254"/><trkpt lat="69.12298" lon="21.30281"/><trkpt lat="69.12315" lon="21.30322"/><trkpt lat="69.12327" lon="21.30362"/><trkpt lat="69.12344" lon="21.30398"/><trkpt lat="69.12344" lon="21.30398"/><trkpt lat="69.12412" lon="21.30535"/><trkpt lat="69.12561" lon="21.30749"/><trkpt lat="69.1258" lon="21.30781"/><trkpt lat="69.12596" lon="21.30815"/><trkpt lat="69.12644" lon="21.30934"/><trkpt lat="69.1268" lon="21.31062"/><trkpt lat="69.12691" lon="21.31082"/><trkpt lat="69.12723" lon="21.3124"/><trkpt lat="69.12743" lon="21.31323"/><trkpt lat="69.12745" lon="21.31348"/><trkpt lat="69.12745" lon="21.31348"/><trkpt lat="69.12752" lon="21.31375"/><trkpt lat="69.1278" lon="21.31459"/><trkpt lat="69.12814" lon="21.31607"/><trkpt lat="69.12823" lon="21.31652"/><trkpt lat="69.12834" lon="21.31681"/><trkpt lat="69.12844" lon="21.31752"/><trkpt lat="69.12857" lon="21.31824"/><trkpt lat="69.1287" lon="21.31866"/><trkpt lat="69.1288" lon="21.31936"/><trkpt lat="69.12878" lon="21.31998"/><trkpt lat="69.12878" lon="21.31998"/><trkpt lat="69.12896" lon="21.32087"/><trkpt lat="69.12906" lon="21.32119"/><trkpt lat="69.1292" lon="21.32252"/><trkpt lat="69.12956" lon="21.32488"/><trkpt lat="69.12978" lon="21.32573"/><trkpt lat="69.12981" lon="21.32589"/><trkpt lat="69.12983" lon="21.32621"/><trkpt lat="69.12987" lon="21.32647"/><trkpt lat="69.12992" lon="21.32687"/><trkpt lat="69.12991" lon="21.3278"/><trkpt lat="69.12995" lon="21.32853"/><trkpt lat="69.13014" lon="21.32947"/><trkpt lat="69.13032" lon="21.32993"/><trkpt lat="69.13067" lon="21.33042"/><trkpt lat="69.13077" lon="21.33076"/><trkpt lat="69.13096" lon="21.33117"/><trkpt lat="69.13122" lon="21.33255"/><trkpt lat="69.13122" lon="21.33255"/><trkpt lat="69.13127" lon="21.33272"/><trkpt lat="69.13127" lon="21.33272"/><trkpt lat="69.13133" lon="21.33292"/><trkpt lat="69.13154" lon="21.33337"/><trkpt lat="69.13177" lon="21.33415"/><trkpt lat="69.13222" lon="21.33527"/><trkpt lat="69.13231" lon="21.33545"/><trkpt lat="69.13231" lon="21.33545"/><trkpt lat="69.13304" lon="21.3369"/><trkpt lat="69.13308880911221" lon="21.33696115840566"/><trkpt lat="69.13308880998508" lon="21.33696115840566"/><trkpt lat="69.13387" lon="21.33794"/><trkpt lat="69.13409" lon="21.33807"/><trkpt lat="69.13427" lon="21.33821"/><trkpt lat="69.13445" lon="21.33842"/><trkpt lat="69.13466" lon="21.33874"/><trkpt lat="69.13486" lon="21.33898"/><trkpt lat="69.13508" lon="21.33903"/><trkpt lat="69.13525" lon="21.33913"/><trkpt lat="69.13573" lon="21.33953"/><trkpt lat="69.13631" lon="21.34026"/><trkpt lat="69.13669" lon="21.34058"/><trkpt lat="69.13689" lon="21.34065"/><trkpt lat="69.13689" lon="21.34065"/><trkpt lat="69.13718" lon="21.34063"/><trkpt lat="69.13787" lon="21.34082"/><trkpt lat="69.13787" lon="21.34082"/><trkpt lat="69.13804" lon="21.3409"/><trkpt lat="69.13843" lon="21.34099"/><trkpt lat="69.13851" lon="21.34092"/><trkpt lat="69.13857" lon="21.34097"/><trkpt lat="69.13862" lon="21.34104"/><trkpt lat="69.13877" lon="21.34108"/><trkpt lat="69.13886" lon="21.34117"/><trkpt lat="69.1391" lon="21.34123"/><trkpt lat="69.1391" lon="21.34123"/><trkpt lat="69.13937" lon="21.34131"/><trkpt lat="69.13999" lon="21.34124"/><trkpt lat="69.14014" lon="21.3414"/><trkpt lat="69.14026" lon="21.34137"/><trkpt lat="69.14036" lon="21.34121"/><trkpt lat="69.14059" lon="21.34127"/><trkpt lat="69.14175" lon="21.34108"/><trkpt lat="69.14225" lon="21.34089"/><trkpt lat="69.14254" lon="21.34068"/><trkpt lat="69.14283967083799" lon="21.34054443462091"/><trkpt lat="69.14283967083799" lon="21.34054443462091"/><trkpt lat="69.14296" lon="21.34049"/><trkpt lat="69.1431" lon="21.34051"/><trkpt lat="69.14318" lon="21.34048"/><trkpt lat="69.14326" lon="21.34058"/><trkpt lat="69.14338" lon="21.3406"/><trkpt lat="69.14383" lon="21.34066"/><trkpt lat="69.14398" lon="21.34061"/><trkpt lat="69.14419797529465" lon="21.340745498366363"/><trkpt lat="69.14419797529465" lon="21.340745498366363"/><trkpt lat="69.14435" lon="21.34084"/><trkpt lat="69.14456" lon="21.34084"/><trkpt lat="69.14497" lon="21.34073"/><trkpt lat="69.14505" lon="21.34066"/><trkpt lat="69.14505" lon="21.34066"/><trkpt lat="69.14537" lon="21.34082"/><trkpt lat="69.14547" lon="21.34081"/><trkpt lat="69.14547000105182" lon="21.34080999906091"/><trkpt lat="69.14547000105182" lon="21.34080999906091"/><trkpt lat="69.14561" lon="21.34062"/><trkpt lat="69.14597799030663" lon="21.340440093633063"/><trkpt lat="69.14597799030663" lon="21.340440093633063"/><trkpt lat="69.14606" lon="21.3404"/><trkpt lat="69.14621" lon="21.34035"/><trkpt lat="69.14633" lon="21.34027"/><trkpt lat="69.14633" lon="21.34027"/><trkpt lat="69.14644" lon="21.34016"/><trkpt lat="69.14658" lon="21.34009"/><trkpt lat="69.14668" lon="21.34009"/><trkpt lat="69.14692" lon="21.34035"/><trkpt lat="69.14692" lon="21.34035"/><trkpt lat="69.14708" lon="21.34053"/><trkpt lat="69.14726" lon="21.34048"/><trkpt lat="69.14742" lon="21.34039"/><trkpt lat="69.14742" lon="21.34039"/><trkpt lat="69.14763" lon="21.34034"/><trkpt lat="69.14796" lon="21.34011"/><trkpt lat="69.14806" lon="21.34008"/><trkpt lat="69.14827" lon="21.34024"/><trkpt lat="69.14848" lon="21.34007"/><trkpt lat="69.14856" lon="21.33994"/><trkpt lat="69.14865" lon="21.33985"/><trkpt lat="69.14912" lon="21.33976"/><trkpt lat="69.14925" lon="21.33971"/><trkpt lat="69.14932" lon="21.33963"/><trkpt lat="69.15009" lon="21.33943"/><trkpt lat="69.15022" lon="21.33947"/><trkpt lat="69.15052" lon="21.33946"/><trkpt lat="69.15065" lon="21.33956"/><trkpt lat="69.15074" lon="21.33973"/><trkpt lat="69.15087" lon="21.33975"/><trkpt lat="69.15099" lon="21.34"/><trkpt lat="69.15117" lon="21.34012"/><trkpt lat="69.15136" lon="21.34054"/><trkpt lat="69.15178" lon="21.34121"/><trkpt lat="69.15218" lon="21.3418"/><trkpt lat="69.15227" lon="21.34187"/><trkpt lat="69.15235" lon="21.34189"/><trkpt lat="69.15267" lon="21.3417"/><trkpt lat="69.15283" lon="21.34171"/><trkpt lat="69.15289" lon="21.34169"/><trkpt lat="69.15297" lon="21.34178"/><trkpt lat="69.15297" lon="21.34178"/><trkpt lat="69.15311" lon="21.34209"/><trkpt lat="69.15319" lon="21.34212"/><trkpt lat="69.15327" lon="21.34223"/><trkpt lat="69.15348" lon="21.34224"/><trkpt lat="69.15368" lon="21.34218"/><trkpt lat="69.15381" lon="21.3424"/><trkpt lat="69.15408" lon="21.34265"/><trkpt lat="69.15422" lon="21.34296"/><trkpt lat="69.1543" lon="21.34301"/><trkpt lat="69.15439" lon="21.34294"/><trkpt lat="69.15457" lon="21.34294"/><trkpt lat="69.15474" lon="21.34306"/><trkpt lat="69.15474" lon="21.34306"/><trkpt lat="69.1551" lon="21.34342"/><trkpt lat="69.15537" lon="21.34383"/><trkpt lat="69.15544" lon="21.34387"/><trkpt lat="69.15562" lon="21.34407"/><trkpt lat="69.15589" lon="21.34416"/><trkpt lat="69.15598" lon="21.34428"/><trkpt lat="69.15612" lon="21.34442"/><trkpt lat="69.15632" lon="21.34473"/><trkpt lat="69.15642" lon="21.34497"/><trkpt lat="69.15662" lon="21.34516"/><trkpt lat="69.15687" lon="21.34586"/><trkpt lat="69.15715" lon="21.34648"/><trkpt lat="69.15741" lon="21.34684"/><trkpt lat="69.15741" lon="21.34684"/><trkpt lat="69.15741" lon="21.34684"/><trkpt lat="69.15769" lon="21.34706"/><trkpt lat="69.15791" lon="21.34752"/><trkpt lat="69.15834" lon="21.34818"/><trkpt lat="69.15851" lon="21.34836"/><trkpt lat="69.1589" lon="21.34914"/><trkpt lat="69.15902" lon="21.34932"/><trkpt lat="69.15914" lon="21.34974"/><trkpt lat="69.15944" lon="21.35002"/><trkpt lat="69.15959" lon="21.35005"/><trkpt lat="69.15977" lon="21.35025"/><trkpt lat="69.15987" lon="21.35025"/><trkpt lat="69.15987" lon="21.35025"/><trkpt lat="69.15987409805578" lon="21.35016393773501"/><trkpt lat="69.15987409805618" lon="21.35016393773501"/><trkpt lat="69.15987838532358" lon="21.35007390187492"/><trkpt lat="69.15987838532358" lon="21.35007390187492"/><trkpt lat="69.15989" lon="21.34983"/><trkpt lat="69.15989" lon="21.34983"/><trkpt lat="69.15995" lon="21.34984"/><trkpt lat="69.15995" lon="21.34984"/><trkpt lat="69.15994" lon="21.34963"/><trkpt lat="69.15988" lon="21.34892"/><trkpt lat="69.15988" lon="21.34848"/><trkpt lat="69.15985" lon="21.34836"/><trkpt lat="69.15988" lon="21.34809"/><trkpt lat="69.15988" lon="21.34809"/><trkpt lat="69.15997" lon="21.34771"/><trkpt lat="69.16012" lon="21.34729"/><trkpt lat="69.16012" lon="21.34729"/><trkpt lat="69.16026" lon="21.34701"/><trkpt lat="69.1606" lon="21.34601"/><trkpt lat="69.16075" lon="21.34543"/><trkpt lat="69.16104" lon="21.34446"/><trkpt lat="69.16142" lon="21.34296"/><trkpt lat="69.16155" lon="21.34279"/><trkpt lat="69.16155" lon="21.34279"/><trkpt lat="69.16171" lon="21.34275"/><trkpt lat="69.16171" lon="21.34275"/><trkpt lat="69.16181" lon="21.34231"/><trkpt lat="69.16181" lon="21.34231"/><trkpt lat="69.16181" lon="21.34231"/><trkpt lat="69.16193" lon="21.34196"/><trkpt lat="69.16195" lon="21.34187"/><trkpt lat="69.16195" lon="21.34177"/><trkpt lat="69.16199" lon="21.34165"/><trkpt lat="69.16204" lon="21.34107"/><trkpt lat="69.16214" lon="21.34072"/><trkpt lat="69.1621399992071" lon="21.340720003106416"/><trkpt lat="69.16214" lon="21.34072"/><trkpt lat="69.16225" lon="21.34009"/><trkpt lat="69.16225" lon="21.34009"/><trkpt lat="69.16225" lon="21.34009"/><trkpt lat="69.16232" lon="21.33994"/><trkpt lat="69.16237" lon="21.33967"/><trkpt lat="69.16244" lon="21.33959"/><trkpt lat="69.16256" lon="21.3393"/><trkpt lat="69.16256" lon="21.3393"/><trkpt lat="69.16266" lon="21.33913"/><trkpt lat="69.16271" lon="21.33891"/><trkpt lat="69.16299" lon="21.33839"/><trkpt lat="69.16314" lon="21.33779"/><trkpt lat="69.16336" lon="21.33747"/><trkpt lat="69.16354" lon="21.33736"/><trkpt lat="69.1637" lon="21.33697"/><trkpt lat="69.16385" lon="21.3368"/><trkpt lat="69.16404" lon="21.33704"/><trkpt lat="69.16425" lon="21.3365"/><trkpt lat="69.16459" lon="21.33633"/><trkpt lat="69.1649" lon="21.33602"/><trkpt lat="69.16505" lon="21.3355"/><trkpt lat="69.16508" lon="21.33545"/><trkpt lat="69.16508" lon="21.33545"/><trkpt lat="69.1652" lon="21.33526"/><trkpt lat="69.16563" lon="21.33509"/><trkpt lat="69.16579" lon="21.33483"/><trkpt lat="69.16586" lon="21.33444"/><trkpt lat="69.16644" lon="21.3341"/><trkpt lat="69.16692" lon="21.33398"/><trkpt lat="69.16692" lon="21.33398"/><trkpt lat="69.16703" lon="21.33395"/><trkpt lat="69.16721" lon="21.33376"/><trkpt lat="69.16754" lon="21.33358"/><trkpt lat="69.16766" lon="21.3337"/><trkpt lat="69.16766" lon="21.3337"/><trkpt lat="69.16802" lon="21.33371"/><trkpt lat="69.16838" lon="21.3341"/><trkpt lat="69.16846" lon="21.33446"/><trkpt lat="69.16839" lon="21.33545"/><trkpt lat="69.16839" lon="21.33545"/><trkpt lat="69.16835" lon="21.33603"/><trkpt lat="69.16836" lon="21.33637"/><trkpt lat="69.1684" lon="21.33672"/><trkpt lat="69.16848" lon="21.33701"/><trkpt lat="69.16858" lon="21.33717"/><trkpt lat="69.16869" lon="21.33762"/><trkpt lat="69.16896" lon="21.33846"/><trkpt lat="69.169" lon="21.3387"/><trkpt lat="69.16905" lon="21.33886"/><trkpt lat="69.16906" lon="21.33907"/><trkpt lat="69.16906" lon="21.33928"/><trkpt lat="69.16914" lon="21.33984"/><trkpt lat="69.1692" lon="21.34015"/><trkpt lat="69.16929" lon="21.34039"/><trkpt lat="69.16935" lon="21.34062"/><trkpt lat="69.16952" lon="21.34095"/><trkpt lat="69.16965" lon="21.34131"/><trkpt lat="69.16975" lon="21.34143"/><trkpt lat="69.16975" lon="21.34143"/><trkpt lat="69.16975" lon="21.34143"/><trkpt lat="69.16984" lon="21.34152"/><trkpt lat="69.16996" lon="21.34155"/><trkpt lat="69.1701" lon="21.34163"/><trkpt lat="69.17019" lon="21.34173"/><trkpt lat="69.17019" lon="21.34173"/><trkpt lat="69.17019" lon="21.34173"/><trkpt lat="69.17037" lon="21.34171"/><trkpt lat="69.17037" lon="21.34171"/><trkpt lat="69.17057" lon="21.3416"/><trkpt lat="69.17063" lon="21.3415"/><trkpt lat="69.17089" lon="21.34131"/><trkpt lat="69.17095" lon="21.3413"/><trkpt lat="69.17098" lon="21.34122"/><trkpt lat="69.17104" lon="21.3412"/><trkpt lat="69.17152" lon="21.34049"/><trkpt lat="69.17162" lon="21.34026"/><trkpt lat="69.17166" lon="21.34008"/><trkpt lat="69.17188" lon="21.33963"/><trkpt lat="69.17216" lon="21.33911"/><trkpt lat="69.17223" lon="21.339"/><trkpt lat="69.17236" lon="21.33868"/><trkpt lat="69.17242" lon="21.3386"/><trkpt lat="69.17264" lon="21.33813"/><trkpt lat="69.1727" lon="21.33794"/><trkpt lat="69.17279" lon="21.33775"/><trkpt lat="69.17291" lon="21.33765"/><trkpt lat="69.17299" lon="21.33769"/><trkpt lat="69.17316" lon="21.33767"/><trkpt lat="69.17316" lon="21.33767"/><trkpt lat="69.17325" lon="21.3376"/><trkpt lat="69.1734" lon="21.33731"/><trkpt lat="69.17354" lon="21.3371"/><trkpt lat="69.17361" lon="21.33704"/><trkpt lat="69.17361" lon="21.33704"/><trkpt lat="69.17361" lon="21.33704"/><trkpt lat="69.1737" lon="21.33688"/><trkpt lat="69.17376" lon="21.33669"/><trkpt lat="69.1738" lon="21.33662"/><trkpt lat="69.17386" lon="21.33645"/><trkpt lat="69.17409" lon="21.33604"/><trkpt lat="69.17415" lon="21.33598"/><trkpt lat="69.17428" lon="21.33565"/><trkpt lat="69.17439" lon="21.33545"/><trkpt lat="69.17439" lon="21.33545"/><trkpt lat="69.17459" lon="21.33501"/><trkpt lat="69.1747" lon="21.33466"/><trkpt lat="69.1748" lon="21.33446"/><trkpt lat="69.17489" lon="21.33436"/><trkpt lat="69.17511" lon="21.3342"/><trkpt lat="69.17518" lon="21.33409"/><trkpt lat="69.17521" lon="21.33399"/><trkpt lat="69.17533" lon="21.33374"/><trkpt lat="69.17554" lon="21.33308"/><trkpt lat="69.1756" lon="21.33297"/><trkpt lat="69.17565" lon="21.33294"/><trkpt lat="69.1757" lon="21.33285"/><trkpt lat="69.1757" lon="21.33285"/><trkpt lat="69.17571" lon="21.33257"/><trkpt lat="69.17575" lon="21.33226"/><trkpt lat="69.17581" lon="21.33205"/><trkpt lat="69.1759" lon="21.33189"/><trkpt lat="69.17599" lon="21.33159"/><trkpt lat="69.17619" lon="21.33132"/><trkpt lat="69.17627" lon="21.33113"/><trkpt lat="69.17639" lon="21.33074"/><trkpt lat="69.17648" lon="21.33059"/><trkpt lat="69.17666" lon="21.33021"/><trkpt lat="69.17676" lon="21.32986"/><trkpt lat="69.17694" lon="21.32951"/><trkpt lat="69.17716" lon="21.32897"/><trkpt lat="69.17737" lon="21.3281"/><trkpt lat="69.17741" lon="21.32786"/><trkpt lat="69.17756" lon="21.32751"/><trkpt lat="69.17758" lon="21.32728"/><trkpt lat="69.17764" lon="21.32648"/><trkpt lat="69.1777" lon="21.32615"/><trkpt lat="69.17772" lon="21.3259"/><trkpt lat="69.17772" lon="21.3259"/><trkpt lat="69.17772" lon="21.3259"/><trkpt lat="69.17774" lon="21.32577"/><trkpt lat="69.17782" lon="21.32542"/><trkpt lat="69.17784" lon="21.32526"/><trkpt lat="69.17795" lon="21.32482"/><trkpt lat="69.17802" lon="21.32442"/><trkpt lat="69.17818" lon="21.32387"/><trkpt lat="69.17818" lon="21.32387"/><trkpt lat="69.17824" lon="21.32367"/><trkpt lat="69.17826" lon="21.32356"/><trkpt lat="69.17829" lon="21.32322"/><trkpt lat="69.1783" lon="21.32274"/><trkpt lat="69.17832" lon="21.32258"/><trkpt lat="69.17832" lon="21.3224"/><trkpt lat="69.17835" lon="21.3221"/><trkpt lat="69.17846" lon="21.32154"/><trkpt lat="69.17849" lon="21.32114"/><trkpt lat="69.1785" lon="21.32099"/><trkpt lat="69.17848" lon="21.32085"/><trkpt lat="69.17849" lon="21.32042"/><trkpt lat="69.17847" lon="21.3202"/><trkpt lat="69.17847" lon="21.31998"/><trkpt lat="69.17851" lon="21.31957"/><trkpt lat="69.17852" lon="21.3194"/><trkpt lat="69.17857" lon="21.3193"/><trkpt lat="69.1786" lon="21.31908"/><trkpt lat="69.17864" lon="21.31896"/><trkpt lat="69.17871" lon="21.31862"/><trkpt lat="69.17872" lon="21.31848"/><trkpt lat="69.17872" lon="21.31816"/><trkpt lat="69.17875" lon="21.31801"/><trkpt lat="69.17881" lon="21.31789"/><trkpt lat="69.17883" lon="21.31767"/><trkpt lat="69.17886" lon="21.31742"/><trkpt lat="69.17887" lon="21.31714"/><trkpt lat="69.1789" lon="21.317"/><trkpt lat="69.1789" lon="21.31692"/><trkpt lat="69.17887" lon="21.31685"/><trkpt lat="69.17887" lon="21.31675"/><trkpt lat="69.17889" lon="21.31648"/><trkpt lat="69.17891" lon="21.31641"/><trkpt lat="69.17901" lon="21.31623"/><trkpt lat="69.17908" lon="21.31616"/><trkpt lat="69.17918" lon="21.31598"/><trkpt lat="69.17924" lon="21.31591"/><trkpt lat="69.17937" lon="21.31532"/><trkpt lat="69.1794" lon="21.31501"/><trkpt lat="69.17942" lon="21.31447"/><trkpt lat="69.17954" lon="21.31348"/><trkpt lat="69.17954" lon="21.31348"/><trkpt lat="69.17956" lon="21.31316"/><trkpt lat="69.17963" lon="21.31271"/><trkpt lat="69.1797" lon="21.31257"/><trkpt lat="69.17972" lon="21.31247"/><trkpt lat="69.17975" lon="21.31213"/><trkpt lat="69.17977" lon="21.31206"/><trkpt lat="69.1798" lon="21.31187"/><trkpt lat="69.1799" lon="21.31156"/><trkpt lat="69.17993399981873" lon="21.31140699997325"/><trkpt lat="69.17993765180634" lon="21.31139056609592"/><trkpt lat="69.17994118741971" lon="21.3113746559005"/><trkpt lat="69.17994118741971" lon="21.3113746559005"/><trkpt lat="69.17998" lon="21.3112"/><trkpt lat="69.17998" lon="21.31109"/><trkpt lat="69.17994" lon="21.31092"/><trkpt lat="69.17994" lon="21.31086"/><trkpt lat="69.17996" lon="21.31063"/><trkpt lat="69.17999" lon="21.31041"/><trkpt lat="69.18003" lon="21.31024"/><trkpt lat="69.18014" lon="21.30958"/><trkpt lat="69.18015" lon="21.30944"/><trkpt lat="69.18015" lon="21.30936"/><trkpt lat="69.18011" lon="21.30813"/><trkpt lat="69.18011" lon="21.30782"/><trkpt lat="69.18007" lon="21.30732"/><trkpt lat="69.1801" lon="21.30699"/><trkpt lat="69.1801" lon="21.30672"/><trkpt lat="69.18014" lon="21.30636"/><trkpt lat="69.18012" lon="21.30599"/><trkpt lat="69.18021" lon="21.30503"/><trkpt lat="69.1802" lon="21.30489"/><trkpt lat="69.18022" lon="21.30441"/><trkpt lat="69.18033" lon="21.30339"/><trkpt lat="69.18037" lon="21.30319"/><trkpt lat="69.18043" lon="21.30273"/><trkpt lat="69.1805" lon="21.30203"/><trkpt lat="69.18049" lon="21.30188"/><trkpt lat="69.1805" lon="21.30176"/><trkpt lat="69.18052" lon="21.30168"/><trkpt lat="69.18052" lon="21.30129"/><trkpt lat="69.18055" lon="21.30101"/><trkpt lat="69.18054" lon="21.30092"/><trkpt lat="69.18056" lon="21.30072"/><trkpt lat="69.1806" lon="21.29966"/><trkpt lat="69.18089" lon="21.29891"/><trkpt lat="69.18117" lon="21.29807"/><trkpt lat="69.18146" lon="21.29803"/><trkpt lat="69.18169" lon="21.29775"/><trkpt lat="69.18201" lon="21.29689"/><trkpt lat="69.18227" lon="21.29654"/><trkpt lat="69.18244" lon="21.29604"/><trkpt lat="69.18256" lon="21.2959"/><trkpt lat="69.18263" lon="21.29586"/><trkpt lat="69.18267" lon="21.2957"/><trkpt lat="69.18272" lon="21.29561"/><trkpt lat="69.18273" lon="21.2954"/><trkpt lat="69.18275" lon="21.29532"/><trkpt lat="69.18282" lon="21.29521"/><trkpt lat="69.18287" lon="21.29502"/><trkpt lat="69.18301" lon="21.29421"/><trkpt lat="69.1831" lon="21.29403"/><trkpt lat="69.18317" lon="21.29372"/><trkpt lat="69.18316" lon="21.29356"/><trkpt lat="69.1832" lon="21.29333"/><trkpt lat="69.18327" lon="21.29305"/><trkpt lat="69.18329" lon="21.29278"/><trkpt lat="69.18339" lon="21.29254"/><trkpt lat="69.18344" lon="21.29236"/><trkpt lat="69.18344" lon="21.29236"/><trkpt lat="69.18344" lon="21.29236"/><trkpt lat="69.18349" lon="21.29232"/><trkpt lat="69.18351" lon="21.29234"/><trkpt lat="69.18353" lon="21.29241"/><trkpt lat="69.18353" lon="21.29241"/><trkpt lat="69.18364" lon="21.29302"/><trkpt lat="69.18364" lon="21.29302"/><trkpt lat="69.18367" lon="21.29308"/><trkpt lat="69.18367" lon="21.29308"/><trkpt lat="69.18367" lon="21.29308"/><trkpt lat="69.18375" lon="21.29299"/><trkpt lat="69.18377" lon="21.293"/><trkpt lat="69.18379" lon="21.29305"/><trkpt lat="69.18386" lon="21.29348"/><trkpt lat="69.18387" lon="21.29353"/><trkpt lat="69.18407" lon="21.29346"/><trkpt lat="69.1841" lon="21.29348"/><trkpt lat="69.18417" lon="21.29361"/><trkpt lat="69.18426" lon="21.29403"/><trkpt lat="69.18437" lon="21.29425"/><trkpt lat="69.18454" lon="21.29483"/><trkpt lat="69.18461" lon="21.2952"/><trkpt lat="69.18467" lon="21.29528"/><trkpt lat="69.18469" lon="21.29549"/><trkpt lat="69.1848" lon="21.29587"/><trkpt lat="69.18495" lon="21.29615"/><trkpt lat="69.18502" lon="21.2964"/><trkpt lat="69.1851" lon="21.29655"/><trkpt lat="69.18537" lon="21.29756"/><trkpt lat="69.18545" lon="21.29801"/><trkpt lat="69.1855" lon="21.29837"/><trkpt lat="69.18562" lon="21.29872"/><trkpt lat="69.18579" lon="21.29887"/><trkpt lat="69.18596" lon="21.29886"/><trkpt lat="69.18596" lon="21.29886"/><trkpt lat="69.18596" lon="21.29886"/><trkpt lat="69.18599" lon="21.2988"/><trkpt lat="69.18599" lon="21.2988"/><trkpt lat="69.18602" lon="21.29875"/><trkpt lat="69.18609" lon="21.29851"/><trkpt lat="69.18616" lon="21.29843"/><trkpt lat="69.18642" lon="21.29856"/><trkpt lat="69.18652" lon="21.29844"/><trkpt lat="69.18652" lon="21.29844"/><trkpt lat="69.18652" lon="21.29844"/><trkpt lat="69.18665" lon="21.29809"/><trkpt lat="69.18696" lon="21.29777"/><trkpt lat="69.1875" lon="21.29683"/><trkpt lat="69.18763" lon="21.29674"/><trkpt lat="69.18783" lon="21.29603"/><trkpt lat="69.18803" lon="21.2957"/><trkpt lat="69.18816" lon="21.29536"/><trkpt lat="69.18828" lon="21.29524"/><trkpt lat="69.18836" lon="21.2951"/><trkpt lat="69.18842" lon="21.29505"/><trkpt lat="69.18853" lon="21.29486"/><trkpt lat="69.18867" lon="21.29457"/><trkpt lat="69.18875" lon="21.29444"/><trkpt lat="69.18887" lon="21.29439"/><trkpt lat="69.18893" lon="21.2943"/><trkpt lat="69.18928" lon="21.29403"/><trkpt lat="69.18957" lon="21.29387"/><trkpt lat="69.1898" lon="21.29329"/><trkpt lat="69.19" lon="21.29204"/><trkpt lat="69.19001" lon="21.2915"/><trkpt lat="69.19001" lon="21.2915"/><trkpt lat="69.19002" lon="21.29093"/><trkpt lat="69.19005" lon="21.29072"/><trkpt lat="69.19005" lon="21.29072"/><trkpt lat="69.19005" lon="21.29062"/><trkpt lat="69.19008" lon="21.29038"/><trkpt lat="69.19013" lon="21.29018"/><trkpt lat="69.19021" lon="21.28986"/><trkpt lat="69.19026" lon="21.2897"/><trkpt lat="69.19035" lon="21.28948"/><trkpt lat="69.19052" lon="21.28863"/><trkpt lat="69.1906" lon="21.2885"/><trkpt lat="69.19067" lon="21.28842"/><trkpt lat="69.19079" lon="21.28791"/><trkpt lat="69.19091" lon="21.28765"/><trkpt lat="69.19091" lon="21.28765"/><trkpt lat="69.19091" lon="21.28765"/><trkpt lat="69.191" lon="21.28713"/><trkpt lat="69.19114" lon="21.28657"/><trkpt lat="69.19134" lon="21.28586"/><trkpt lat="69.1916" lon="21.28537"/><trkpt lat="69.19183" lon="21.28482"/><trkpt lat="69.19196" lon="21.28459"/><trkpt lat="69.19207" lon="21.28419"/><trkpt lat="69.19239" lon="21.28336"/><trkpt lat="69.19243" lon="21.28293"/><trkpt lat="69.19258" lon="21.28286"/><trkpt lat="69.19292" lon="21.28208"/><trkpt lat="69.19298" lon="21.28179"/><trkpt lat="69.19304" lon="21.28162"/><trkpt lat="69.19307" lon="21.28161"/><trkpt lat="69.19311" lon="21.28165"/><trkpt lat="69.19318" lon="21.28136"/><trkpt lat="69.19329" lon="21.28093"/><trkpt lat="69.19339" lon="21.28066"/><trkpt lat="69.19364" lon="21.28044"/><trkpt lat="69.19374" lon="21.28016"/><trkpt lat="69.1938" lon="21.28013"/><trkpt lat="69.1938" lon="21.28013"/><trkpt lat="69.19383" lon="21.28011"/><trkpt lat="69.19392" lon="21.27982"/><trkpt lat="69.194" lon="21.27979"/><trkpt lat="69.19404" lon="21.27964"/><trkpt lat="69.19417" lon="21.27935"/><trkpt lat="69.19428" lon="21.27934"/><trkpt lat="69.19446" lon="21.27913"/><trkpt lat="69.19446" lon="21.27913"/><trkpt lat="69.19481" lon="21.27859"/><trkpt lat="69.195" lon="21.2784"/><trkpt lat="69.19526" lon="21.27821"/><trkpt lat="69.19559" lon="21.27813"/><trkpt lat="69.19578" lon="21.27805"/><trkpt lat="69.19617" lon="21.2782"/><trkpt lat="69.19658998467091" lon="21.278450203633724"/><trkpt lat="69.19658998467091" lon="21.278450203633724"/><trkpt lat="69.19664" lon="21.27848"/><trkpt lat="69.19677001529136" lon="21.278539736755487"/><trkpt lat="69.19677001529136" lon="21.278539736755487"/><trkpt lat="69.19701" lon="21.27865"/><trkpt lat="69.19722" lon="21.27868"/><trkpt lat="69.19735" lon="21.27846"/><trkpt lat="69.19767" lon="21.27842"/><trkpt lat="69.19767" lon="21.27842"/><trkpt lat="69.19767" lon="21.27842"/><trkpt lat="69.19771" lon="21.27838"/><trkpt lat="69.19784" lon="21.27835"/><trkpt lat="69.19791" lon="21.27842"/><trkpt lat="69.19795" lon="21.27852"/><trkpt lat="69.19809" lon="21.27853"/><trkpt lat="69.19821" lon="21.27865"/><trkpt lat="69.19839" lon="21.27856"/><trkpt lat="69.19856" lon="21.27863"/><trkpt lat="69.19876" lon="21.27867"/><trkpt lat="69.19876" lon="21.27867"/><trkpt lat="69.19876" lon="21.27867"/><trkpt lat="69.19919" lon="21.27893"/><trkpt lat="69.19934" lon="21.27911"/><trkpt lat="69.1994" lon="21.27912"/><trkpt lat="69.19946" lon="21.27926"/><trkpt lat="69.19969" lon="21.27953"/><trkpt lat="69.19986" lon="21.27953"/><trkpt lat="69.19999" lon="21.2795"/><trkpt lat="69.20008" lon="21.27954"/><trkpt lat="69.20008" lon="21.27954"/><trkpt lat="69.20008" lon="21.27954"/><trkpt lat="69.20024" lon="21.28003"/><trkpt lat="69.20027" lon="21.28005"/><trkpt lat="69.20037" lon="21.28028"/><trkpt lat="69.20037" lon="21.28028"/><trkpt lat="69.20037" lon="21.28028"/><trkpt lat="69.20048" lon="21.28071"/><trkpt lat="69.20057" lon="21.28089"/><trkpt lat="69.2007" lon="21.28107"/><trkpt lat="69.20075" lon="21.2813"/><trkpt lat="69.20079" lon="21.28157"/><trkpt lat="69.2009" lon="21.2818"/><trkpt lat="69.20111" lon="21.28213"/><trkpt lat="69.20117" lon="21.2824"/><trkpt lat="69.20133" lon="21.28292"/><trkpt lat="69.20148" lon="21.28332"/><trkpt lat="69.2016" lon="21.28343"/><trkpt lat="69.2016" lon="21.28343"/><trkpt lat="69.20162" lon="21.28344"/><trkpt lat="69.20179" lon="21.28421"/><trkpt lat="69.20188" lon="21.28438"/><trkpt lat="69.20195" lon="21.28455"/><trkpt lat="69.20212" lon="21.28486"/><trkpt lat="69.20223" lon="21.28531"/><trkpt lat="69.20235" lon="21.28552"/><trkpt lat="69.20246" lon="21.28565"/><trkpt lat="69.20263" lon="21.28579"/><trkpt lat="69.20273" lon="21.28596"/><trkpt lat="69.20273" lon="21.28596"/><trkpt lat="69.2031" lon="21.28585"/><trkpt lat="69.20333" lon="21.28603"/><trkpt lat="69.20346" lon="21.28627"/><trkpt lat="69.20358" lon="21.2866"/><trkpt lat="69.20382" lon="21.28692"/><trkpt lat="69.20405" lon="21.28705"/><trkpt lat="69.20485" lon="21.28716"/><trkpt lat="69.20499" lon="21.28726"/><trkpt lat="69.20499" lon="21.28726"/><trkpt lat="69.20499" lon="21.28726"/><trkpt lat="69.2052" lon="21.28734"/><trkpt lat="69.2053" lon="21.28722"/><trkpt lat="69.20546" lon="21.28727"/><trkpt lat="69.20561" lon="21.28738"/><trkpt lat="69.20578" lon="21.28742"/><trkpt lat="69.2059" lon="21.28753"/><trkpt lat="69.20614" lon="21.28752"/><trkpt lat="69.20629" lon="21.28757"/><trkpt lat="69.2065" lon="21.28773"/><trkpt lat="69.20679" lon="21.28829"/><trkpt lat="69.20708" lon="21.28915"/><trkpt lat="69.20727" lon="21.28925"/><trkpt lat="69.20793" lon="21.29127"/><trkpt lat="69.20803" lon="21.2915"/><trkpt lat="69.20803" lon="21.2915"/><trkpt lat="69.20876" lon="21.29331"/><trkpt lat="69.20918" lon="21.29402"/><trkpt lat="69.2094" lon="21.29415"/><trkpt lat="69.2094" lon="21.29415"/><trkpt lat="69.20973" lon="21.29434"/><trkpt lat="69.20989" lon="21.29425"/><trkpt lat="69.21011" lon="21.29384"/><trkpt lat="69.21032" lon="21.29369"/><trkpt lat="69.2105" lon="21.29365"/><trkpt lat="69.21065" lon="21.29393"/><trkpt lat="69.21094" lon="21.2944"/><trkpt lat="69.21102" lon="21.29458"/><trkpt lat="69.21102" lon="21.29458"/><trkpt lat="69.21103" lon="21.29513"/><trkpt lat="69.21114" lon="21.29547"/><trkpt lat="69.21152" lon="21.29616"/><trkpt lat="69.21154" lon="21.29624"/><trkpt lat="69.21154" lon="21.29624"/><trkpt lat="69.21234" lon="21.29775"/><trkpt lat="69.21282" lon="21.29862"/><trkpt lat="69.21321" lon="21.29925"/><trkpt lat="69.21351" lon="21.29965"/><trkpt lat="69.21351" lon="21.29965"/><trkpt lat="69.21372" lon="21.3"/><trkpt lat="69.21394" lon="21.30008"/><trkpt lat="69.2143" lon="21.29966"/><trkpt lat="69.21472" lon="21.29973"/><trkpt lat="69.21472" lon="21.29973"/><trkpt lat="69.21492" lon="21.29999"/><trkpt lat="69.21521" lon="21.30008"/><trkpt lat="69.21542" lon="21.30001"/><trkpt lat="69.21558" lon="21.29983"/><trkpt lat="69.21558" lon="21.29983"/><trkpt lat="69.21558" lon="21.29983"/><trkpt lat="69.21576" lon="21.2999"/><trkpt lat="69.21576" lon="21.2999"/><trkpt lat="69.21611" lon="21.29983"/><trkpt lat="69.21681" lon="21.3002"/><trkpt lat="69.21681" lon="21.3002"/><trkpt lat="69.21708" lon="21.30006"/><trkpt lat="69.2172" lon="21.29995"/><trkpt lat="69.2172" lon="21.29995"/><trkpt lat="69.21761" lon="21.29959"/><trkpt lat="69.21778" lon="21.29952"/><trkpt lat="69.21825" lon="21.29921"/><trkpt lat="69.2189" lon="21.29891"/><trkpt lat="69.21986" lon="21.2982"/><trkpt lat="69.22054" lon="21.29805"/><trkpt lat="69.22098" lon="21.29807"/><trkpt lat="69.22147" lon="21.29826"/><trkpt lat="69.22161" lon="21.29822"/><trkpt lat="69.22221" lon="21.2979"/><trkpt lat="69.22232" lon="21.29778"/><trkpt lat="69.22238" lon="21.29763"/><trkpt lat="69.22287" lon="21.29703"/><trkpt lat="69.22316" lon="21.29691"/><trkpt lat="69.22368" lon="21.29625"/><trkpt lat="69.22423" lon="21.29608"/><trkpt lat="69.2246" lon="21.29586"/><trkpt lat="69.22481" lon="21.29581"/><trkpt lat="69.225" lon="21.29564"/><trkpt lat="69.225" lon="21.29564"/><trkpt lat="69.22619" lon="21.29456"/><trkpt lat="69.22652" lon="21.29414"/><trkpt lat="69.22678" lon="21.29388"/><trkpt lat="69.22703" lon="21.29372"/><trkpt lat="69.22737" lon="21.29342"/><trkpt lat="69.22766" lon="21.29292"/><trkpt lat="69.22774" lon="21.29283"/><trkpt lat="69.22774" lon="21.29283"/><trkpt lat="69.22774" lon="21.29283"/><trkpt lat="69.22813" lon="21.29256"/><trkpt lat="69.22844" lon="21.29272"/><trkpt lat="69.22866" lon="21.29295"/><trkpt lat="69.22866" lon="21.29295"/><trkpt lat="69.22873" lon="21.29291"/><trkpt lat="69.22881" lon="21.29269"/><trkpt lat="69.22901" lon="21.29225"/><trkpt lat="69.22919" lon="21.29175"/><trkpt lat="69.22934" lon="21.2915"/><trkpt lat="69.22934" lon="21.2915"/><trkpt lat="69.22953" lon="21.29118"/><trkpt lat="69.22972" lon="21.29062"/><trkpt lat="69.23006" lon="21.28996"/><trkpt lat="69.2302" lon="21.28981"/><trkpt lat="69.23052" lon="21.28959"/><trkpt lat="69.23084" lon="21.28944"/><trkpt lat="69.23093025060453" lon="21.289340249603356"/><trkpt lat="69.23093025060453" lon="21.289340249603356"/><trkpt lat="69.23103" lon="21.28923"/><trkpt lat="69.23113670287844" lon="21.289170719705716"/><trkpt lat="69.23114" lon="21.28918"/><trkpt lat="69.2310772926908" lon="21.28932892985933"/></trkseg></trk></gpx>