<?xml version="1.0"?>
<gpx xmlns="http://www.topografix.com/GPX/1/1" xmlns:gpxx="http://www.garmin.com/xmlschemas/GpxExtensions/v3" creator="CALTOPO" version="1.1"><metadata><name><![CDATA[meeko-saarijarvi]]></name></metadata><trk><name>meeko-saarijarvi</name><trkseg><trkpt lat="69.15993461036032" lon="21.349837435057434"/><trkpt lat="69.15989" lon="21.34983"/><trkpt lat="69.15989" lon="21.34983"/><trkpt lat="69.15987838532358" lon="21.35007390187492"/><trkpt lat="69.15987838532358" lon="21.35007390187492"/><trkpt lat="69.15987" lon="21.35025"/><trkpt lat="69.15987" lon="21.35025"/><trkpt lat="69.15977" lon="21.35025"/><trkpt lat="69.15959" lon="21.35005"/><trkpt lat="69.15952887847791" lon="21.350037775695583"/><trkpt lat="69.15952887860244" lon="21.350037775695583"/><trkpt lat="69.15944" lon="21.35002"/><trkpt lat="69.15914" lon="21.34974"/><trkpt lat="69.15902" lon="21.34932"/><trkpt lat="69.1589" lon="21.34914"/><trkpt lat="69.15851" lon="21.34836"/><trkpt lat="69.15834" lon="21.34818"/><trkpt lat="69.15791" lon="21.34752"/><trkpt lat="69.15769" lon="21.34706"/><trkpt lat="69.15741" lon="21.34684"/><trkpt lat="69.15741" lon="21.34684"/><trkpt lat="69.15741" lon="21.34684"/><trkpt lat="69.15715" lon="21.34648"/><trkpt lat="69.15687" lon="21.34586"/><trkpt lat="69.15662" lon="21.34516"/><trkpt lat="69.15642" lon="21.34497"/><trkpt lat="69.15632" lon="21.34473"/><trkpt lat="69.15612" lon="21.34442"/><trkpt lat="69.15598" lon="21.34428"/><trkpt lat="69.15589" lon="21.34416"/><trkpt lat="69.15562" lon="21.34407"/><trkpt lat="69.15544" lon="21.34387"/><trkpt lat="69.15537" lon="21.34383"/><trkpt lat="69.1551" lon="21.34342"/><trkpt lat="69.15474" lon="21.34306"/><trkpt lat="69.15474" lon="21.34306"/><trkpt lat="69.15457" lon="21.34294"/><trkpt lat="69.15439" lon="21.34294"/><trkpt lat="69.1543" lon="21.34301"/><trkpt lat="69.15422" lon="21.34296"/><trkpt lat="69.15408" lon="21.34265"/><trkpt lat="69.15381" lon="21.3424"/><trkpt lat="69.15368" lon="21.34218"/><trkpt lat="69.15348" lon="21.34224"/><trkpt lat="69.15327" lon="21.34223"/><trkpt lat="69.15319" lon="21.34212"/><trkpt lat="69.15311" lon="21.34209"/><trkpt lat="69.15297" lon="21.34178"/><trkpt lat="69.15297" lon="21.34178"/><trkpt lat="69.15289" lon="21.34169"/><trkpt lat="69.15283" lon="21.34171"/><trkpt lat="69.15267" lon="21.3417"/><trkpt lat="69.15235" lon="21.34189"/><trkpt lat="69.15227" lon="21.34187"/><trkpt lat="69.15218" lon="21.3418"/><trkpt lat="69.15178" lon="21.34121"/><trkpt lat="69.15136" lon="21.34054"/><trkpt lat="69.15117" lon="21.34012"/><trkpt lat="69.15099" lon="21.34"/><trkpt lat="69.15087" lon="21.33975"/><trkpt lat="69.15074" lon="21.33973"/><trkpt lat="69.15065" lon="21.33956"/><trkpt lat="69.15052" lon="21.33946"/><trkpt lat="69.15022" lon="21.33947"/><trkpt lat="69.15009" lon="21.33943"/><trkpt lat="69.14932" lon="21.33963"/><trkpt lat="69.14925" lon="21.33971"/><trkpt lat="69.14912" lon="21.33976"/><trkpt lat="69.14865" lon="21.33985"/><trkpt lat="69.14856" lon="21.33994"/><trkpt lat="69.14848" lon="21.34007"/><trkpt lat="69.14827" lon="21.34024"/><trkpt lat="69.14806" lon="21.34008"/><trkpt lat="69.14796" lon="21.34011"/><trkpt lat="69.14763" lon="21.34034"/><trkpt lat="69.14742" lon="21.34039"/><trkpt lat="69.14742" lon="21.34039"/><trkpt lat="69.14726" lon="21.34048"/><trkpt lat="69.14708" lon="21.34053"/><trkpt lat="69.14692" lon="21.34035"/><trkpt lat="69.14692" lon="21.34035"/><trkpt lat="69.14668" lon="21.34009"/><trkpt lat="69.14658" lon="21.34009"/><trkpt lat="69.14644" lon="21.34016"/><trkpt lat="69.14633" lon="21.34027"/><trkpt lat="69.14633" lon="21.34027"/><trkpt lat="69.14621" lon="21.34035"/><trkpt lat="69.14606" lon="21.3404"/><trkpt lat="69.14597799030663" lon="21.340440093633063"/><trkpt lat="69.14597799030663" lon="21.340440093633063"/><trkpt lat="69.14561" lon="21.34062"/><trkpt lat="69.14547000105182" lon="21.34080999906091"/><trkpt lat="69.14547000105182" lon="21.34080999906091"/><trkpt lat="69.14547" lon="21.34081"/><trkpt lat="69.14537" lon="21.34082"/><trkpt lat="69.14505" lon="21.34066"/><trkpt lat="69.14505" lon="21.34066"/><trkpt lat="69.14497" lon="21.34073"/><trkpt lat="69.14456" lon="21.34084"/><trkpt lat="69.14435" lon="21.34084"/><trkpt lat="69.14419797529465" lon="21.340745498366363"/><trkpt lat="69.14419797529465" lon="21.340745498366363"/><trkpt lat="69.14398" lon="21.34061"/><trkpt lat="69.14383" lon="21.34066"/><trkpt lat="69.14338" lon="21.3406"/><trkpt lat="69.14326" lon="21.34058"/><trkpt lat="69.14318" lon="21.34048"/><trkpt lat="69.1431" lon="21.34051"/><trkpt lat="69.14296" lon="21.34049"/><trkpt lat="69.14283967083799" lon="21.34054443462091"/><trkpt lat="69.14283967083799" lon="21.34054443462091"/><trkpt lat="69.14254" lon="21.34068"/><trkpt lat="69.14225" lon="21.34089"/><trkpt lat="69.14175" lon="21.34108"/><trkpt lat="69.14059" lon="21.34127"/><trkpt lat="69.14036" lon="21.34121"/><trkpt lat="69.14026" lon="21.34137"/><trkpt lat="69.14014" lon="21.3414"/><trkpt lat="69.13999" lon="21.34124"/><trkpt lat="69.13937" lon="21.34131"/><trkpt lat="69.1391" lon="21.34123"/><trkpt lat="69.1391" lon="21.34123"/><trkpt lat="69.13886" lon="21.34117"/><trkpt lat="69.13877" lon="21.34108"/><trkpt lat="69.13862" lon="21.34104"/><trkpt lat="69.13857" lon="21.34097"/><trkpt lat="69.13851" lon="21.34092"/><trkpt lat="69.13843" lon="21.34099"/><trkpt lat="69.13804" lon="21.3409"/><trkpt lat="69.13787" lon="21.34082"/><trkpt lat="69.13787" lon="21.34082"/><trkpt lat="69.13718" lon="21.34063"/><trkpt lat="69.13689" lon="21.34065"/><trkpt lat="69.13689" lon="21.34065"/><trkpt lat="69.13669" lon="21.34058"/><trkpt lat="69.13631" lon="21.34026"/><trkpt lat="69.13573" lon="21.33953"/><trkpt lat="69.13525" lon="21.33913"/><trkpt lat="69.13508" lon="21.33903"/><trkpt lat="69.13486" lon="21.33898"/><trkpt lat="69.13466" lon="21.33874"/><trkpt lat="69.13445" lon="21.33842"/><trkpt lat="69.13427" lon="21.33821"/><trkpt lat="69.13409" lon="21.33807"/><trkpt lat="69.13387" lon="21.33794"/><trkpt lat="69.13304" lon="21.3369"/><trkpt lat="69.13231" lon="21.33545"/><trkpt lat="69.13231" lon="21.33545"/><trkpt lat="69.13222" lon="21.33527"/><trkpt lat="69.13177" lon="21.33415"/><trkpt lat="69.13154" lon="21.33337"/><trkpt lat="69.13133" lon="21.33292"/><trkpt lat="69.13127" lon="21.33272"/><trkpt lat="69.13127" lon="21.33272"/><trkpt lat="69.13122" lon="21.33255"/><trkpt lat="69.13122" lon="21.33255"/><trkpt lat="69.13096" lon="21.33117"/><trkpt lat="69.13077" lon="21.33076"/><trkpt lat="69.13067" lon="21.33042"/><trkpt lat="69.13032" lon="21.32993"/><trkpt lat="69.13014" lon="21.32947"/><trkpt lat="69.12995" lon="21.32853"/><trkpt lat="69.12991" lon="21.3278"/><trkpt lat="69.12992" lon="21.32687"/><trkpt lat="69.12987" lon="21.32647"/><trkpt lat="69.12983" lon="21.32621"/><trkpt lat="69.12981" lon="21.32589"/><trkpt lat="69.12978" lon="21.32573"/><trkpt lat="69.12956" lon="21.32488"/><trkpt lat="69.1292" lon="21.32252"/><trkpt lat="69.12906" lon="21.32119"/><trkpt lat="69.12896" lon="21.32087"/><trkpt lat="69.12878" lon="21.31998"/><trkpt lat="69.12878" lon="21.31998"/><trkpt lat="69.1288" lon="21.31936"/><trkpt lat="69.1287" lon="21.31866"/><trkpt lat="69.12857" lon="21.31824"/><trkpt lat="69.12844" lon="21.31752"/><trkpt lat="69.12834" lon="21.31681"/><trkpt lat="69.12823" lon="21.31652"/><trkpt lat="69.12814" lon="21.31607"/><trkpt lat="69.1278" lon="21.31459"/><trkpt lat="69.12752" lon="21.31375"/><trkpt lat="69.12745" lon="21.31348"/><trkpt lat="69.12745" lon="21.31348"/><trkpt lat="69.12743" lon="21.31323"/><trkpt lat="69.12723" lon="21.3124"/><trkpt lat="69.12691" lon="21.31082"/><trkpt lat="69.1268" lon="21.31062"/><trkpt lat="69.12644" lon="21.30934"/><trkpt lat="69.12596" lon="21.30815"/><trkpt lat="69.1258" lon="21.30781"/><trkpt lat="69.12561" lon="21.30749"/><trkpt lat="69.12412" lon="21.30535"/><trkpt lat="69.12344" lon="21.30398"/><trkpt lat="69.12344" lon="21.30398"/><trkpt lat="69.12327" lon="21.30362"/><trkpt lat="69.12315" lon="21.30322"/><trkpt lat="69.12298" lon="21.30281"/><trkpt lat="69.12293" lon="21.30254"/><trkpt lat="69.1222" lon="21.30019"/><trkpt lat="69.12206" lon="21.29927"/><trkpt lat="69.12196" lon="21.29885"/><trkpt lat="69.12189" lon="21.29831"/><trkpt lat="69.12179" lon="21.29779"/><trkpt lat="69.12172" lon="21.297"/><trkpt lat="69.12145" lon="21.29458"/><trkpt lat="69.12146" lon="21.29435"/><trkpt lat="69.12131" lon="21.29291"/><trkpt lat="69.12125" lon="21.29249"/><trkpt lat="69.12124" lon="21.29216"/><trkpt lat="69.12116" lon="21.2915"/><trkpt lat="69.12116" lon="21.2915"/><trkpt lat="69.12113" lon="21.29124"/><trkpt lat="69.12106" lon="21.29095"/><trkpt lat="69.12083" lon="21.28869"/><trkpt lat="69.11997" lon="21.28367"/><trkpt lat="69.1198" lon="21.28276"/><trkpt lat="69.11959" lon="21.28143"/><trkpt lat="69.1195" lon="21.28111"/><trkpt lat="69.1195" lon="21.28111"/><trkpt lat="69.11931" lon="21.28042"/><trkpt lat="69.11922" lon="21.27999"/><trkpt lat="69.11907" lon="21.27949"/><trkpt lat="69.11893" lon="21.27886"/><trkpt lat="69.1188" lon="21.27841"/><trkpt lat="69.11849" lon="21.27781"/><trkpt lat="69.11836" lon="21.27744"/><trkpt lat="69.11814" lon="21.27696"/><trkpt lat="69.11801" lon="21.27609"/><trkpt lat="69.11801" lon="21.27609"/><trkpt lat="69.11793" lon="21.27445"/><trkpt lat="69.11782" lon="21.27287"/><trkpt lat="69.11774" lon="21.27264"/><trkpt lat="69.11763" lon="21.27252"/><trkpt lat="69.11742" lon="21.27262"/><trkpt lat="69.11725" lon="21.27241"/><trkpt lat="69.11717" lon="21.27179"/><trkpt lat="69.1172" lon="21.27108"/><trkpt lat="69.11718" lon="21.27067"/><trkpt lat="69.11702" lon="21.27"/><trkpt lat="69.11693" lon="21.26953"/><trkpt lat="69.11693" lon="21.26953"/><trkpt lat="69.11681" lon="21.26908"/><trkpt lat="69.11677" lon="21.26877"/><trkpt lat="69.1167" lon="21.2686"/><trkpt lat="69.11649" lon="21.26756"/><trkpt lat="69.11638" lon="21.26724"/><trkpt lat="69.11634" lon="21.26681"/><trkpt lat="69.11633" lon="21.26618"/><trkpt lat="69.11629" lon="21.26589"/><trkpt lat="69.11612" lon="21.26511"/><trkpt lat="69.11601" lon="21.2644"/><trkpt lat="69.11581" lon="21.26352"/><trkpt lat="69.11567" lon="21.26249"/><trkpt lat="69.11561" lon="21.26224"/><trkpt lat="69.11561" lon="21.26224"/><trkpt lat="69.11523" lon="21.26067"/><trkpt lat="69.11519" lon="21.26036"/><trkpt lat="69.11512" lon="21.2602"/><trkpt lat="69.11508" lon="21.25995"/><trkpt lat="69.11482" lon="21.25877"/><trkpt lat="69.11463" lon="21.25808"/><trkpt lat="69.1145" lon="21.25732"/><trkpt lat="69.11445" lon="21.2572"/><trkpt lat="69.11434" lon="21.25655"/><trkpt lat="69.11415" lon="21.25596"/><trkpt lat="69.11355" lon="21.25294"/><trkpt lat="69.11341" lon="21.25231"/><trkpt lat="69.1132" lon="21.25179"/><trkpt lat="69.11313" lon="21.2515"/><trkpt lat="69.11295" lon="21.25119"/><trkpt lat="69.11284" lon="21.25085"/><trkpt lat="69.11272" lon="21.25067"/><trkpt lat="69.11261" lon="21.25043"/><trkpt lat="69.1124" lon="21.25018"/><trkpt lat="69.11226" lon="21.24966"/><trkpt lat="69.11219" lon="21.24955"/><trkpt lat="69.11197" lon="21.24877"/><trkpt lat="69.11181" lon="21.24832"/><trkpt lat="69.11176" lon="21.24809"/><trkpt lat="69.11159" lon="21.24756"/><trkpt lat="69.11159" lon="21.24756"/><trkpt lat="69.11138" lon="21.24679"/><trkpt lat="69.11113" lon="21.24601"/><trkpt lat="69.11093" lon="21.24555"/><trkpt lat="69.11086" lon="21.24527"/><trkpt lat="69.11076" lon="21.2451"/><trkpt lat="69.11053" lon="21.24485"/><trkpt lat="69.11031" lon="21.24446"/><trkpt lat="69.10976" lon="21.24358"/><trkpt lat="69.10961" lon="21.24348"/><trkpt lat="69.10915" lon="21.24306"/><trkpt lat="69.10881" lon="21.24265"/><trkpt lat="69.10843" lon="21.24199"/><trkpt lat="69.10797" lon="21.24113"/><trkpt lat="69.10783" lon="21.24082"/><trkpt lat="69.10778" lon="21.24076"/><trkpt lat="69.10778" lon="21.24076"/><trkpt lat="69.10748" lon="21.2404"/><trkpt lat="69.10738" lon="21.24023"/><trkpt lat="69.10738" lon="21.24023"/><trkpt lat="69.10716" lon="21.2399"/><trkpt lat="69.10688" lon="21.23929"/><trkpt lat="69.10677" lon="21.23914"/><trkpt lat="69.10671" lon="21.23901"/><trkpt lat="69.1066" lon="21.23893"/><trkpt lat="69.1066" lon="21.23893"/><trkpt lat="69.1066" lon="21.23893"/><trkpt lat="69.10637" lon="21.23806"/><trkpt lat="69.10613" lon="21.23698"/><trkpt lat="69.10564" lon="21.23535"/><trkpt lat="69.10484" lon="21.23208"/><trkpt lat="69.10472" lon="21.23178"/><trkpt lat="69.10465" lon="21.23146"/><trkpt lat="69.10454" lon="21.23081"/><trkpt lat="69.10453184585596" lon="21.230773483615828"/><trkpt lat="69.10453184594017" lon="21.230773483615824"/><trkpt lat="69.10408" lon="21.22875"/><trkpt lat="69.10378" lon="21.22794"/><trkpt lat="69.10316" lon="21.22603"/><trkpt lat="69.10294" lon="21.22559"/><trkpt lat="69.10294" lon="21.22559"/><trkpt lat="69.10275" lon="21.22518"/><trkpt lat="69.10256" lon="21.22458"/><trkpt lat="69.10248" lon="21.22406"/><trkpt lat="69.10241" lon="21.22369"/><trkpt lat="69.10235" lon="21.22329"/><trkpt lat="69.10228" lon="21.22285"/><trkpt lat="69.10207" lon="21.22197"/><trkpt lat="69.10195" lon="21.22155"/><trkpt lat="69.10195" lon="21.22155"/><trkpt lat="69.10195" lon="21.22155"/><trkpt lat="69.10191" lon="21.22131"/><trkpt lat="69.10186" lon="21.22002"/><trkpt lat="69.10186" lon="21.21967"/><trkpt lat="69.10183" lon="21.21949"/><trkpt lat="69.10181" lon="21.2191"/><trkpt lat="69.10181" lon="21.2191"/><trkpt lat="69.10180143468062" lon="21.219002926380305"/><trkpt lat="69.10180143468062" lon="21.219002926380305"/><trkpt lat="69.10179948325188" lon="21.218980810187922"/><trkpt lat="69.10179948325188" lon="21.218980810187922"/><trkpt lat="69.10175" lon="21.21842"/><trkpt lat="69.10175" lon="21.21842"/><trkpt lat="69.10177" lon="21.21818"/><trkpt lat="69.1018" lon="21.21798"/><trkpt lat="69.10209" lon="21.21687"/><trkpt lat="69.10209203663409" lon="21.21677020492943"/><trkpt lat="69.10209203663409" lon="21.21677020492943"/><trkpt lat="69.1021" lon="21.21638"/><trkpt lat="69.10229" lon="21.21561"/><trkpt lat="69.10236" lon="21.21475"/><trkpt lat="69.1025" lon="21.21412"/><trkpt lat="69.10263863254603" lon="21.21313848157414"/><trkpt lat="69.10264" lon="21.21314"/><trkpt lat="69.10271" lon="21.21286"/><trkpt lat="69.10281" lon="21.21263"/><trkpt lat="69.10298" lon="21.21214"/><trkpt lat="69.1031145771834" lon="21.21185897128321"/><trkpt lat="69.10312" lon="21.21187"/><trkpt lat="69.10312301517362" lon="21.21184135078095"/><trkpt lat="69.10312301517362" lon="21.21184135078095"/><trkpt lat="69.10332" lon="21.21143"/><trkpt lat="69.10353" lon="21.21037"/><trkpt lat="69.10372" lon="21.20963"/><trkpt lat="69.10378" lon="21.20932"/><trkpt lat="69.10381363270595" lon="21.20869443166942"/><trkpt lat="69.10381363270595" lon="21.20869443166942"/><trkpt lat="69.10381451770428" lon="21.20867797070044"/><trkpt lat="69.10380737190991" lon="21.208655768540524"/><trkpt lat="69.10381" lon="21.20864"/><trkpt lat="69.10381737102743" lon="21.20862489888993"/><trkpt lat="69.10382237015035" lon="21.20853191624875"/><trkpt lat="69.10382346741099" lon="21.208511507430202"/><trkpt lat="69.10388" lon="21.20746"/><trkpt lat="69.10393" lon="21.20697"/><trkpt lat="69.10401" lon="21.20648"/><trkpt lat="69.10449" lon="21.20457"/><trkpt lat="69.10461" lon="21.20414"/><trkpt lat="69.10463257629286" lon="21.20404028803985"/><trkpt lat="69.10463761229317" lon="21.20401804570509"/><trkpt lat="69.10464139783993" lon="21.204001326206907"/><trkpt lat="69.10464575667397" lon="21.2039820746899"/><trkpt lat="69.10473" lon="21.20361"/><trkpt lat="69.10473" lon="21.20361"/><trkpt lat="69.1052" lon="21.20109"/><trkpt lat="69.10554" lon="21.20003"/><trkpt lat="69.10584" lon="21.19918"/><trkpt lat="69.1061" lon="21.19764"/><trkpt lat="69.10616" lon="21.19722"/><trkpt lat="69.10621" lon="21.19657"/><trkpt lat="69.10624" lon="21.19637"/><trkpt lat="69.10636" lon="21.19589"/><trkpt lat="69.10651" lon="21.19548"/><trkpt lat="69.10651" lon="21.19518"/><trkpt lat="69.10663" lon="21.19495"/><trkpt lat="69.10691" lon="21.19314"/><trkpt lat="69.10698" lon="21.19277"/><trkpt lat="69.10711" lon="21.1918"/><trkpt lat="69.10718" lon="21.19144"/><trkpt lat="69.10727" lon="21.19049"/><trkpt lat="69.10732" lon="21.18986"/><trkpt lat="69.10748" lon="21.18848"/><trkpt lat="69.10747" lon="21.18813"/><trkpt lat="69.10748" lon="21.18761"/><trkpt lat="69.10756" lon="21.18615"/><trkpt lat="69.10759" lon="21.18547"/><trkpt lat="69.10757" lon="21.18527"/><trkpt lat="69.10761" lon="21.18494"/><trkpt lat="69.10761" lon="21.18494"/><trkpt lat="69.10759" lon="21.18425"/><trkpt lat="69.10754" lon="21.18296"/><trkpt lat="69.10767" lon="21.18164"/><trkpt lat="69.10767" lon="21.18164"/><trkpt lat="69.10769" lon="21.18146"/><trkpt lat="69.10769" lon="21.18087"/><trkpt lat="69.10773" lon="21.17977"/><trkpt lat="69.10774" lon="21.17909"/><trkpt lat="69.10773" lon="21.17879"/><trkpt lat="69.10775" lon="21.17829"/><trkpt lat="69.10778" lon="21.1768"/><trkpt lat="69.10778" lon="21.1768"/><trkpt lat="69.10785" lon="21.17615"/><trkpt lat="69.10782" lon="21.17565"/><trkpt lat="69.10778" lon="21.17543"/><trkpt lat="69.10778" lon="21.17543"/><trkpt lat="69.10773" lon="21.17518"/><trkpt lat="69.10761" lon="21.17444"/><trkpt lat="69.10751" lon="21.17426"/><trkpt lat="69.10732" lon="21.17372"/><trkpt lat="69.10708" lon="21.17318"/><trkpt lat="69.10699381584266" lon="21.172619802977252"/><trkpt lat="69.10697683858615" lon="21.172607125109568"/><trkpt lat="69.10697602199716" lon="21.172581198409354"/><trkpt lat="69.10697602199716" lon="21.172581198409354"/><trkpt lat="69.10697558893187" lon="21.172567448586705"/><trkpt lat="69.10698214779427" lon="21.172543960662765"/><trkpt lat="69.10698" lon="21.17253"/><trkpt lat="69.10697403446211" lon="21.172518094171828"/><trkpt lat="69.10697" lon="21.17239"/><trkpt lat="69.10691" lon="21.1721"/><trkpt lat="69.10688" lon="21.17182"/><trkpt lat="69.10688" lon="21.17182"/><trkpt lat="69.10687587035356" lon="21.171743601816253"/><trkpt lat="69.10687587035356" lon="21.171743601816253"/><trkpt lat="69.10687445542702" lon="21.17171742576963"/><trkpt lat="69.10687445542702" lon="21.17171742576963"/><trkpt lat="69.10674" lon="21.17117"/><trkpt lat="69.10644" lon="21.17065"/><trkpt lat="69.10631" lon="21.17034"/><trkpt lat="69.1061" lon="21.16991"/><trkpt lat="69.10586" lon="21.16951"/><trkpt lat="69.10567" lon="21.16895"/><trkpt lat="69.10551" lon="21.16819"/><trkpt lat="69.10544" lon="21.16797"/><trkpt lat="69.10528" lon="21.16765"/><trkpt lat="69.10486" lon="21.16704"/><trkpt lat="69.10475" lon="21.16677"/><trkpt lat="69.10458" lon="21.16671"/><trkpt lat="69.10435" lon="21.16654"/><trkpt lat="69.10415" lon="21.16617"/><trkpt lat="69.10412" lon="21.16585"/><trkpt lat="69.10393" lon="21.1654"/><trkpt lat="69.10383" lon="21.16509"/><trkpt lat="69.10333" lon="21.16457"/><trkpt lat="69.10317" lon="21.16435"/><trkpt lat="69.10296" lon="21.16394"/><trkpt lat="69.10283" lon="21.1635"/><trkpt lat="69.1027" lon="21.16293"/><trkpt lat="69.1025" lon="21.16193"/><trkpt lat="69.10246" lon="21.16158"/><trkpt lat="69.1025" lon="21.16021"/><trkpt lat="69.10244" lon="21.15967"/><trkpt lat="69.10244" lon="21.15967"/><trkpt lat="69.10243" lon="21.15954"/><trkpt lat="69.1023" lon="21.1589"/><trkpt lat="69.10218" lon="21.15849"/><trkpt lat="69.10181" lon="21.15765"/><trkpt lat="69.10138" lon="21.15658"/><trkpt lat="69.10123" lon="21.1563"/><trkpt lat="69.10119" lon="21.15604"/><trkpt lat="69.10109" lon="21.15561"/><trkpt lat="69.10087" lon="21.15522"/><trkpt lat="69.10067" lon="21.15497"/><trkpt lat="69.10029" lon="21.15452"/><trkpt lat="69.10009" lon="21.15438"/><trkpt lat="69.09994" lon="21.15406"/><trkpt lat="69.09994" lon="21.15406"/><trkpt lat="69.09983" lon="21.1538"/><trkpt lat="69.09967" lon="21.15351"/><trkpt lat="69.09944" lon="21.1532"/><trkpt lat="69.09928" lon="21.15292"/><trkpt lat="69.09788" lon="21.15046"/><trkpt lat="69.09771" lon="21.15034"/><trkpt lat="69.09735" lon="21.15021"/><trkpt lat="69.09695" lon="21.14995"/><trkpt lat="69.09677" lon="21.15003"/><trkpt lat="69.09668" lon="21.14996"/><trkpt lat="69.09658" lon="21.14978"/><trkpt lat="69.0965" lon="21.14972"/><trkpt lat="69.09624" lon="21.14975"/><trkpt lat="69.09607" lon="21.14987"/><trkpt lat="69.09588" lon="21.14996"/><trkpt lat="69.09565" lon="21.15"/><trkpt lat="69.09523" lon="21.15"/><trkpt lat="69.09497" lon="21.14983"/><trkpt lat="69.09472" lon="21.14959"/><trkpt lat="69.09447" lon="21.14946"/><trkpt lat="69.09429" lon="21.14942"/><trkpt lat="69.09413" lon="21.14928"/><trkpt lat="69.09392" lon="21.14889"/><trkpt lat="69.09341" lon="21.14871"/><trkpt lat="69.09329" lon="21.1484"/><trkpt lat="69.09319" lon="21.14796"/><trkpt lat="69.09312" lon="21.14778"/><trkpt lat="69.09291" lon="21.14679"/><trkpt lat="69.09283" lon="21.1462"/><trkpt lat="69.09271" lon="21.14584"/><trkpt lat="69.09231" lon="21.14553"/><trkpt lat="69.09223" lon="21.14539"/><trkpt lat="69.09214" lon="21.14492"/><trkpt lat="69.0921" lon="21.14438"/><trkpt lat="69.0921" lon="21.14438"/><trkpt lat="69.0921" lon="21.14429"/><trkpt lat="69.0921" lon="21.14429"/><trkpt lat="69.09215" lon="21.14372"/><trkpt lat="69.09222" lon="21.14302"/><trkpt lat="69.09223" lon="21.14269"/><trkpt lat="69.09213" lon="21.14223"/><trkpt lat="69.0921" lon="21.14203"/><trkpt lat="69.0921" lon="21.14203"/><trkpt lat="69.09193" lon="21.14106"/><trkpt lat="69.09177" lon="21.14049"/><trkpt lat="69.09163" lon="21.14003"/><trkpt lat="69.09133" lon="21.13921"/><trkpt lat="69.09094" lon="21.1382"/><trkpt lat="69.09082" lon="21.1377"/><trkpt lat="69.09082" lon="21.1377"/><trkpt lat="69.09076" lon="21.13747"/><trkpt lat="69.09063" lon="21.13673"/><trkpt lat="69.09046" lon="21.13602"/><trkpt lat="69.09026" lon="21.13549"/><trkpt lat="69.09002" lon="21.13506"/><trkpt lat="69.08993" lon="21.13459"/><trkpt lat="69.08984" lon="21.13374"/><trkpt lat="69.08976" lon="21.13313"/><trkpt lat="69.08978" lon="21.13264"/><trkpt lat="69.09003" lon="21.13075"/><trkpt lat="69.09006" lon="21.13018"/><trkpt lat="69.09006" lon="21.12924"/><trkpt lat="69.09008" lon="21.12891"/><trkpt lat="69.09016" lon="21.12843"/><trkpt lat="69.09021" lon="21.12807"/><trkpt lat="69.09023" lon="21.12775"/><trkpt lat="69.0903" lon="21.12759"/><trkpt lat="69.09032" lon="21.12743"/><trkpt lat="69.09028" lon="21.12663"/><trkpt lat="69.09028" lon="21.12605"/><trkpt lat="69.09023" lon="21.12571"/><trkpt lat="69.09022" lon="21.12547"/><trkpt lat="69.09026" lon="21.12505"/><trkpt lat="69.09028" lon="21.12446"/><trkpt lat="69.09026" lon="21.12423"/><trkpt lat="69.09015" lon="21.12372"/><trkpt lat="69.09009" lon="21.12328"/><trkpt lat="69.09008" lon="21.12252"/><trkpt lat="69.09003" lon="21.12204"/><trkpt lat="69.08995" lon="21.12116"/><trkpt lat="69.08983" lon="21.12019"/><trkpt lat="69.08971" lon="21.11956"/><trkpt lat="69.08965" lon="21.11936"/><trkpt lat="69.08959" lon="21.11905"/><trkpt lat="69.08955" lon="21.11873"/><trkpt lat="69.08949" lon="21.11845"/><trkpt lat="69.08921" lon="21.11782"/><trkpt lat="69.0892" lon="21.11753"/><trkpt lat="69.08919750329721" lon="21.117511274729022"/><trkpt lat="69.08919750329933" lon="21.117511274729022"/><trkpt lat="69.08916" lon="21.11723"/><trkpt lat="69.08911" lon="21.11604"/><trkpt lat="69.08906" lon="21.11572"/><trkpt lat="69.08906" lon="21.11572"/><trkpt lat="69.08901" lon="21.11542"/><trkpt lat="69.08901" lon="21.11542"/><trkpt lat="69.08883" lon="21.11524"/><trkpt lat="69.08871" lon="21.1152"/><trkpt lat="69.0879" lon="21.11454"/><trkpt lat="69.08766" lon="21.1144"/><trkpt lat="69.08747" lon="21.11422"/><trkpt lat="69.08686" lon="21.11386"/><trkpt lat="69.08658" lon="21.11355"/><trkpt lat="69.0863" lon="21.11316"/><trkpt lat="69.08616" lon="21.11288"/><trkpt lat="69.0857" lon="21.11241"/><trkpt lat="69.08537" lon="21.1119"/><trkpt lat="69.08481" lon="21.11141"/><trkpt lat="69.08481" lon="21.11141"/><trkpt lat="69.08467" lon="21.11132"/><trkpt lat="69.08449" lon="21.11113"/><trkpt lat="69.08434" lon="21.11088"/><trkpt lat="69.08426" lon="21.11063"/><trkpt lat="69.08426" lon="21.11063"/><trkpt lat="69.08405" lon="21.11003"/><trkpt lat="69.08385" lon="21.10952"/><trkpt lat="69.08369" lon="21.10888"/><trkpt lat="69.08369" lon="21.10888"/><trkpt lat="69.08359" lon="21.10858"/><trkpt lat="69.08353" lon="21.1081"/><trkpt lat="69.08321" lon="21.10682"/><trkpt lat="69.08318" lon="21.10647"/><trkpt lat="69.08306" lon="21.10623"/><trkpt lat="69.08287" lon="21.10574"/><trkpt lat="69.08254" lon="21.10537"/><trkpt lat="69.08228" lon="21.1054"/><trkpt lat="69.08205" lon="21.10549"/><trkpt lat="69.08189" lon="21.10549"/><trkpt lat="69.08189" lon="21.10549"/><trkpt lat="69.08177" lon="21.10516"/><trkpt lat="69.08172" lon="21.10495"/><trkpt lat="69.08159" lon="21.10459"/><trkpt lat="69.08139" lon="21.10386"/><trkpt lat="69.08121" lon="21.10347"/><trkpt lat="69.08097" lon="21.10313"/><trkpt lat="69.08092" lon="21.10293"/><trkpt lat="69.08087" lon="21.10286"/><trkpt lat="69.08038" lon="21.10238"/><trkpt lat="69.08029" lon="21.10234"/><trkpt lat="69.0802" lon="21.10219"/><trkpt lat="69.08011" lon="21.10212"/><trkpt lat="69.07988" lon="21.10183"/><trkpt lat="69.07985" lon="21.10185"/><trkpt lat="69.07964" lon="21.10168"/><trkpt lat="69.07944" lon="21.10142"/><trkpt lat="69.07925" lon="21.10132"/><trkpt lat="69.07917" lon="21.10119"/><trkpt lat="69.07893" lon="21.10118"/><trkpt lat="69.07878" lon="21.10107"/><trkpt lat="69.07881" lon="21.10112"/><trkpt lat="69.07868" lon="21.10089"/><trkpt lat="69.07853" lon="21.10086"/><trkpt lat="69.07839" lon="21.10095"/><trkpt lat="69.07822" lon="21.10082"/><trkpt lat="69.07799" lon="21.10043"/><trkpt lat="69.07781" lon="21.10024"/><trkpt lat="69.07772" lon="21.10025"/><trkpt lat="69.07764" lon="21.10005"/><trkpt lat="69.07745" lon="21.09985"/><trkpt lat="69.07745" lon="21.09985"/><trkpt lat="69.07745" lon="21.09985"/><trkpt lat="69.07736" lon="21.09956"/><trkpt lat="69.07696" lon="21.09907"/><trkpt lat="69.07678" lon="21.09862"/><trkpt lat="69.07656" lon="21.09828"/><trkpt lat="69.07641" lon="21.09801"/><trkpt lat="69.07641" lon="21.09801"/><trkpt lat="69.0762" lon="21.09758"/><trkpt lat="69.07609" lon="21.09744"/><trkpt lat="69.07595" lon="21.097"/><trkpt lat="69.07576" lon="21.09676"/><trkpt lat="69.0756" lon="21.09624"/><trkpt lat="69.07534" lon="21.09605"/><trkpt lat="69.07524" lon="21.09614"/><trkpt lat="69.07493" lon="21.09593"/><trkpt lat="69.07482" lon="21.09596"/><trkpt lat="69.07443" lon="21.09575"/><trkpt lat="69.07418" lon="21.09583"/><trkpt lat="69.07399" lon="21.09573"/><trkpt lat="69.0738" lon="21.09574"/><trkpt lat="69.07351" lon="21.09535"/><trkpt lat="69.07345" lon="21.09532"/><trkpt lat="69.07324" lon="21.09504"/><trkpt lat="69.07307" lon="21.09494"/><trkpt lat="69.07267" lon="21.09433"/><trkpt lat="69.07267" lon="21.09433"/><trkpt lat="69.07254" lon="21.09403"/><trkpt lat="69.07237" lon="21.09375"/><trkpt lat="69.07237" lon="21.09375"/><trkpt lat="69.07225" lon="21.09349"/><trkpt lat="69.07214" lon="21.09316"/><trkpt lat="69.07209" lon="21.09295"/><trkpt lat="69.07199" lon="21.09281"/><trkpt lat="69.07187" lon="21.09254"/><trkpt lat="69.07187" lon="21.09239"/><trkpt lat="69.07187" lon="21.09239"/><trkpt lat="69.07172" lon="21.09175"/><trkpt lat="69.07158" lon="21.09135"/><trkpt lat="69.07145" lon="21.09114"/><trkpt lat="69.07125" lon="21.09106"/><trkpt lat="69.07088" lon="21.09096"/><trkpt lat="69.07084" lon="21.09089"/><trkpt lat="69.07079" lon="21.09068"/><trkpt lat="69.0707" lon="21.09067"/><trkpt lat="69.07056" lon="21.09092"/><trkpt lat="69.07027" lon="21.09105"/><trkpt lat="69.07002" lon="21.09134"/><trkpt lat="69.06955" lon="21.09144"/><trkpt lat="69.06939" lon="21.09173"/><trkpt lat="69.06912" lon="21.09181"/><trkpt lat="69.06907" lon="21.09191"/><trkpt lat="69.06891" lon="21.09285"/><trkpt lat="69.06875" lon="21.09286"/><trkpt lat="69.06876" lon="21.09293"/><trkpt lat="69.06871" lon="21.09305"/><trkpt lat="69.06856" lon="21.09309"/><trkpt lat="69.06856" lon="21.09309"/><trkpt lat="69.06836" lon="21.09314"/><trkpt lat="69.06816" lon="21.09326"/><trkpt lat="69.068" lon="21.09309"/><trkpt lat="69.0678" lon="21.09299"/><trkpt lat="69.06773" lon="21.09288"/><trkpt lat="69.0675" lon="21.09305"/><trkpt lat="69.06736" lon="21.09325"/><trkpt lat="69.06718" lon="21.0933"/><trkpt lat="69.06702" lon="21.09347"/><trkpt lat="69.06677" lon="21.09361"/><trkpt lat="69.06661" lon="21.09375"/><trkpt lat="69.06661" lon="21.09375"/><trkpt lat="69.06652" lon="21.09382"/><trkpt lat="69.06632" lon="21.09388"/><trkpt lat="69.06593" lon="21.09381"/><trkpt lat="69.0659" lon="21.09375"/><trkpt lat="69.0659" lon="21.09375"/><trkpt lat="69.06585" lon="21.09366"/><trkpt lat="69.06575" lon="21.09356"/><trkpt lat="69.06561" lon="21.0932"/><trkpt lat="69.06537" lon="21.09291"/><trkpt lat="69.06534139667782" lon="21.092856368608658"/><trkpt lat="69.06534139667782" lon="21.092856368608658"/><trkpt lat="69.06529" lon="21.09276"/><trkpt lat="69.06505" lon="21.09253"/><trkpt lat="69.06505" lon="21.09253"/><trkpt lat="69.06505" lon="21.09253"/><trkpt lat="69.06497" lon="21.09242"/><trkpt lat="69.06475" lon="21.09232"/><trkpt lat="69.06465" lon="21.09212"/><trkpt lat="69.06455" lon="21.09206"/><trkpt lat="69.06449" lon="21.09198"/><trkpt lat="69.06444" lon="21.09182"/><trkpt lat="69.06439" lon="21.09181"/><trkpt lat="69.06424" lon="21.09166"/><trkpt lat="69.06407" lon="21.09133"/><trkpt lat="69.06381" lon="21.09147"/><trkpt lat="69.06361" lon="21.09132"/><trkpt lat="69.06351" lon="21.09137"/><trkpt lat="69.06325" lon="21.09139"/><trkpt lat="69.06312" lon="21.09144"/><trkpt lat="69.063" lon="21.09144"/><trkpt lat="69.063" lon="21.09144"/><trkpt lat="69.06283" lon="21.09127"/><trkpt lat="69.06283" lon="21.09127"/><trkpt lat="69.06272" lon="21.09137"/><trkpt lat="69.06246" lon="21.09175"/><trkpt lat="69.06246" lon="21.09175"/><trkpt lat="69.062400893219" lon="21.091800662955123"/></trkseg></trk></gpx>