<?xml version="1.0"?>
<gpx xmlns="http://www.topografix.com/GPX/1/1" xmlns:gpxx="http://www.garmin.com/xmlschemas/GpxExtensions/v3" creator="CALTOPO" version="1.1"><metadata><name><![CDATA[pihtsusjarvi-halti-haltintupa]]></name></metadata><trk><name>pihtsusjarvi-halti-haltintupa</name><trkseg><trkpt lat="69.23116851227971" lon="21.289154291152954"/><trkpt lat="69.23190060171062" lon="21.288766075881746"/><trkpt lat="69.23209" lon="21.28873"/><trkpt lat="69.23228" lon="21.2886"/><trkpt lat="69.23252" lon="21.28854"/><trkpt lat="69.23279" lon="21.28842"/><trkpt lat="69.23279" lon="21.28842"/><trkpt lat="69.23312" lon="21.2883"/><trkpt lat="69.23333" lon="21.28818"/><trkpt lat="69.23364" lon="21.2882"/><trkpt lat="69.23387" lon="21.28813"/><trkpt lat="69.23397" lon="21.28813"/><trkpt lat="69.23412" lon="21.28819"/><trkpt lat="69.23444" lon="21.28819"/><trkpt lat="69.23459" lon="21.28806"/><trkpt lat="69.23477" lon="21.2881"/><trkpt lat="69.23493" lon="21.28804"/><trkpt lat="69.23534" lon="21.28815"/><trkpt lat="69.23570061177325" lon="21.287959488119796"/><trkpt lat="69.23570061177325" lon="21.287959488119796"/><trkpt lat="69.23587" lon="21.28787"/><trkpt lat="69.2363726053133" lon="21.287158766068806"/><trkpt lat="69.2363726053133" lon="21.287158766068806"/><trkpt lat="69.2364" lon="21.28712"/><trkpt lat="69.23681" lon="21.28665"/><trkpt lat="69.2373" lon="21.28575"/><trkpt lat="69.23752" lon="21.28543"/><trkpt lat="69.23781" lon="21.28506"/><trkpt lat="69.23826" lon="21.28468"/><trkpt lat="69.23883" lon="21.28465"/><trkpt lat="69.2389" lon="21.28452"/><trkpt lat="69.23908" lon="21.28439"/><trkpt lat="69.23965" lon="21.2845"/><trkpt lat="69.24032" lon="21.28416"/><trkpt lat="69.24058" lon="21.28388"/><trkpt lat="69.24058" lon="21.28388"/><trkpt lat="69.24064" lon="21.2838"/><trkpt lat="69.24239" lon="21.28347"/><trkpt lat="69.24306" lon="21.28326"/><trkpt lat="69.24342" lon="21.2831"/><trkpt lat="69.24377" lon="21.28304"/><trkpt lat="69.24396" lon="21.28289"/><trkpt lat="69.24421" lon="21.28293"/><trkpt lat="69.24479" lon="21.28284"/><trkpt lat="69.24488" lon="21.2829"/><trkpt lat="69.24536" lon="21.28272"/><trkpt lat="69.24574" lon="21.28296"/><trkpt lat="69.24589" lon="21.28312"/><trkpt lat="69.246" lon="21.28305"/><trkpt lat="69.24616" lon="21.28317"/><trkpt lat="69.24632" lon="21.28314"/><trkpt lat="69.24691" lon="21.28339"/><trkpt lat="69.24743" lon="21.28349"/><trkpt lat="69.24782" lon="21.28347"/><trkpt lat="69.24837" lon="21.28339"/><trkpt lat="69.24837" lon="21.28339"/><trkpt lat="69.24934" lon="21.28329"/><trkpt lat="69.24976" lon="21.28311"/><trkpt lat="69.24997" lon="21.28316"/><trkpt lat="69.25059" lon="21.28305"/><trkpt lat="69.25122" lon="21.28277"/><trkpt lat="69.25134" lon="21.28282"/><trkpt lat="69.25173" lon="21.28267"/><trkpt lat="69.25194" lon="21.28253"/><trkpt lat="69.25215" lon="21.28215"/><trkpt lat="69.25256" lon="21.28193"/><trkpt lat="69.25413" lon="21.28146"/><trkpt lat="69.25459" lon="21.2811"/><trkpt lat="69.25505" lon="21.28105"/><trkpt lat="69.25521" lon="21.28091"/><trkpt lat="69.25536" lon="21.28088"/><trkpt lat="69.25536" lon="21.28088"/><trkpt lat="69.25536" lon="21.28088"/><trkpt lat="69.25548" lon="21.2809"/><trkpt lat="69.25608" lon="21.28037"/><trkpt lat="69.25615" lon="21.28026"/><trkpt lat="69.25615" lon="21.28026"/><trkpt lat="69.25632" lon="21.28001"/><trkpt lat="69.25632" lon="21.28001"/><trkpt lat="69.25632" lon="21.28001"/><trkpt lat="69.25679" lon="21.27967"/><trkpt lat="69.2569" lon="21.27964"/><trkpt lat="69.25706" lon="21.2794"/><trkpt lat="69.25756" lon="21.27905"/><trkpt lat="69.25777" lon="21.27905"/><trkpt lat="69.25802" lon="21.27921"/><trkpt lat="69.25816" lon="21.27934"/><trkpt lat="69.25846" lon="21.27945"/><trkpt lat="69.25872" lon="21.27928"/><trkpt lat="69.25892" lon="21.27901"/><trkpt lat="69.25908" lon="21.27892"/><trkpt lat="69.25936" lon="21.27846"/><trkpt lat="69.25948" lon="21.27835"/><trkpt lat="69.25958" lon="21.27813"/><trkpt lat="69.25965" lon="21.27783"/><trkpt lat="69.25979" lon="21.27757"/><trkpt lat="69.25987" lon="21.27766"/><trkpt lat="69.25995" lon="21.27796"/><trkpt lat="69.25998" lon="21.27818"/><trkpt lat="69.26003" lon="21.2783"/><trkpt lat="69.26009" lon="21.2785"/><trkpt lat="69.26022" lon="21.27884"/><trkpt lat="69.26037" lon="21.27913"/><trkpt lat="69.26047" lon="21.27942"/><trkpt lat="69.26065" lon="21.27968"/><trkpt lat="69.26082" lon="21.27984"/><trkpt lat="69.26084" lon="21.2799"/><trkpt lat="69.26133" lon="21.28034"/><trkpt lat="69.26163" lon="21.2807"/><trkpt lat="69.26171" lon="21.28072"/><trkpt lat="69.26176" lon="21.28079"/><trkpt lat="69.2618" lon="21.28093"/><trkpt lat="69.26189" lon="21.2811"/><trkpt lat="69.26207" lon="21.28151"/><trkpt lat="69.26211" lon="21.28167"/><trkpt lat="69.26223" lon="21.28201"/><trkpt lat="69.2622609215789" lon="21.28206059868058"/><trkpt lat="69.2622609215789" lon="21.28206059868058"/><trkpt lat="69.26245" lon="21.28237"/><trkpt lat="69.26264" lon="21.28251"/><trkpt lat="69.26321" lon="21.28284"/><trkpt lat="69.26321" lon="21.28284"/><trkpt lat="69.26321" lon="21.28284"/><trkpt lat="69.26347" lon="21.28292"/><trkpt lat="69.26368" lon="21.28288"/><trkpt lat="69.26393" lon="21.28273"/><trkpt lat="69.26393" lon="21.28273"/><trkpt lat="69.26424" lon="21.28266"/><trkpt lat="69.26452" lon="21.28252"/><trkpt lat="69.26467" lon="21.28256"/><trkpt lat="69.26476" lon="21.28254"/><trkpt lat="69.26486" lon="21.28259"/><trkpt lat="69.26496" lon="21.28259"/><trkpt lat="69.26524" lon="21.28254"/><trkpt lat="69.26529" lon="21.28248"/><trkpt lat="69.26536" lon="21.28248"/><trkpt lat="69.26546" lon="21.28242"/><trkpt lat="69.26569" lon="21.2824"/><trkpt lat="69.26582" lon="21.28244"/><trkpt lat="69.2659" lon="21.28236"/><trkpt lat="69.26604" lon="21.2823"/><trkpt lat="69.26604" lon="21.2823"/><trkpt lat="69.26613" lon="21.28234"/><trkpt lat="69.26617" lon="21.28245"/><trkpt lat="69.2664" lon="21.2825"/><trkpt lat="69.26649" lon="21.28256"/><trkpt lat="69.26677" lon="21.2826"/><trkpt lat="69.26685" lon="21.28268"/><trkpt lat="69.26698" lon="21.28263"/><trkpt lat="69.26725" lon="21.28258"/><trkpt lat="69.2673" lon="21.28254"/><trkpt lat="69.26749" lon="21.28266"/><trkpt lat="69.26778" lon="21.28267"/><trkpt lat="69.26792" lon="21.28253"/><trkpt lat="69.26801" lon="21.28265"/><trkpt lat="69.26808" lon="21.28263"/><trkpt lat="69.26822" lon="21.28271"/><trkpt lat="69.26829" lon="21.28266"/><trkpt lat="69.26854" lon="21.28269"/><trkpt lat="69.26865" lon="21.2828"/><trkpt lat="69.26876" lon="21.28281"/><trkpt lat="69.26883" lon="21.28275"/><trkpt lat="69.26901" lon="21.28278"/><trkpt lat="69.2693" lon="21.28296"/><trkpt lat="69.26934" lon="21.28302"/><trkpt lat="69.26973" lon="21.28316"/><trkpt lat="69.2702" lon="21.28339"/><trkpt lat="69.27056" lon="21.28368"/><trkpt lat="69.27102" lon="21.2838"/><trkpt lat="69.27125" lon="21.28393"/><trkpt lat="69.27147" lon="21.28415"/><trkpt lat="69.27171" lon="21.28458"/><trkpt lat="69.27171" lon="21.28458"/><trkpt lat="69.27177" lon="21.28468"/><trkpt lat="69.27195" lon="21.28543"/><trkpt lat="69.27239" lon="21.28661"/><trkpt lat="69.2727" lon="21.28734"/><trkpt lat="69.27309" lon="21.28766"/><trkpt lat="69.27332" lon="21.28813"/><trkpt lat="69.27402" lon="21.29028"/><trkpt lat="69.27419" lon="21.29064"/><trkpt lat="69.27462" lon="21.2911"/><trkpt lat="69.27534" lon="21.2915"/><trkpt lat="69.27534" lon="21.2915"/><trkpt lat="69.2755" lon="21.29153"/><trkpt lat="69.27577" lon="21.29168"/><trkpt lat="69.27598" lon="21.29198"/><trkpt lat="69.27628" lon="21.29219"/><trkpt lat="69.27643" lon="21.2924"/><trkpt lat="69.27684" lon="21.29255"/><trkpt lat="69.27706" lon="21.29255"/><trkpt lat="69.27742" lon="21.2925"/><trkpt lat="69.27754" lon="21.2925"/><trkpt lat="69.27759" lon="21.29253"/><trkpt lat="69.27777" lon="21.29253"/><trkpt lat="69.27784" lon="21.2925"/><trkpt lat="69.27792" lon="21.29256"/><trkpt lat="69.27799" lon="21.29253"/><trkpt lat="69.27829" lon="21.2926"/><trkpt lat="69.27901" lon="21.29251"/><trkpt lat="69.27948" lon="21.29234"/><trkpt lat="69.27948" lon="21.29234"/><trkpt lat="69.27962" lon="21.2923"/><trkpt lat="69.28006" lon="21.29238"/><trkpt lat="69.2805" lon="21.29257"/><trkpt lat="69.28095" lon="21.29243"/><trkpt lat="69.2814" lon="21.29202"/><trkpt lat="69.28163" lon="21.29178"/><trkpt lat="69.28167994369389" lon="21.29174926541915"/><trkpt lat="69.28168" lon="21.29175"/><trkpt lat="69.28174" lon="21.2915"/><trkpt lat="69.28174" lon="21.2915"/><trkpt lat="69.28175" lon="21.29142"/><trkpt lat="69.2818" lon="21.29103"/><trkpt lat="69.2819" lon="21.29052"/><trkpt lat="69.28207" lon="21.28991"/><trkpt lat="69.28217" lon="21.28957"/><trkpt lat="69.28228" lon="21.28941"/><trkpt lat="69.28236" lon="21.2891"/><trkpt lat="69.28245" lon="21.28857"/><trkpt lat="69.28261" lon="21.28797"/><trkpt lat="69.28278" lon="21.28742"/><trkpt lat="69.28291" lon="21.28716"/><trkpt lat="69.28306" lon="21.28669"/><trkpt lat="69.28342" lon="21.28536"/><trkpt lat="69.28347" lon="21.28507"/><trkpt lat="69.28347" lon="21.28464"/><trkpt lat="69.28353" lon="21.28426"/><trkpt lat="69.28368" lon="21.28367"/><trkpt lat="69.28389" lon="21.28305"/><trkpt lat="69.28396" lon="21.28262"/><trkpt lat="69.28423" lon="21.28202"/><trkpt lat="69.28434" lon="21.28146"/><trkpt lat="69.28441" lon="21.28091"/><trkpt lat="69.28444" lon="21.28012"/><trkpt lat="69.28446" lon="21.27985"/><trkpt lat="69.28463" lon="21.27869"/><trkpt lat="69.28485" lon="21.27778"/><trkpt lat="69.2849" lon="21.27737"/><trkpt lat="69.28492" lon="21.27662"/><trkpt lat="69.28496" lon="21.27616"/><trkpt lat="69.28505" lon="21.2755"/><trkpt lat="69.28531" lon="21.2743"/><trkpt lat="69.28546" lon="21.27336"/><trkpt lat="69.28553" lon="21.27313"/><trkpt lat="69.28567" lon="21.27237"/><trkpt lat="69.28574" lon="21.27208"/><trkpt lat="69.28583" lon="21.27152"/><trkpt lat="69.28589" lon="21.27109"/><trkpt lat="69.28597" lon="21.26953"/><trkpt lat="69.28597" lon="21.26953"/><trkpt lat="69.28607" lon="21.26918"/><trkpt lat="69.28611183042607" lon="21.268701274012784"/><trkpt lat="69.28611183042607" lon="21.268701274012784"/><trkpt lat="69.28614764596085" lon="21.268291385114676"/><trkpt lat="69.28614889848123" lon="21.26832962036133"/><trkpt lat="69.2862020256129" lon="21.268426179885868"/><trkpt lat="69.28627792128924" lon="21.26849055290222"/><trkpt lat="69.28856225671385" lon="21.27425193786621"/><trkpt lat="69.28895686833492" lon="21.275367736816406"/><trkpt lat="69.29080841148422" lon="21.278715133666996"/><trkpt lat="69.29174929899332" lon="21.280345916748047"/><trkpt lat="69.29278119313834" lon="21.281719207763675"/><trkpt lat="69.29335781845406" lon="21.28214836120606"/><trkpt lat="69.29450940450403" lon="21.281535168018525"/><trkpt lat="69.29461" lon="21.28143"/><trkpt lat="69.29495" lon="21.2809"/><trkpt lat="69.29503" lon="21.28087"/><trkpt lat="69.29503" lon="21.28087"/><trkpt lat="69.29537" lon="21.28074"/><trkpt lat="69.29582" lon="21.28066"/><trkpt lat="69.29631" lon="21.28033"/><trkpt lat="69.29675" lon="21.2797"/><trkpt lat="69.29725" lon="21.27943"/><trkpt lat="69.29777" lon="21.27899"/><trkpt lat="69.29826" lon="21.27821"/><trkpt lat="69.29846" lon="21.27771"/><trkpt lat="69.2986" lon="21.27718"/><trkpt lat="69.29883" lon="21.27604"/><trkpt lat="69.29896" lon="21.27563"/><trkpt lat="69.29907" lon="21.27537"/><trkpt lat="69.29921" lon="21.27483"/><trkpt lat="69.29938" lon="21.2744"/><trkpt lat="69.29954" lon="21.27377"/><trkpt lat="69.29975" lon="21.27325"/><trkpt lat="69.30018" lon="21.27169"/><trkpt lat="69.30067" lon="21.27053"/><trkpt lat="69.301" lon="21.27001"/><trkpt lat="69.30151" lon="21.26953"/><trkpt lat="69.30151" lon="21.26953"/><trkpt lat="69.30176" lon="21.26931"/><trkpt lat="69.30216" lon="21.26934"/><trkpt lat="69.30241" lon="21.26953"/><trkpt lat="69.30241" lon="21.26953"/><trkpt lat="69.30279" lon="21.26982"/><trkpt lat="69.30279" lon="21.26982"/><trkpt lat="69.30292" lon="21.26992"/><trkpt lat="69.30315" lon="21.26994"/><trkpt lat="69.30353" lon="21.27015"/><trkpt lat="69.30375" lon="21.27013"/><trkpt lat="69.30391" lon="21.27006"/><trkpt lat="69.30407" lon="21.27015"/><trkpt lat="69.30427" lon="21.27032"/><trkpt lat="69.30441" lon="21.27035"/><trkpt lat="69.30453" lon="21.27075"/><trkpt lat="69.30466" lon="21.27144"/><trkpt lat="69.30481" lon="21.27155"/><trkpt lat="69.30503" lon="21.27185"/><trkpt lat="69.30534" lon="21.27131"/><trkpt lat="69.30576" lon="21.2711"/><trkpt lat="69.30586" lon="21.2709"/><trkpt lat="69.30605" lon="21.27043"/><trkpt lat="69.30665" lon="21.26966"/><trkpt lat="69.30669" lon="21.26953"/><trkpt lat="69.30669" lon="21.26953"/><trkpt lat="69.3072" lon="21.26782"/><trkpt lat="69.30735" lon="21.26694"/><trkpt lat="69.30742" lon="21.26678"/><trkpt lat="69.30775" lon="21.26636"/><trkpt lat="69.30784" lon="21.26614"/><trkpt lat="69.30793" lon="21.26551"/><trkpt lat="69.30803" lon="21.26523"/><trkpt lat="69.30807" lon="21.26502"/><trkpt lat="69.30805617018554" lon="21.26468116954562"/><trkpt lat="69.30806" lon="21.26468"/><trkpt lat="69.30806" lon="21.26468"/><trkpt lat="69.30806" lon="21.26468"/><trkpt lat="69.30806" lon="21.26468"/><trkpt lat="69.30805617018554" lon="21.26468116954562"/><trkpt lat="69.30807" lon="21.26502"/><trkpt lat="69.30803" lon="21.26523"/><trkpt lat="69.30793" lon="21.26551"/><trkpt lat="69.30784" lon="21.26614"/><trkpt lat="69.30775" lon="21.26636"/><trkpt lat="69.30742" lon="21.26678"/><trkpt lat="69.30735" lon="21.26694"/><trkpt lat="69.3072" lon="21.26782"/><trkpt lat="69.30669" lon="21.26953"/><trkpt lat="69.30669" lon="21.26953"/><trkpt lat="69.30665" lon="21.26966"/><trkpt lat="69.30605" lon="21.27043"/><trkpt lat="69.30586" lon="21.2709"/><trkpt lat="69.30576" lon="21.2711"/><trkpt lat="69.30534" lon="21.27131"/><trkpt lat="69.30503" lon="21.27185"/><trkpt lat="69.30481" lon="21.27155"/><trkpt lat="69.30466" lon="21.27144"/><trkpt lat="69.30453" lon="21.27075"/><trkpt lat="69.30441" lon="21.27035"/><trkpt lat="69.30427" lon="21.27032"/><trkpt lat="69.30407" lon="21.27015"/><trkpt lat="69.30391" lon="21.27006"/><trkpt lat="69.30375" lon="21.27013"/><trkpt lat="69.30353" lon="21.27015"/><trkpt lat="69.30315" lon="21.26994"/><trkpt lat="69.30292" lon="21.26992"/><trkpt lat="69.30279" lon="21.26982"/><trkpt lat="69.30279" lon="21.26982"/><trkpt lat="69.30241" lon="21.26953"/><trkpt lat="69.30241" lon="21.26953"/><trkpt lat="69.30216" lon="21.26934"/><trkpt lat="69.30176" lon="21.26931"/><trkpt lat="69.30151" lon="21.26953"/><trkpt lat="69.30151" lon="21.26953"/><trkpt lat="69.301" lon="21.27001"/><trkpt lat="69.30067" lon="21.27053"/><trkpt lat="69.30018" lon="21.27169"/><trkpt lat="69.29975" lon="21.27325"/><trkpt lat="69.29954" lon="21.27377"/><trkpt lat="69.29938" lon="21.2744"/><trkpt lat="69.29921" lon="21.27483"/><trkpt lat="69.29907" lon="21.27537"/><trkpt lat="69.29896" lon="21.27563"/><trkpt lat="69.29883" lon="21.27604"/><trkpt lat="69.2986" lon="21.27718"/><trkpt lat="69.29846" lon="21.27771"/><trkpt lat="69.29826" lon="21.27821"/><trkpt lat="69.29777" lon="21.27899"/><trkpt lat="69.29725" lon="21.27943"/><trkpt lat="69.29675" lon="21.2797"/><trkpt lat="69.29631" lon="21.28033"/><trkpt lat="69.29582" lon="21.28066"/><trkpt lat="69.29537" lon="21.28074"/><trkpt lat="69.29503" lon="21.28087"/><trkpt lat="69.29503" lon="21.28087"/><trkpt lat="69.29495" lon="21.2809"/><trkpt lat="69.29461" lon="21.28143"/><trkpt lat="69.29417" lon="21.28189"/><trkpt lat="69.29371" lon="21.28225"/><trkpt lat="69.29362" lon="21.28237"/><trkpt lat="69.29327" lon="21.28327"/><trkpt lat="69.29316" lon="21.28375"/><trkpt lat="69.29286" lon="21.28481"/><trkpt lat="69.2926" lon="21.28531"/><trkpt lat="69.29214" lon="21.28651"/><trkpt lat="69.29203" lon="21.28673"/><trkpt lat="69.29193" lon="21.28682"/><trkpt lat="69.29178" lon="21.28685"/><trkpt lat="69.29165" lon="21.28693"/><trkpt lat="69.29138273415724" lon="21.286837839316195"/><trkpt lat="69.29117263085223" lon="21.286096572875977"/><trkpt lat="69.29083876333213" lon="21.28575325012207"/><trkpt lat="69.29023171829301" lon="21.284465789794925"/><trkpt lat="69.28919970268278" lon="21.281719207763675"/><trkpt lat="69.28853190167604" lon="21.27914428710938"/><trkpt lat="69.28792479198748" lon="21.27708435058594"/><trkpt lat="69.28749980508218" lon="21.27553939819336"/><trkpt lat="69.28722659481205" lon="21.273565292358402"/><trkpt lat="69.2868319516725" lon="21.271677017211918"/><trkpt lat="69.28614889848123" lon="21.26835107803345"/></trkseg></trk></gpx>