<?xml version="1.0"?>
<gpx xmlns="http://www.topografix.com/GPX/1/1" xmlns:gpxx="http://www.garmin.com/xmlschemas/GpxExtensions/v3" creator="CALTOPO" version="1.1"><metadata><name><![CDATA[pitsus-meeko]]></name></metadata><trk><name>pitsus-meeko</name><trkseg><trkpt lat="69.23113696587276" lon="21.289170573601297"/><trkpt lat="69.23113670287844" lon="21.289170719705716"/><trkpt lat="69.23113670287844" lon="21.289170719705716"/><trkpt lat="69.23103" lon="21.28923"/><trkpt lat="69.23093025060453" lon="21.289340249603356"/><trkpt lat="69.23093025060453" lon="21.289340249603356"/><trkpt lat="69.23084" lon="21.28944"/><trkpt lat="69.23052" lon="21.28959"/><trkpt lat="69.2302" lon="21.28981"/><trkpt lat="69.23006" lon="21.28996"/><trkpt lat="69.22972" lon="21.29062"/><trkpt lat="69.22953" lon="21.29118"/><trkpt lat="69.22934" lon="21.2915"/><trkpt lat="69.22934" lon="21.2915"/><trkpt lat="69.22919" lon="21.29175"/><trkpt lat="69.22901" lon="21.29225"/><trkpt lat="69.22881" lon="21.29269"/><trkpt lat="69.22873" lon="21.29291"/><trkpt lat="69.22866" lon="21.29295"/><trkpt lat="69.22866" lon="21.29295"/><trkpt lat="69.22844" lon="21.29272"/><trkpt lat="69.22813" lon="21.29256"/><trkpt lat="69.22774" lon="21.29283"/><trkpt lat="69.22774" lon="21.29283"/><trkpt lat="69.22774" lon="21.29283"/><trkpt lat="69.22766" lon="21.29292"/><trkpt lat="69.22737" lon="21.29342"/><trkpt lat="69.22703" lon="21.29372"/><trkpt lat="69.22678" lon="21.29388"/><trkpt lat="69.22652" lon="21.29414"/><trkpt lat="69.22619" lon="21.29456"/><trkpt lat="69.225" lon="21.29564"/><trkpt lat="69.225" lon="21.29564"/><trkpt lat="69.22481" lon="21.29581"/><trkpt lat="69.2246" lon="21.29586"/><trkpt lat="69.22423" lon="21.29608"/><trkpt lat="69.22368" lon="21.29625"/><trkpt lat="69.22316" lon="21.29691"/><trkpt lat="69.22287" lon="21.29703"/><trkpt lat="69.22238" lon="21.29763"/><trkpt lat="69.22232" lon="21.29778"/><trkpt lat="69.22221" lon="21.2979"/><trkpt lat="69.22161" lon="21.29822"/><trkpt lat="69.22147" lon="21.29826"/><trkpt lat="69.22098" lon="21.29807"/><trkpt lat="69.22054" lon="21.29805"/><trkpt lat="69.21986" lon="21.2982"/><trkpt lat="69.2189" lon="21.29891"/><trkpt lat="69.21825" lon="21.29921"/><trkpt lat="69.21778" lon="21.29952"/><trkpt lat="69.21761" lon="21.29959"/><trkpt lat="69.2172" lon="21.29995"/><trkpt lat="69.2172" lon="21.29995"/><trkpt lat="69.21708" lon="21.30006"/><trkpt lat="69.21681" lon="21.3002"/><trkpt lat="69.21681" lon="21.3002"/><trkpt lat="69.21611" lon="21.29983"/><trkpt lat="69.21576" lon="21.2999"/><trkpt lat="69.21576" lon="21.2999"/><trkpt lat="69.21558" lon="21.29983"/><trkpt lat="69.21558" lon="21.29983"/><trkpt lat="69.21558" lon="21.29983"/><trkpt lat="69.21542" lon="21.30001"/><trkpt lat="69.21521" lon="21.30008"/><trkpt lat="69.21492" lon="21.29999"/><trkpt lat="69.21472" lon="21.29973"/><trkpt lat="69.21472" lon="21.29973"/><trkpt lat="69.2143" lon="21.29966"/><trkpt lat="69.21394" lon="21.30008"/><trkpt lat="69.21372" lon="21.3"/><trkpt lat="69.21351" lon="21.29965"/><trkpt lat="69.21351" lon="21.29965"/><trkpt lat="69.21321" lon="21.29925"/><trkpt lat="69.21282" lon="21.29862"/><trkpt lat="69.21234" lon="21.29775"/><trkpt lat="69.21154" lon="21.29624"/><trkpt lat="69.21154" lon="21.29624"/><trkpt lat="69.21152" lon="21.29616"/><trkpt lat="69.21114" lon="21.29547"/><trkpt lat="69.21103" lon="21.29513"/><trkpt lat="69.21102" lon="21.29458"/><trkpt lat="69.21102" lon="21.29458"/><trkpt lat="69.21094" lon="21.2944"/><trkpt lat="69.21065" lon="21.29393"/><trkpt lat="69.2105" lon="21.29365"/><trkpt lat="69.21032" lon="21.29369"/><trkpt lat="69.21011" lon="21.29384"/><trkpt lat="69.20989" lon="21.29425"/><trkpt lat="69.20973" lon="21.29434"/><trkpt lat="69.2094" lon="21.29415"/><trkpt lat="69.2094" lon="21.29415"/><trkpt lat="69.20918" lon="21.29402"/><trkpt lat="69.20876" lon="21.29331"/><trkpt lat="69.20803" lon="21.2915"/><trkpt lat="69.20803" lon="21.2915"/><trkpt lat="69.20793" lon="21.29127"/><trkpt lat="69.20727" lon="21.28925"/><trkpt lat="69.20708" lon="21.28915"/><trkpt lat="69.20679" lon="21.28829"/><trkpt lat="69.2065" lon="21.28773"/><trkpt lat="69.20629" lon="21.28757"/><trkpt lat="69.20614" lon="21.28752"/><trkpt lat="69.2059" lon="21.28753"/><trkpt lat="69.20578" lon="21.28742"/><trkpt lat="69.20561" lon="21.28738"/><trkpt lat="69.20546" lon="21.28727"/><trkpt lat="69.2053" lon="21.28722"/><trkpt lat="69.2052" lon="21.28734"/><trkpt lat="69.20499" lon="21.28726"/><trkpt lat="69.20499" lon="21.28726"/><trkpt lat="69.20499" lon="21.28726"/><trkpt lat="69.20485" lon="21.28716"/><trkpt lat="69.20405" lon="21.28705"/><trkpt lat="69.20382" lon="21.28692"/><trkpt lat="69.20358" lon="21.2866"/><trkpt lat="69.20346" lon="21.28627"/><trkpt lat="69.20333" lon="21.28603"/><trkpt lat="69.2031" lon="21.28585"/><trkpt lat="69.20273" lon="21.28596"/><trkpt lat="69.20273" lon="21.28596"/><trkpt lat="69.20263" lon="21.28579"/><trkpt lat="69.20246" lon="21.28565"/><trkpt lat="69.20235" lon="21.28552"/><trkpt lat="69.20223" lon="21.28531"/><trkpt lat="69.20212" lon="21.28486"/><trkpt lat="69.20195" lon="21.28455"/><trkpt lat="69.20188" lon="21.28438"/><trkpt lat="69.20179" lon="21.28421"/><trkpt lat="69.20162" lon="21.28344"/><trkpt lat="69.2016" lon="21.28343"/><trkpt lat="69.2016" lon="21.28343"/><trkpt lat="69.20148" lon="21.28332"/><trkpt lat="69.20133" lon="21.28292"/><trkpt lat="69.20117" lon="21.2824"/><trkpt lat="69.20111" lon="21.28213"/><trkpt lat="69.2009" lon="21.2818"/><trkpt lat="69.20079" lon="21.28157"/><trkpt lat="69.20075" lon="21.2813"/><trkpt lat="69.2007" lon="21.28107"/><trkpt lat="69.20057" lon="21.28089"/><trkpt lat="69.20048" lon="21.28071"/><trkpt lat="69.20037" lon="21.28028"/><trkpt lat="69.20037" lon="21.28028"/><trkpt lat="69.20037" lon="21.28028"/><trkpt lat="69.20027" lon="21.28005"/><trkpt lat="69.20024" lon="21.28003"/><trkpt lat="69.20008" lon="21.27954"/><trkpt lat="69.20008" lon="21.27954"/><trkpt lat="69.20008" lon="21.27954"/><trkpt lat="69.19999" lon="21.2795"/><trkpt lat="69.19986" lon="21.27953"/><trkpt lat="69.19969" lon="21.27953"/><trkpt lat="69.19946" lon="21.27926"/><trkpt lat="69.1994" lon="21.27912"/><trkpt lat="69.19934" lon="21.27911"/><trkpt lat="69.19919" lon="21.27893"/><trkpt lat="69.19876" lon="21.27867"/><trkpt lat="69.19876" lon="21.27867"/><trkpt lat="69.19876" lon="21.27867"/><trkpt lat="69.19856" lon="21.27863"/><trkpt lat="69.19839" lon="21.27856"/><trkpt lat="69.19821" lon="21.27865"/><trkpt lat="69.19809" lon="21.27853"/><trkpt lat="69.19795" lon="21.27852"/><trkpt lat="69.19791" lon="21.27842"/><trkpt lat="69.19784" lon="21.27835"/><trkpt lat="69.19771" lon="21.27838"/><trkpt lat="69.19767" lon="21.27842"/><trkpt lat="69.19767" lon="21.27842"/><trkpt lat="69.19767" lon="21.27842"/><trkpt lat="69.19735" lon="21.27846"/><trkpt lat="69.19722" lon="21.27868"/><trkpt lat="69.19701" lon="21.27865"/><trkpt lat="69.19677001529136" lon="21.278539736755487"/><trkpt lat="69.19677001529136" lon="21.278539736755487"/><trkpt lat="69.19664" lon="21.27848"/><trkpt lat="69.19658998467091" lon="21.278450203633724"/><trkpt lat="69.19658998467091" lon="21.278450203633724"/><trkpt lat="69.19617" lon="21.2782"/><trkpt lat="69.19578" lon="21.27805"/><trkpt lat="69.19559" lon="21.27813"/><trkpt lat="69.19526" lon="21.27821"/><trkpt lat="69.195" lon="21.2784"/><trkpt lat="69.19481" lon="21.27859"/><trkpt lat="69.19446" lon="21.27913"/><trkpt lat="69.19446" lon="21.27913"/><trkpt lat="69.19428" lon="21.27934"/><trkpt lat="69.19417" lon="21.27935"/><trkpt lat="69.19404" lon="21.27964"/><trkpt lat="69.194" lon="21.27979"/><trkpt lat="69.19392" lon="21.27982"/><trkpt lat="69.19383" lon="21.28011"/><trkpt lat="69.1938" lon="21.28013"/><trkpt lat="69.1938" lon="21.28013"/><trkpt lat="69.19374" lon="21.28016"/><trkpt lat="69.19364" lon="21.28044"/><trkpt lat="69.19339" lon="21.28066"/><trkpt lat="69.19329" lon="21.28093"/><trkpt lat="69.19318" lon="21.28136"/><trkpt lat="69.19311" lon="21.28165"/><trkpt lat="69.19307" lon="21.28161"/><trkpt lat="69.19304" lon="21.28162"/><trkpt lat="69.19298" lon="21.28179"/><trkpt lat="69.19292" lon="21.28208"/><trkpt lat="69.19258" lon="21.28286"/><trkpt lat="69.19243" lon="21.28293"/><trkpt lat="69.19239" lon="21.28336"/><trkpt lat="69.19207" lon="21.28419"/><trkpt lat="69.19196" lon="21.28459"/><trkpt lat="69.19183" lon="21.28482"/><trkpt lat="69.1916" lon="21.28537"/><trkpt lat="69.19134" lon="21.28586"/><trkpt lat="69.19114" lon="21.28657"/><trkpt lat="69.191" lon="21.28713"/><trkpt lat="69.19091" lon="21.28765"/><trkpt lat="69.19091" lon="21.28765"/><trkpt lat="69.19091" lon="21.28765"/><trkpt lat="69.19079" lon="21.28791"/><trkpt lat="69.19067" lon="21.28842"/><trkpt lat="69.1906" lon="21.2885"/><trkpt lat="69.19052" lon="21.28863"/><trkpt lat="69.19035" lon="21.28948"/><trkpt lat="69.19026" lon="21.2897"/><trkpt lat="69.19021" lon="21.28986"/><trkpt lat="69.19013" lon="21.29018"/><trkpt lat="69.19008" lon="21.29038"/><trkpt lat="69.19005" lon="21.29062"/><trkpt lat="69.19005" lon="21.29072"/><trkpt lat="69.19005" lon="21.29072"/><trkpt lat="69.19002" lon="21.29093"/><trkpt lat="69.19001" lon="21.2915"/><trkpt lat="69.19001" lon="21.2915"/><trkpt lat="69.19" lon="21.29204"/><trkpt lat="69.1898" lon="21.29329"/><trkpt lat="69.18957" lon="21.29387"/><trkpt lat="69.18928" lon="21.29403"/><trkpt lat="69.18893" lon="21.2943"/><trkpt lat="69.18887" lon="21.29439"/><trkpt lat="69.18875" lon="21.29444"/><trkpt lat="69.18867" lon="21.29457"/><trkpt lat="69.18853" lon="21.29486"/><trkpt lat="69.18842" lon="21.29505"/><trkpt lat="69.18836" lon="21.2951"/><trkpt lat="69.18828" lon="21.29524"/><trkpt lat="69.18816" lon="21.29536"/><trkpt lat="69.18814071893323" lon="21.295410427405397"/><trkpt lat="69.18814071898224" lon="21.295410427405397"/><trkpt lat="69.18803" lon="21.2957"/><trkpt lat="69.18783" lon="21.29603"/><trkpt lat="69.18763" lon="21.29674"/><trkpt lat="69.1875" lon="21.29683"/><trkpt lat="69.18696" lon="21.29777"/><trkpt lat="69.18665" lon="21.29809"/><trkpt lat="69.18652" lon="21.29844"/><trkpt lat="69.18652" lon="21.29844"/><trkpt lat="69.18652" lon="21.29844"/><trkpt lat="69.18642" lon="21.29856"/><trkpt lat="69.18616" lon="21.29843"/><trkpt lat="69.18609" lon="21.29851"/><trkpt lat="69.18602" lon="21.29875"/><trkpt lat="69.18599" lon="21.2988"/><trkpt lat="69.18599" lon="21.2988"/><trkpt lat="69.18596" lon="21.29886"/><trkpt lat="69.18596" lon="21.29886"/><trkpt lat="69.18596" lon="21.29886"/><trkpt lat="69.18579" lon="21.29887"/><trkpt lat="69.18562" lon="21.29872"/><trkpt lat="69.1855" lon="21.29837"/><trkpt lat="69.18545" lon="21.29801"/><trkpt lat="69.18537" lon="21.29756"/><trkpt lat="69.1851" lon="21.29655"/><trkpt lat="69.18502" lon="21.2964"/><trkpt lat="69.18495" lon="21.29615"/><trkpt lat="69.1848" lon="21.29587"/><trkpt lat="69.18469" lon="21.29549"/><trkpt lat="69.18467" lon="21.29528"/><trkpt lat="69.18461" lon="21.2952"/><trkpt lat="69.18454" lon="21.29483"/><trkpt lat="69.18437" lon="21.29425"/><trkpt lat="69.18426" lon="21.29403"/><trkpt lat="69.18417" lon="21.29361"/><trkpt lat="69.1841" lon="21.29348"/><trkpt lat="69.18407" lon="21.29346"/><trkpt lat="69.18387" lon="21.29353"/><trkpt lat="69.18386" lon="21.29348"/><trkpt lat="69.18379" lon="21.29305"/><trkpt lat="69.18377" lon="21.293"/><trkpt lat="69.18375" lon="21.29299"/><trkpt lat="69.18367" lon="21.29308"/><trkpt lat="69.18367" lon="21.29308"/><trkpt lat="69.18367" lon="21.29308"/><trkpt lat="69.18364" lon="21.29302"/><trkpt lat="69.18364" lon="21.29302"/><trkpt lat="69.18353" lon="21.29241"/><trkpt lat="69.18353" lon="21.29241"/><trkpt lat="69.18351" lon="21.29234"/><trkpt lat="69.18349" lon="21.29232"/><trkpt lat="69.18344" lon="21.29236"/><trkpt lat="69.18344" lon="21.29236"/><trkpt lat="69.18344" lon="21.29236"/><trkpt lat="69.18339" lon="21.29254"/><trkpt lat="69.18329" lon="21.29278"/><trkpt lat="69.18327" lon="21.29305"/><trkpt lat="69.1832" lon="21.29333"/><trkpt lat="69.18316" lon="21.29356"/><trkpt lat="69.18317" lon="21.29372"/><trkpt lat="69.1831" lon="21.29403"/><trkpt lat="69.18301" lon="21.29421"/><trkpt lat="69.18287" lon="21.29502"/><trkpt lat="69.18282" lon="21.29521"/><trkpt lat="69.18275" lon="21.29532"/><trkpt lat="69.18273" lon="21.2954"/><trkpt lat="69.18272" lon="21.29561"/><trkpt lat="69.18267" lon="21.2957"/><trkpt lat="69.18263" lon="21.29586"/><trkpt lat="69.18256" lon="21.2959"/><trkpt lat="69.18244" lon="21.29604"/><trkpt lat="69.18227" lon="21.29654"/><trkpt lat="69.18201" lon="21.29689"/><trkpt lat="69.18169" lon="21.29775"/><trkpt lat="69.18146" lon="21.29803"/><trkpt lat="69.18117" lon="21.29807"/><trkpt lat="69.18089" lon="21.29891"/><trkpt lat="69.1806" lon="21.29966"/><trkpt lat="69.18056" lon="21.30072"/><trkpt lat="69.18054" lon="21.30092"/><trkpt lat="69.18055" lon="21.30101"/><trkpt lat="69.18052" lon="21.30129"/><trkpt lat="69.18052" lon="21.30168"/><trkpt lat="69.1805" lon="21.30176"/><trkpt lat="69.18049" lon="21.30188"/><trkpt lat="69.1805" lon="21.30203"/><trkpt lat="69.18043" lon="21.30273"/><trkpt lat="69.18037" lon="21.30319"/><trkpt lat="69.18033" lon="21.30339"/><trkpt lat="69.18022" lon="21.30441"/><trkpt lat="69.1802" lon="21.30489"/><trkpt lat="69.18021" lon="21.30503"/><trkpt lat="69.18012" lon="21.30599"/><trkpt lat="69.18014" lon="21.30636"/><trkpt lat="69.1801" lon="21.30672"/><trkpt lat="69.1801" lon="21.30699"/><trkpt lat="69.18007" lon="21.30732"/><trkpt lat="69.18011" lon="21.30782"/><trkpt lat="69.18011" lon="21.30813"/><trkpt lat="69.18015" lon="21.30936"/><trkpt lat="69.18015" lon="21.30944"/><trkpt lat="69.18014" lon="21.30958"/><trkpt lat="69.18003" lon="21.31024"/><trkpt lat="69.17999" lon="21.31041"/><trkpt lat="69.17996" lon="21.31063"/><trkpt lat="69.17994" lon="21.31086"/><trkpt lat="69.17994" lon="21.31092"/><trkpt lat="69.17998" lon="21.31109"/><trkpt lat="69.17998" lon="21.3112"/><trkpt lat="69.17994118741971" lon="21.3113746559005"/><trkpt lat="69.17994118741971" lon="21.3113746559005"/><trkpt lat="69.17993765180634" lon="21.31139056609592"/><trkpt lat="69.17993399981873" lon="21.31140699997325"/><trkpt lat="69.1799" lon="21.31156"/><trkpt lat="69.1798" lon="21.31187"/><trkpt lat="69.17977" lon="21.31206"/><trkpt lat="69.17975" lon="21.31213"/><trkpt lat="69.17972" lon="21.31247"/><trkpt lat="69.1797" lon="21.31257"/><trkpt lat="69.17963" lon="21.31271"/><trkpt lat="69.17956" lon="21.31316"/><trkpt lat="69.17954" lon="21.31348"/><trkpt lat="69.17954" lon="21.31348"/><trkpt lat="69.17942" lon="21.31447"/><trkpt lat="69.1794" lon="21.31501"/><trkpt lat="69.17937" lon="21.31532"/><trkpt lat="69.17924" lon="21.31591"/><trkpt lat="69.17918" lon="21.31598"/><trkpt lat="69.17908" lon="21.31616"/><trkpt lat="69.17901" lon="21.31623"/><trkpt lat="69.17891" lon="21.31641"/><trkpt lat="69.17889" lon="21.31648"/><trkpt lat="69.17887" lon="21.31675"/><trkpt lat="69.17887" lon="21.31685"/><trkpt lat="69.1789" lon="21.31692"/><trkpt lat="69.1789" lon="21.317"/><trkpt lat="69.17887" lon="21.31714"/><trkpt lat="69.17886" lon="21.31742"/><trkpt lat="69.17883" lon="21.31767"/><trkpt lat="69.17881" lon="21.31789"/><trkpt lat="69.17875" lon="21.31801"/><trkpt lat="69.17872" lon="21.31816"/><trkpt lat="69.17872" lon="21.31848"/><trkpt lat="69.17871" lon="21.31862"/><trkpt lat="69.17864" lon="21.31896"/><trkpt lat="69.1786" lon="21.31908"/><trkpt lat="69.17857" lon="21.3193"/><trkpt lat="69.17852" lon="21.3194"/><trkpt lat="69.17851" lon="21.31957"/><trkpt lat="69.17847" lon="21.31998"/><trkpt lat="69.17847" lon="21.3202"/><trkpt lat="69.17849" lon="21.32042"/><trkpt lat="69.17848" lon="21.32085"/><trkpt lat="69.1785" lon="21.32099"/><trkpt lat="69.17849" lon="21.32114"/><trkpt lat="69.17846" lon="21.32154"/><trkpt lat="69.17835" lon="21.3221"/><trkpt lat="69.17832" lon="21.3224"/><trkpt lat="69.17832" lon="21.32258"/><trkpt lat="69.1783" lon="21.32274"/><trkpt lat="69.17829" lon="21.32322"/><trkpt lat="69.17826" lon="21.32356"/><trkpt lat="69.17824" lon="21.32367"/><trkpt lat="69.17818" lon="21.32387"/><trkpt lat="69.17818" lon="21.32387"/><trkpt lat="69.17802" lon="21.32442"/><trkpt lat="69.17795" lon="21.32482"/><trkpt lat="69.17784" lon="21.32526"/><trkpt lat="69.17782" lon="21.32542"/><trkpt lat="69.17774" lon="21.32577"/><trkpt lat="69.17772" lon="21.3259"/><trkpt lat="69.17772" lon="21.3259"/><trkpt lat="69.17772" lon="21.3259"/><trkpt lat="69.1777" lon="21.32615"/><trkpt lat="69.17764" lon="21.32648"/><trkpt lat="69.17758" lon="21.32728"/><trkpt lat="69.17756" lon="21.32751"/><trkpt lat="69.17741" lon="21.32786"/><trkpt lat="69.17737" lon="21.3281"/><trkpt lat="69.17716" lon="21.32897"/><trkpt lat="69.17694" lon="21.32951"/><trkpt lat="69.17676" lon="21.32986"/><trkpt lat="69.17666" lon="21.33021"/><trkpt lat="69.17648" lon="21.33059"/><trkpt lat="69.17639" lon="21.33074"/><trkpt lat="69.17627" lon="21.33113"/><trkpt lat="69.17619" lon="21.33132"/><trkpt lat="69.17599" lon="21.33159"/><trkpt lat="69.1759" lon="21.33189"/><trkpt lat="69.17581" lon="21.33205"/><trkpt lat="69.17575" lon="21.33226"/><trkpt lat="69.17571" lon="21.33257"/><trkpt lat="69.1757" lon="21.33285"/><trkpt lat="69.1757" lon="21.33285"/><trkpt lat="69.17565" lon="21.33294"/><trkpt lat="69.1756" lon="21.33297"/><trkpt lat="69.17554" lon="21.33308"/><trkpt lat="69.17533" lon="21.33374"/><trkpt lat="69.17521" lon="21.33399"/><trkpt lat="69.17518" lon="21.33409"/><trkpt lat="69.17511" lon="21.3342"/><trkpt lat="69.17489" lon="21.33436"/><trkpt lat="69.1748" lon="21.33446"/><trkpt lat="69.1747" lon="21.33466"/><trkpt lat="69.17459" lon="21.33501"/><trkpt lat="69.17439" lon="21.33545"/><trkpt lat="69.17439" lon="21.33545"/><trkpt lat="69.17428" lon="21.33565"/><trkpt lat="69.17415" lon="21.33598"/><trkpt lat="69.17409" lon="21.33604"/><trkpt lat="69.17386" lon="21.33645"/><trkpt lat="69.1738" lon="21.33662"/><trkpt lat="69.17376" lon="21.33669"/><trkpt lat="69.1737" lon="21.33688"/><trkpt lat="69.17361" lon="21.33704"/><trkpt lat="69.17361" lon="21.33704"/><trkpt lat="69.17361" lon="21.33704"/><trkpt lat="69.17354" lon="21.3371"/><trkpt lat="69.1734" lon="21.33731"/><trkpt lat="69.17325" lon="21.3376"/><trkpt lat="69.17316" lon="21.33767"/><trkpt lat="69.17316" lon="21.33767"/><trkpt lat="69.17299" lon="21.33769"/><trkpt lat="69.17291" lon="21.33765"/><trkpt lat="69.17279" lon="21.33775"/><trkpt lat="69.1727" lon="21.33794"/><trkpt lat="69.17264" lon="21.33813"/><trkpt lat="69.17242" lon="21.3386"/><trkpt lat="69.17236" lon="21.33868"/><trkpt lat="69.17223" lon="21.339"/><trkpt lat="69.17216" lon="21.33911"/><trkpt lat="69.17188" lon="21.33963"/><trkpt lat="69.17166" lon="21.34008"/><trkpt lat="69.17162" lon="21.34026"/><trkpt lat="69.17152" lon="21.34049"/><trkpt lat="69.17104" lon="21.3412"/><trkpt lat="69.17098" lon="21.34122"/><trkpt lat="69.17095" lon="21.3413"/><trkpt lat="69.17089" lon="21.34131"/><trkpt lat="69.17063" lon="21.3415"/><trkpt lat="69.17057" lon="21.3416"/><trkpt lat="69.17037" lon="21.34171"/><trkpt lat="69.17037" lon="21.34171"/><trkpt lat="69.17019" lon="21.34173"/><trkpt lat="69.17019" lon="21.34173"/><trkpt lat="69.17019" lon="21.34173"/><trkpt lat="69.1701" lon="21.34163"/><trkpt lat="69.16996" lon="21.34155"/><trkpt lat="69.16984" lon="21.34152"/><trkpt lat="69.16975" lon="21.34143"/><trkpt lat="69.16975" lon="21.34143"/><trkpt lat="69.16975" lon="21.34143"/><trkpt lat="69.16965" lon="21.34131"/><trkpt lat="69.16952" lon="21.34095"/><trkpt lat="69.16935" lon="21.34062"/><trkpt lat="69.16929" lon="21.34039"/><trkpt lat="69.1692" lon="21.34015"/><trkpt lat="69.16914" lon="21.33984"/><trkpt lat="69.16906" lon="21.33928"/><trkpt lat="69.16906" lon="21.33907"/><trkpt lat="69.16905" lon="21.33886"/><trkpt lat="69.169" lon="21.3387"/><trkpt lat="69.16896" lon="21.33846"/><trkpt lat="69.16869" lon="21.33762"/><trkpt lat="69.16858" lon="21.33717"/><trkpt lat="69.16848" lon="21.33701"/><trkpt lat="69.1684" lon="21.33672"/><trkpt lat="69.16836" lon="21.33637"/><trkpt lat="69.16835" lon="21.33603"/><trkpt lat="69.16839" lon="21.33545"/><trkpt lat="69.16839" lon="21.33545"/><trkpt lat="69.16846" lon="21.33446"/><trkpt lat="69.16838" lon="21.3341"/><trkpt lat="69.16802" lon="21.33371"/><trkpt lat="69.16766" lon="21.3337"/><trkpt lat="69.16766" lon="21.3337"/><trkpt lat="69.16754" lon="21.33358"/><trkpt lat="69.16721" lon="21.33376"/><trkpt lat="69.16703" lon="21.33395"/><trkpt lat="69.16692" lon="21.33398"/><trkpt lat="69.16692" lon="21.33398"/><trkpt lat="69.16644" lon="21.3341"/><trkpt lat="69.16586" lon="21.33444"/><trkpt lat="69.16579" lon="21.33483"/><trkpt lat="69.16563" lon="21.33509"/><trkpt lat="69.1652" lon="21.33526"/><trkpt lat="69.16508" lon="21.33545"/><trkpt lat="69.16508" lon="21.33545"/><trkpt lat="69.16505" lon="21.3355"/><trkpt lat="69.1649" lon="21.33602"/><trkpt lat="69.16459" lon="21.33633"/><trkpt lat="69.16425" lon="21.3365"/><trkpt lat="69.16404" lon="21.33704"/><trkpt lat="69.16385" lon="21.3368"/><trkpt lat="69.1637" lon="21.33697"/><trkpt lat="69.16354" lon="21.33736"/><trkpt lat="69.16336" lon="21.33747"/><trkpt lat="69.16314" lon="21.33779"/><trkpt lat="69.16299" lon="21.33839"/><trkpt lat="69.16271" lon="21.33891"/><trkpt lat="69.16266" lon="21.33913"/><trkpt lat="69.16256" lon="21.3393"/><trkpt lat="69.16256" lon="21.3393"/><trkpt lat="69.16244" lon="21.33959"/><trkpt lat="69.16237" lon="21.33967"/><trkpt lat="69.16232" lon="21.33994"/><trkpt lat="69.16225" lon="21.34009"/><trkpt lat="69.16225" lon="21.34009"/><trkpt lat="69.16225" lon="21.34009"/><trkpt lat="69.16214" lon="21.34072"/><trkpt lat="69.1621399992071" lon="21.340720003106416"/><trkpt lat="69.16214" lon="21.34072"/><trkpt lat="69.16204" lon="21.34107"/><trkpt lat="69.16199" lon="21.34165"/><trkpt lat="69.16195" lon="21.34177"/><trkpt lat="69.16195" lon="21.34187"/><trkpt lat="69.16193" lon="21.34196"/><trkpt lat="69.16181" lon="21.34231"/><trkpt lat="69.16181" lon="21.34231"/><trkpt lat="69.16181" lon="21.34231"/><trkpt lat="69.16171" lon="21.34275"/><trkpt lat="69.16171" lon="21.34275"/><trkpt lat="69.16155" lon="21.34279"/><trkpt lat="69.16155" lon="21.34279"/><trkpt lat="69.16142" lon="21.34296"/><trkpt lat="69.16104" lon="21.34446"/><trkpt lat="69.16075" lon="21.34543"/><trkpt lat="69.1606" lon="21.34601"/><trkpt lat="69.16026" lon="21.34701"/><trkpt lat="69.16012" lon="21.34729"/><trkpt lat="69.16012" lon="21.34729"/><trkpt lat="69.15997" lon="21.34771"/><trkpt lat="69.15988" lon="21.34809"/><trkpt lat="69.15988" lon="21.34809"/><trkpt lat="69.15985" lon="21.34836"/><trkpt lat="69.15988" lon="21.34848"/><trkpt lat="69.15988" lon="21.34892"/><trkpt lat="69.15994" lon="21.34963"/><trkpt lat="69.15995" lon="21.34984"/><trkpt lat="69.15995" lon="21.34984"/><trkpt lat="69.15995" lon="21.34984"/><trkpt lat="69.15995178548499" lon="21.34984833226329"/></trkseg></trk></gpx>