<?xml version="1.0"?>
<gpx xmlns="http://www.topografix.com/GPX/1/1" xmlns:gpxx="http://www.garmin.com/xmlschemas/GpxExtensions/v3" creator="CALTOPO" version="1.1"><metadata><name><![CDATA[saarijarvi-luontokeskus]]></name></metadata><trk><name>saarijarvi-luontokeskus</name><trkseg><trkpt lat="69.0623645398668" lon="21.09188318252564"/><trkpt lat="69.06127494431307" lon="21.09193057184581"/><trkpt lat="69.06117" lon="21.09178"/><trkpt lat="69.06104" lon="21.09164"/><trkpt lat="69.06098" lon="21.09151"/><trkpt lat="69.06093" lon="21.09118"/><trkpt lat="69.06082" lon="21.09087"/><trkpt lat="69.06082" lon="21.09087"/><trkpt lat="69.06082" lon="21.09087"/><trkpt lat="69.06071" lon="21.09076"/><trkpt lat="69.06071" lon="21.09076"/><trkpt lat="69.06068" lon="21.09072"/><trkpt lat="69.06024" lon="21.09056"/><trkpt lat="69.06002" lon="21.09023"/><trkpt lat="69.0598" lon="21.08968"/><trkpt lat="69.05962" lon="21.08874"/><trkpt lat="69.05953" lon="21.08848"/><trkpt lat="69.05941" lon="21.08832"/><trkpt lat="69.05895" lon="21.08802"/><trkpt lat="69.05879" lon="21.08783"/><trkpt lat="69.05874" lon="21.08766"/><trkpt lat="69.05873" lon="21.08747"/><trkpt lat="69.05871" lon="21.08711"/><trkpt lat="69.05873" lon="21.08673"/><trkpt lat="69.05868" lon="21.08594"/><trkpt lat="69.05862" lon="21.08566"/><trkpt lat="69.05843" lon="21.08537"/><trkpt lat="69.05826" lon="21.08493"/><trkpt lat="69.05814" lon="21.08477"/><trkpt lat="69.058" lon="21.08475"/><trkpt lat="69.05786" lon="21.08482"/><trkpt lat="69.05769" lon="21.08484"/><trkpt lat="69.0576" lon="21.08471"/><trkpt lat="69.05752" lon="21.08451"/><trkpt lat="69.05746" lon="21.08418"/><trkpt lat="69.05734" lon="21.08382"/><trkpt lat="69.05721" lon="21.08349"/><trkpt lat="69.05721" lon="21.08349"/><trkpt lat="69.05721" lon="21.08349"/><trkpt lat="69.05718" lon="21.08325"/><trkpt lat="69.05708" lon="21.08283"/><trkpt lat="69.05704" lon="21.08245"/><trkpt lat="69.057" lon="21.08176"/><trkpt lat="69.057" lon="21.08176"/><trkpt lat="69.057" lon="21.08176"/><trkpt lat="69.05691" lon="21.08136"/><trkpt lat="69.05688748396854" lon="21.080971599148803"/><trkpt lat="69.05688748396854" lon="21.080971599148803"/><trkpt lat="69.05688" lon="21.08094"/><trkpt lat="69.05681" lon="21.08074"/><trkpt lat="69.05675" lon="21.0805"/><trkpt lat="69.05675" lon="21.0805"/><trkpt lat="69.05675" lon="21.0805"/><trkpt lat="69.05658" lon="21.0796"/><trkpt lat="69.05646" lon="21.07916"/><trkpt lat="69.05632" lon="21.07902"/><trkpt lat="69.05605" lon="21.07895"/><trkpt lat="69.05588" lon="21.07877"/><trkpt lat="69.0558" lon="21.07851"/><trkpt lat="69.05567" lon="21.07839"/><trkpt lat="69.05559" lon="21.0781"/><trkpt lat="69.05524" lon="21.07762"/><trkpt lat="69.05519" lon="21.07741"/><trkpt lat="69.0551" lon="21.07733"/><trkpt lat="69.05487" lon="21.07694"/><trkpt lat="69.05477" lon="21.07698"/><trkpt lat="69.05467" lon="21.07688"/><trkpt lat="69.05455" lon="21.07683"/><trkpt lat="69.0545" lon="21.07696"/><trkpt lat="69.05436" lon="21.07708"/><trkpt lat="69.05407" lon="21.07707"/><trkpt lat="69.05394" lon="21.07668"/><trkpt lat="69.05383" lon="21.07651"/><trkpt lat="69.0537" lon="21.07614"/><trkpt lat="69.05358" lon="21.07551"/><trkpt lat="69.05348" lon="21.07527"/><trkpt lat="69.05333" lon="21.07478"/><trkpt lat="69.05302" lon="21.07416"/><trkpt lat="69.05286" lon="21.07405"/><trkpt lat="69.05286" lon="21.07405"/><trkpt lat="69.05248" lon="21.0738"/><trkpt lat="69.05206" lon="21.07399"/><trkpt lat="69.05154" lon="21.07386"/><trkpt lat="69.05134" lon="21.07369"/><trkpt lat="69.05125" lon="21.07368"/><trkpt lat="69.05104" lon="21.07341"/><trkpt lat="69.05096" lon="21.07337"/><trkpt lat="69.05092" lon="21.07343"/><trkpt lat="69.05087" lon="21.07335"/><trkpt lat="69.05074" lon="21.07296"/><trkpt lat="69.05066" lon="21.07279"/><trkpt lat="69.05059" lon="21.07255"/><trkpt lat="69.05052" lon="21.07243"/><trkpt lat="69.05041" lon="21.07212"/><trkpt lat="69.05041" lon="21.07212"/><trkpt lat="69.05036" lon="21.07178"/><trkpt lat="69.05036" lon="21.07178"/><trkpt lat="69.05028" lon="21.07154"/><trkpt lat="69.05014" lon="21.07102"/><trkpt lat="69.04997" lon="21.07064"/><trkpt lat="69.04985" lon="21.07049"/><trkpt lat="69.04966" lon="21.0704"/><trkpt lat="69.04966" lon="21.0704"/><trkpt lat="69.04937" lon="21.06988"/><trkpt lat="69.04916" lon="21.06955"/><trkpt lat="69.04912" lon="21.06942"/><trkpt lat="69.04905" lon="21.0693"/><trkpt lat="69.04892" lon="21.06883"/><trkpt lat="69.04884" lon="21.06844"/><trkpt lat="69.04881" lon="21.06821"/><trkpt lat="69.04875" lon="21.06811"/><trkpt lat="69.04872" lon="21.06773"/><trkpt lat="69.04867" lon="21.06749"/><trkpt lat="69.04865" lon="21.06678"/><trkpt lat="69.04865" lon="21.06678"/><trkpt lat="69.04867" lon="21.0666"/><trkpt lat="69.04864" lon="21.06611"/><trkpt lat="69.04869" lon="21.06577"/><trkpt lat="69.0487" lon="21.06536"/><trkpt lat="69.0487" lon="21.06536"/><trkpt lat="69.0487" lon="21.06536"/><trkpt lat="69.04873" lon="21.06488"/><trkpt lat="69.04874" lon="21.06399"/><trkpt lat="69.04876999984272" lon="21.063320001923028"/><trkpt lat="69.04876999984272" lon="21.063320001923028"/><trkpt lat="69.04877" lon="21.06332"/><trkpt lat="69.04875" lon="21.06294"/><trkpt lat="69.04878" lon="21.06242"/><trkpt lat="69.04875" lon="21.06199"/><trkpt lat="69.04875" lon="21.06199"/><trkpt lat="69.0487" lon="21.06106"/><trkpt lat="69.04868" lon="21.06032"/><trkpt lat="69.04869" lon="21.06009"/><trkpt lat="69.04867" lon="21.05983"/><trkpt lat="69.04869" lon="21.05965"/><trkpt lat="69.04872" lon="21.05946"/><trkpt lat="69.04875" lon="21.0588"/><trkpt lat="69.04874" lon="21.05854"/><trkpt lat="69.04876" lon="21.05825"/><trkpt lat="69.04872" lon="21.0577"/><trkpt lat="69.04868" lon="21.05673"/><trkpt lat="69.04868" lon="21.05636"/><trkpt lat="69.04875" lon="21.05561"/><trkpt lat="69.04874919079658" lon="21.05561866807104"/><trkpt lat="69.04871" lon="21.05507"/><trkpt lat="69.04868" lon="21.05485"/><trkpt lat="69.04869" lon="21.05461"/><trkpt lat="69.04868" lon="21.05413"/><trkpt lat="69.04859" lon="21.05311"/><trkpt lat="69.0485846310903" lon="21.052806656602108"/><trkpt lat="69.04858463109206" lon="21.052806656602108"/><trkpt lat="69.04857" lon="21.05198"/><trkpt lat="69.04849" lon="21.05141"/><trkpt lat="69.04849" lon="21.05091"/><trkpt lat="69.04844" lon="21.05012"/><trkpt lat="69.04844" lon="21.05012"/><trkpt lat="69.04842" lon="21.0498"/><trkpt lat="69.04842" lon="21.0498"/><trkpt lat="69.04837" lon="21.04909"/><trkpt lat="69.04835" lon="21.04862"/><trkpt lat="69.04825" lon="21.04739"/><trkpt lat="69.0482" lon="21.04699"/><trkpt lat="69.0482" lon="21.0463"/><trkpt lat="69.04817" lon="21.04537"/><trkpt lat="69.04817" lon="21.04537"/><trkpt lat="69.04817" lon="21.04537"/><trkpt lat="69.04808" lon="21.04409"/><trkpt lat="69.04802" lon="21.04386"/><trkpt lat="69.04795" lon="21.04374"/><trkpt lat="69.0479" lon="21.04342"/><trkpt lat="69.04771" lon="21.0429"/><trkpt lat="69.04763" lon="21.04242"/><trkpt lat="69.04757" lon="21.04138"/><trkpt lat="69.04748" lon="21.04092"/><trkpt lat="69.04744" lon="21.04035"/><trkpt lat="69.04734" lon="21.03997"/><trkpt lat="69.04734" lon="21.03997"/><trkpt lat="69.04727" lon="21.03937"/><trkpt lat="69.04721" lon="21.03897"/><trkpt lat="69.04713" lon="21.03864"/><trkpt lat="69.04702" lon="21.03782"/><trkpt lat="69.04696" lon="21.03703"/><trkpt lat="69.04695" lon="21.03663"/><trkpt lat="69.04695" lon="21.03616"/><trkpt lat="69.04695" lon="21.03616"/><trkpt lat="69.04695" lon="21.03616"/><trkpt lat="69.04692" lon="21.03588"/><trkpt lat="69.04685" lon="21.0357"/><trkpt lat="69.04681" lon="21.03548"/><trkpt lat="69.04679" lon="21.03517"/><trkpt lat="69.04672" lon="21.03484"/><trkpt lat="69.04671" lon="21.03458"/><trkpt lat="69.04662" lon="21.03402"/><trkpt lat="69.04662" lon="21.03385"/><trkpt lat="69.04647" lon="21.03314"/><trkpt lat="69.04639" lon="21.03245"/><trkpt lat="69.04621" lon="21.03183"/><trkpt lat="69.04613" lon="21.03095"/><trkpt lat="69.04597" lon="21.03021"/><trkpt lat="69.04586" lon="21.02982"/><trkpt lat="69.04581" lon="21.02946"/><trkpt lat="69.04565" lon="21.02888"/><trkpt lat="69.0455" lon="21.02783"/><trkpt lat="69.0455" lon="21.02783"/><trkpt lat="69.04548" lon="21.02773"/><trkpt lat="69.04537" lon="21.02737"/><trkpt lat="69.04529" lon="21.02688"/><trkpt lat="69.04524" lon="21.02587"/><trkpt lat="69.04518" lon="21.02558"/><trkpt lat="69.04504" lon="21.0247"/><trkpt lat="69.045" lon="21.02457"/><trkpt lat="69.045" lon="21.02457"/><trkpt lat="69.04496" lon="21.0243"/><trkpt lat="69.04497" lon="21.02414"/><trkpt lat="69.04497" lon="21.02414"/><trkpt lat="69.04498" lon="21.02402"/><trkpt lat="69.0449" lon="21.02362"/><trkpt lat="69.04489" lon="21.02334"/><trkpt lat="69.04485" lon="21.02296"/><trkpt lat="69.04478" lon="21.02198"/><trkpt lat="69.04459" lon="21.02047"/><trkpt lat="69.0446" lon="21.02015"/><trkpt lat="69.04457" lon="21.01974"/><trkpt lat="69.04446" lon="21.01914"/><trkpt lat="69.04445" lon="21.01878"/><trkpt lat="69.04439" lon="21.0185"/><trkpt lat="69.04431" lon="21.01842"/><trkpt lat="69.04419" lon="21.01823"/><trkpt lat="69.04419" lon="21.01796"/><trkpt lat="69.04408" lon="21.01763"/><trkpt lat="69.04405" lon="21.01742"/><trkpt lat="69.04404" lon="21.01712"/><trkpt lat="69.04405" lon="21.0168"/><trkpt lat="69.04402" lon="21.01651"/><trkpt lat="69.044" lon="21.01597"/><trkpt lat="69.04392" lon="21.0157"/><trkpt lat="69.04385" lon="21.0151"/><trkpt lat="69.04384" lon="21.01482"/><trkpt lat="69.04376" lon="21.01428"/><trkpt lat="69.04369" lon="21.01325"/><trkpt lat="69.04341" lon="21.0116"/><trkpt lat="69.04333629869288" lon="21.011223304430253"/><trkpt lat="69.04333629887137" lon="21.011223304430253"/><trkpt lat="69.04323" lon="21.01068"/><trkpt lat="69.04313" lon="21.0101"/><trkpt lat="69.04297" lon="21.00967"/><trkpt lat="69.04297" lon="21.00967"/><trkpt lat="69.04288" lon="21.00877"/><trkpt lat="69.0428" lon="21.00821"/><trkpt lat="69.04259" lon="21.00731"/><trkpt lat="69.04242" lon="21.00671"/><trkpt lat="69.04231" lon="21.00586"/><trkpt lat="69.04231" lon="21.00586"/><trkpt lat="69.0422" lon="21.00508"/><trkpt lat="69.04209131200852" lon="21.004563731951663"/><trkpt lat="69.04209131200852" lon="21.004563731951663"/><trkpt lat="69.04204" lon="21.00432"/><trkpt lat="69.04204" lon="21.00395"/><trkpt lat="69.04192" lon="21.00275"/><trkpt lat="69.04188" lon="21.00185"/><trkpt lat="69.04177" lon="21.00122"/><trkpt lat="69.04163" lon="20.9997"/><trkpt lat="69.04157" lon="20.99938"/><trkpt lat="69.04155" lon="20.99899"/><trkpt lat="69.04158" lon="20.99809"/><trkpt lat="69.04158" lon="20.99738"/><trkpt lat="69.04179" lon="20.99637"/><trkpt lat="69.0418" lon="20.99601"/><trkpt lat="69.04176" lon="20.99554"/><trkpt lat="69.04177" lon="20.9949"/><trkpt lat="69.04177" lon="20.99432"/><trkpt lat="69.04181" lon="20.99391"/><trkpt lat="69.04179" lon="20.99343"/><trkpt lat="69.04181" lon="20.99264"/><trkpt lat="69.04177" lon="20.99125"/><trkpt lat="69.04171" lon="20.99038"/><trkpt lat="69.04176" lon="20.98877"/><trkpt lat="69.04172" lon="20.98797"/><trkpt lat="69.04174" lon="20.98691"/><trkpt lat="69.04183" lon="20.9863"/><trkpt lat="69.04189" lon="20.9855"/><trkpt lat="69.04195" lon="20.9849"/><trkpt lat="69.04194" lon="20.98427"/><trkpt lat="69.04196" lon="20.98389"/><trkpt lat="69.04196" lon="20.98389"/><trkpt lat="69.04202" lon="20.98254"/><trkpt lat="69.04203" lon="20.9817"/><trkpt lat="69.04204" lon="20.98102"/><trkpt lat="69.04209" lon="20.98058"/><trkpt lat="69.04202" lon="20.9794"/><trkpt lat="69.04188" lon="20.97662"/><trkpt lat="69.04171" lon="20.97528"/><trkpt lat="69.04167" lon="20.97473"/><trkpt lat="69.04158" lon="20.97423"/><trkpt lat="69.04139" lon="20.97375"/><trkpt lat="69.0412" lon="20.97285"/><trkpt lat="69.04113" lon="20.97224"/><trkpt lat="69.04084" lon="20.97109"/><trkpt lat="69.04084" lon="20.97109"/><trkpt lat="69.04076" lon="20.97063"/><trkpt lat="69.04063" lon="20.97007"/><trkpt lat="69.04045" lon="20.96903"/><trkpt lat="69.04023" lon="20.968"/><trkpt lat="69.04017172377468" lon="20.967835120923493"/><trkpt lat="69.04017172377468" lon="20.967835120923493"/><trkpt lat="69.03982" lon="20.96684"/><trkpt lat="69.03955" lon="20.96628"/><trkpt lat="69.0395" lon="20.96608"/><trkpt lat="69.03947" lon="20.96486"/><trkpt lat="69.03944" lon="20.96447"/><trkpt lat="69.0394" lon="20.96431"/><trkpt lat="69.03933" lon="20.96423"/><trkpt lat="69.0393" lon="20.96407"/><trkpt lat="69.0393" lon="20.96287"/><trkpt lat="69.03936" lon="20.96269"/><trkpt lat="69.03942" lon="20.96208"/><trkpt lat="69.03942" lon="20.96191"/><trkpt lat="69.03942" lon="20.96191"/><trkpt lat="69.03941" lon="20.96134"/><trkpt lat="69.03941" lon="20.96134"/><trkpt lat="69.03936" lon="20.96093"/><trkpt lat="69.0393" lon="20.9606"/><trkpt lat="69.03924" lon="20.96033"/><trkpt lat="69.03919" lon="20.95995"/><trkpt lat="69.03919065939405" lon="20.95994737707531"/><trkpt lat="69.0391" lon="20.95977"/><trkpt lat="69.03874" lon="20.95934"/><trkpt lat="69.03859" lon="20.95906"/><trkpt lat="69.03847" lon="20.95901"/><trkpt lat="69.03835" lon="20.95884"/><trkpt lat="69.03823" lon="20.95856"/><trkpt lat="69.03813" lon="20.95814"/><trkpt lat="69.03803" lon="20.95801"/><trkpt lat="69.03792" lon="20.95778"/><trkpt lat="69.0378" lon="20.9573"/><trkpt lat="69.03756" lon="20.95651"/><trkpt lat="69.03741" lon="20.9559"/><trkpt lat="69.03731" lon="20.95565"/><trkpt lat="69.03718" lon="20.95523"/><trkpt lat="69.03714" lon="20.95513"/><trkpt lat="69.03714" lon="20.95513"/><trkpt lat="69.03668" lon="20.95397"/><trkpt lat="69.03668" lon="20.95397"/><trkpt lat="69.03668" lon="20.95397"/><trkpt lat="69.03641" lon="20.95315"/><trkpt lat="69.03597" lon="20.9507"/><trkpt lat="69.03585" lon="20.95023"/><trkpt lat="69.0357" lon="20.94982"/><trkpt lat="69.03553" lon="20.94946"/><trkpt lat="69.03533" lon="20.94939"/><trkpt lat="69.03484" lon="20.94946"/><trkpt lat="69.03469" lon="20.94938"/><trkpt lat="69.03457" lon="20.94929"/><trkpt lat="69.03415" lon="20.94831"/><trkpt lat="69.03392" lon="20.94726"/><trkpt lat="69.03371" lon="20.94669"/><trkpt lat="69.03358" lon="20.94629"/><trkpt lat="69.03329" lon="20.94603"/><trkpt lat="69.03318" lon="20.94584"/><trkpt lat="69.03304" lon="20.94582"/><trkpt lat="69.03265" lon="20.94592"/><trkpt lat="69.03246" lon="20.94593"/><trkpt lat="69.03236" lon="20.94604"/><trkpt lat="69.0321" lon="20.94612"/><trkpt lat="69.03178" lon="20.94594"/><trkpt lat="69.03174" lon="20.94589"/><trkpt lat="69.03162" lon="20.94551"/><trkpt lat="69.03138" lon="20.94503"/><trkpt lat="69.03138" lon="20.94503"/><trkpt lat="69.03128" lon="20.9449"/><trkpt lat="69.03114" lon="20.94452"/><trkpt lat="69.03106" lon="20.94436"/><trkpt lat="69.03093" lon="20.94431"/><trkpt lat="69.0308" lon="20.94408"/><trkpt lat="69.03064" lon="20.94398"/><trkpt lat="69.02987" lon="20.94453"/><trkpt lat="69.02928" lon="20.94454"/><trkpt lat="69.02928" lon="20.94454"/><trkpt lat="69.02882" lon="20.94455"/><trkpt lat="69.02839" lon="20.94445"/><trkpt lat="69.02803" lon="20.94432"/><trkpt lat="69.02772" lon="20.94405"/><trkpt lat="69.02758" lon="20.94383"/><trkpt lat="69.02748" lon="20.94338"/><trkpt lat="69.02736" lon="20.94314"/><trkpt lat="69.02698" lon="20.94258"/><trkpt lat="69.0269" lon="20.94243"/><trkpt lat="69.02668" lon="20.94232"/><trkpt lat="69.02648" lon="20.94184"/><trkpt lat="69.02639" lon="20.94158"/><trkpt lat="69.02629" lon="20.9415"/><trkpt lat="69.02615" lon="20.94154"/><trkpt lat="69.02584" lon="20.94092"/><trkpt lat="69.02576" lon="20.94054"/><trkpt lat="69.0257" lon="20.94047"/><trkpt lat="69.02559" lon="20.94015"/><trkpt lat="69.02546" lon="20.93994"/><trkpt lat="69.02546" lon="20.93994"/><trkpt lat="69.02542" lon="20.93987"/><trkpt lat="69.02542" lon="20.93987"/><trkpt lat="69.02542" lon="20.93987"/><trkpt lat="69.02534" lon="20.93987"/><trkpt lat="69.02527" lon="20.93994"/><trkpt lat="69.02527" lon="20.93994"/><trkpt lat="69.02516" lon="20.93999"/><trkpt lat="69.02511" lon="20.93994"/><trkpt lat="69.02511" lon="20.93994"/><trkpt lat="69.02485" lon="20.93966"/><trkpt lat="69.0245" lon="20.93946"/><trkpt lat="69.02438" lon="20.93943"/><trkpt lat="69.0242" lon="20.93972"/><trkpt lat="69.02404" lon="20.93956"/><trkpt lat="69.02397" lon="20.93917"/><trkpt lat="69.02375" lon="20.93907"/><trkpt lat="69.02346" lon="20.93864"/><trkpt lat="69.02327" lon="20.93852"/><trkpt lat="69.02293" lon="20.93798"/><trkpt lat="69.02293" lon="20.93798"/><trkpt lat="69.02293" lon="20.93798"/><trkpt lat="69.02287" lon="20.93795"/><trkpt lat="69.02281" lon="20.93804"/><trkpt lat="69.0227" lon="20.93812"/><trkpt lat="69.0227" lon="20.93812"/><trkpt lat="69.02267" lon="20.93822"/><trkpt lat="69.02252" lon="20.93854"/><trkpt lat="69.02235" lon="20.93878"/><trkpt lat="69.02222" lon="20.93896"/><trkpt lat="69.02209" lon="20.93902"/><trkpt lat="69.02207" lon="20.93909"/><trkpt lat="69.02207" lon="20.93909"/><trkpt lat="69.02203" lon="20.93893"/><trkpt lat="69.02203" lon="20.93893"/><trkpt lat="69.02199" lon="20.93879"/><trkpt lat="69.02199" lon="20.93879"/><trkpt lat="69.02191" lon="20.93832"/><trkpt lat="69.02178" lon="20.93787"/><trkpt lat="69.0217" lon="20.93726"/><trkpt lat="69.02166" lon="20.93686"/><trkpt lat="69.02161" lon="20.93658"/><trkpt lat="69.02153" lon="20.93598"/><trkpt lat="69.02143" lon="20.93551"/><trkpt lat="69.02144" lon="20.93505"/><trkpt lat="69.02148" lon="20.93472"/><trkpt lat="69.02148" lon="20.93388"/><trkpt lat="69.02145" lon="20.93363"/><trkpt lat="69.02141" lon="20.9329"/><trkpt lat="69.02141" lon="20.9329"/><trkpt lat="69.02141" lon="20.93271"/><trkpt lat="69.02141" lon="20.93271"/><trkpt lat="69.02141" lon="20.93271"/><trkpt lat="69.02126" lon="20.93215"/><trkpt lat="69.02115" lon="20.93178"/><trkpt lat="69.02115" lon="20.93178"/><trkpt lat="69.02105" lon="20.93165"/><trkpt lat="69.02085" lon="20.93118"/><trkpt lat="69.02085" lon="20.93118"/><trkpt lat="69.02064" lon="20.93056"/><trkpt lat="69.02043" lon="20.93006"/><trkpt lat="69.02039" lon="20.92953"/><trkpt lat="69.02039" lon="20.92953"/><trkpt lat="69.02032" lon="20.92948"/><trkpt lat="69.0202" lon="20.92934"/><trkpt lat="69.02008" lon="20.92926"/><trkpt lat="69.01999" lon="20.92944"/><trkpt lat="69.01987" lon="20.92988"/><trkpt lat="69.01977" lon="20.92998"/><trkpt lat="69.01967" lon="20.92991"/><trkpt lat="69.01967" lon="20.92991"/><trkpt lat="69.01949" lon="20.92992"/><trkpt lat="69.01935" lon="20.92966"/><trkpt lat="69.01927" lon="20.92917"/><trkpt lat="69.01927" lon="20.92842"/><trkpt lat="69.0193" lon="20.92783"/><trkpt lat="69.01932" lon="20.92629"/><trkpt lat="69.01923" lon="20.92537"/><trkpt lat="69.01924" lon="20.9247"/><trkpt lat="69.01916" lon="20.92422"/><trkpt lat="69.01903" lon="20.92363"/><trkpt lat="69.01896" lon="20.92305"/><trkpt lat="69.01879" lon="20.92275"/><trkpt lat="69.01877" lon="20.9225"/><trkpt lat="69.0188" lon="20.92147"/><trkpt lat="69.01885" lon="20.9208"/><trkpt lat="69.01885" lon="20.92068"/><trkpt lat="69.01854" lon="20.92011"/><trkpt lat="69.01846" lon="20.91964"/><trkpt lat="69.01859" lon="20.91887"/><trkpt lat="69.01866" lon="20.91803"/><trkpt lat="69.01867" lon="20.91797"/><trkpt lat="69.01867" lon="20.91797"/><trkpt lat="69.01871" lon="20.91783"/><trkpt lat="69.01873" lon="20.91758"/><trkpt lat="69.01865" lon="20.91715"/><trkpt lat="69.01865" lon="20.91687"/><trkpt lat="69.01857" lon="20.91643"/><trkpt lat="69.01854" lon="20.91555"/><trkpt lat="69.0185" lon="20.91527"/><trkpt lat="69.0185" lon="20.91527"/><trkpt lat="69.01847" lon="20.915"/><trkpt lat="69.01841" lon="20.91479"/><trkpt lat="69.01831" lon="20.91475"/><trkpt lat="69.01805" lon="20.91417"/><trkpt lat="69.01798" lon="20.91404"/><trkpt lat="69.01782" lon="20.9139"/><trkpt lat="69.01773" lon="20.91363"/><trkpt lat="69.01727" lon="20.91299"/><trkpt lat="69.0172" lon="20.91252"/><trkpt lat="69.01708" lon="20.91203"/><trkpt lat="69.01687" lon="20.91151"/><trkpt lat="69.0165" lon="20.9108"/><trkpt lat="69.01595" lon="20.91078"/><trkpt lat="69.01544" lon="20.91097"/><trkpt lat="69.01483" lon="20.91078"/><trkpt lat="69.01464" lon="20.91001"/><trkpt lat="69.01454" lon="20.90844"/><trkpt lat="69.01459" lon="20.90775"/><trkpt lat="69.01451" lon="20.90736"/><trkpt lat="69.01439" lon="20.90726"/><trkpt lat="69.01435" lon="20.90668"/><trkpt lat="69.01449" lon="20.90623"/><trkpt lat="69.01463" lon="20.90436"/><trkpt lat="69.01465" lon="20.90369"/><trkpt lat="69.01479" lon="20.90308"/><trkpt lat="69.01488" lon="20.90241"/><trkpt lat="69.01481" lon="20.90209"/><trkpt lat="69.0147" lon="20.90153"/><trkpt lat="69.01451" lon="20.90142"/><trkpt lat="69.01408" lon="20.90153"/><trkpt lat="69.01389" lon="20.90192"/><trkpt lat="69.01368" lon="20.90194"/><trkpt lat="69.01358" lon="20.90213"/><trkpt lat="69.01355" lon="20.90203"/><trkpt lat="69.01355" lon="20.90203"/><trkpt lat="69.01345" lon="20.90177"/><trkpt lat="69.01333" lon="20.90168"/><trkpt lat="69.01325" lon="20.90144"/><trkpt lat="69.01302" lon="20.90112"/><trkpt lat="69.01285" lon="20.90042"/><trkpt lat="69.01283" lon="20.89981"/><trkpt lat="69.01284" lon="20.89908"/><trkpt lat="69.01279" lon="20.89873"/><trkpt lat="69.01261" lon="20.89846"/><trkpt lat="69.01224" lon="20.89743"/><trkpt lat="69.01222" lon="20.89713"/><trkpt lat="69.01229" lon="20.89658"/><trkpt lat="69.01224" lon="20.89602"/><trkpt lat="69.01222" lon="20.896"/><trkpt lat="69.01222" lon="20.896"/><trkpt lat="69.0121" lon="20.89583"/><trkpt lat="69.01192" lon="20.89516"/><trkpt lat="69.01188" lon="20.89389"/><trkpt lat="69.01175" lon="20.89297"/><trkpt lat="69.01182" lon="20.89239"/><trkpt lat="69.01176" lon="20.89148"/><trkpt lat="69.01177" lon="20.89141"/><trkpt lat="69.01177" lon="20.89141"/><trkpt lat="69.01157" lon="20.8914"/><trkpt lat="69.01149" lon="20.89135"/><trkpt lat="69.01139" lon="20.8912"/><trkpt lat="69.01139" lon="20.8912"/><trkpt lat="69.01131594306156" lon="20.891079657475036"/></trkseg></trk></gpx>