<?xml version="1.0"?>
<gpx xmlns="http://www.topografix.com/GPX/1/1" xmlns:gpxx="http://www.garmin.com/xmlschemas/GpxExtensions/v3" creator="CALTOPO" version="1.1"><metadata><name><![CDATA[aittajarvi-porttikoski]]></name></metadata><trk><name>aittajarvi-porttikoski</name><trkseg><trkpt lat="68.39091241323999" lon="28.063510768786596"/><trkpt lat="68.39094617334494" lon="28.06394121014801"/><trkpt lat="68.39095" lon="28.06394"/><trkpt lat="68.39085" lon="28.06409"/><trkpt lat="68.39082" lon="28.06421"/><trkpt lat="68.39081560036087" lon="28.06439038520493"/><trkpt lat="68.39081560036139" lon="28.06439038520493"/><trkpt lat="68.39081" lon="28.06462"/><trkpt lat="68.3908" lon="28.06478"/><trkpt lat="68.39077" lon="28.06496"/><trkpt lat="68.39077" lon="28.06523"/><trkpt lat="68.3908" lon="28.06564"/><trkpt lat="68.39083" lon="28.06581"/><trkpt lat="68.39089" lon="28.06611"/><trkpt lat="68.39091" lon="28.06635"/><trkpt lat="68.39109" lon="28.06728"/><trkpt lat="68.39109" lon="28.06728"/><trkpt lat="68.39111" lon="28.06737"/><trkpt lat="68.39118" lon="28.06752"/><trkpt lat="68.39132" lon="28.06825"/><trkpt lat="68.39132" lon="28.068250000000003"/><trkpt lat="68.39132" lon="28.06825"/><trkpt lat="68.39146114879073" lon="28.068493802166877"/><trkpt lat="68.39147881450485" lon="28.068850636482242"/><trkpt lat="68.39154350402401" lon="28.069013315263003"/><trkpt lat="68.39164" lon="28.06938"/><trkpt lat="68.39169" lon="28.06977"/><trkpt lat="68.39166" lon="28.07012"/><trkpt lat="68.39166" lon="28.07012"/><trkpt lat="68.39153" lon="28.07018"/><trkpt lat="68.39153" lon="28.07018"/><trkpt lat="68.3911" lon="28.07036"/><trkpt lat="68.39109" lon="28.07036"/><trkpt lat="68.39102" lon="28.07037"/><trkpt lat="68.39102" lon="28.07037"/><trkpt lat="68.39082" lon="28.07004"/><trkpt lat="68.39082" lon="28.07004"/><trkpt lat="68.39076" lon="28.06951"/><trkpt lat="68.3906" lon="28.06908"/><trkpt lat="68.39053" lon="28.06854"/><trkpt lat="68.39037" lon="28.068"/><trkpt lat="68.39015" lon="28.06764"/><trkpt lat="68.39007" lon="28.06735"/><trkpt lat="68.38967" lon="28.06539"/><trkpt lat="68.38956" lon="28.06501"/><trkpt lat="68.38942" lon="28.06409"/><trkpt lat="68.38942" lon="28.06409"/><trkpt lat="68.38899" lon="28.06373"/><trkpt lat="68.38878" lon="28.06347"/><trkpt lat="68.38861" lon="28.06337"/><trkpt lat="68.38849" lon="28.06342"/><trkpt lat="68.38849" lon="28.06342"/><trkpt lat="68.38849" lon="28.06342"/><trkpt lat="68.38827" lon="28.06319"/><trkpt lat="68.38814" lon="28.06296"/><trkpt lat="68.38785" lon="28.06268"/><trkpt lat="68.3876617169636" lon="28.062568741842128"/><trkpt lat="68.38766171709517" lon="28.062568741842128"/><trkpt lat="68.38763" lon="28.06255"/><trkpt lat="68.38756" lon="28.06241"/><trkpt lat="68.38745" lon="28.06203"/><trkpt lat="68.38732" lon="28.06113"/><trkpt lat="68.38722" lon="28.0609"/><trkpt lat="68.38702" lon="28.05961"/><trkpt lat="68.38682" lon="28.05908"/><trkpt lat="68.38682" lon="28.05908"/><trkpt lat="68.38653" lon="28.05826"/><trkpt lat="68.38544" lon="28.05721"/><trkpt lat="68.38493" lon="28.05643"/><trkpt lat="68.38493" lon="28.05643"/><trkpt lat="68.38467" lon="28.05619"/><trkpt lat="68.38467" lon="28.05619"/><trkpt lat="68.38467" lon="28.05619"/><trkpt lat="68.38454" lon="28.05554"/><trkpt lat="68.38456" lon="28.05468"/><trkpt lat="68.38444" lon="28.05314"/><trkpt lat="68.38433" lon="28.05269"/><trkpt lat="68.38416" lon="28.05268"/><trkpt lat="68.38392" lon="28.05275"/><trkpt lat="68.38383" lon="28.05232"/><trkpt lat="68.38384" lon="28.05185"/><trkpt lat="68.38398" lon="28.05136"/><trkpt lat="68.38396" lon="28.05093"/><trkpt lat="68.38385" lon="28.05011"/><trkpt lat="68.38378" lon="28.04696"/><trkpt lat="68.38382" lon="28.0458"/><trkpt lat="68.38376" lon="28.04514"/><trkpt lat="68.38403" lon="28.04174"/><trkpt lat="68.38406" lon="28.04014"/><trkpt lat="68.38379" lon="28.03711"/><trkpt lat="68.38379" lon="28.03711"/><trkpt lat="68.38375" lon="28.03627"/><trkpt lat="68.38377603137414" lon="28.03611706567699"/><trkpt lat="68.38377603140506" lon="28.036117065676986"/><trkpt lat="68.38383" lon="28.0358"/><trkpt lat="68.38402" lon="28.03574"/><trkpt lat="68.38429" lon="28.03603"/><trkpt lat="68.38446800971741" lon="28.035979934766978"/><trkpt lat="68.38469980772591" lon="28.036004304885868"/><trkpt lat="68.38478943264282" lon="28.035735932798513"/><trkpt lat="68.38467" lon="28.03488"/><trkpt lat="68.38477" lon="28.03185"/><trkpt lat="68.3846" lon="28.0308"/><trkpt lat="68.38424" lon="28.0299"/><trkpt lat="68.38401" lon="28.02878"/><trkpt lat="68.38391" lon="28.02756"/><trkpt lat="68.38415" lon="28.02574"/><trkpt lat="68.38441" lon="28.02342"/><trkpt lat="68.38436" lon="28.02256"/><trkpt lat="68.38418" lon="28.02104"/><trkpt lat="68.38378" lon="28.01917"/><trkpt lat="68.383" lon="28.01642"/><trkpt lat="68.383" lon="28.01642"/><trkpt lat="68.38259" lon="28.01514"/><trkpt lat="68.38259" lon="28.01514"/><trkpt lat="68.38228" lon="28.01419"/><trkpt lat="68.3817" lon="28.01323"/><trkpt lat="68.38137" lon="28.0123"/><trkpt lat="68.38074" lon="28.01074"/><trkpt lat="68.38039" lon="28.00928"/><trkpt lat="68.38031" lon="28.00778"/><trkpt lat="68.38031" lon="28.00645"/><trkpt lat="68.3807" lon="28.004"/><trkpt lat="68.38075" lon="28.00352"/><trkpt lat="68.38076" lon="28.00292"/><trkpt lat="68.38066" lon="28.00157"/><trkpt lat="68.38057" lon="27.99753"/><trkpt lat="68.38046" lon="27.99674"/><trkpt lat="68.38035" lon="27.99625"/><trkpt lat="68.38002" lon="27.99554"/><trkpt lat="68.37983" lon="27.99492"/><trkpt lat="68.37967" lon="27.99316"/><trkpt lat="68.37967" lon="27.99316"/><trkpt lat="68.3796" lon="27.99227"/><trkpt lat="68.37948" lon="27.99211"/><trkpt lat="68.3793" lon="27.99218"/><trkpt lat="68.37906" lon="27.99286"/><trkpt lat="68.37902" lon="27.99316"/><trkpt lat="68.37902" lon="27.99316"/><trkpt lat="68.37893" lon="27.99381"/><trkpt lat="68.37852" lon="27.99439"/><trkpt lat="68.37828" lon="27.99456"/><trkpt lat="68.37804" lon="27.99453"/><trkpt lat="68.37779" lon="27.99437"/><trkpt lat="68.37743" lon="27.99378"/><trkpt lat="68.37724" lon="27.99364"/><trkpt lat="68.37678" lon="27.99368"/><trkpt lat="68.37651" lon="27.99316"/><trkpt lat="68.37651" lon="27.99316"/><trkpt lat="68.37618" lon="27.99255"/><trkpt lat="68.37576" lon="27.9909"/><trkpt lat="68.3755" lon="27.99052"/><trkpt lat="68.37541452420027" lon="27.990339551089463"/><trkpt lat="68.3754145243781" lon="27.990339551089466"/><trkpt lat="68.37532" lon="27.99014"/><trkpt lat="68.3751" lon="27.9898"/><trkpt lat="68.37496" lon="27.98936"/><trkpt lat="68.3749" lon="27.98927"/><trkpt lat="68.3749" lon="27.98927"/><trkpt lat="68.37474" lon="27.989"/><trkpt lat="68.37458" lon="27.98856"/><trkpt lat="68.37443" lon="27.98825"/><trkpt lat="68.37424" lon="27.98761"/><trkpt lat="68.37422" lon="27.98713"/><trkpt lat="68.37411" lon="27.98658"/><trkpt lat="68.37394" lon="27.98603"/><trkpt lat="68.37381" lon="27.98552"/><trkpt lat="68.37371" lon="27.98521"/><trkpt lat="68.37354" lon="27.98453"/><trkpt lat="68.37357" lon="27.9833"/><trkpt lat="68.37355" lon="27.98277"/><trkpt lat="68.37345" lon="27.98177"/><trkpt lat="68.37347" lon="27.98166"/><trkpt lat="68.37347" lon="27.98166"/><trkpt lat="68.3735" lon="27.98156"/><trkpt lat="68.37375" lon="27.98117"/><trkpt lat="68.37385" lon="27.98064"/><trkpt lat="68.37394" lon="27.97975"/><trkpt lat="68.37395" lon="27.97928"/><trkpt lat="68.37377" lon="27.97891"/><trkpt lat="68.37327" lon="27.97823"/><trkpt lat="68.37312" lon="27.97776"/><trkpt lat="68.37299" lon="27.97741"/><trkpt lat="68.37289" lon="27.97706"/><trkpt lat="68.37277" lon="27.97652"/><trkpt lat="68.37263" lon="27.97601"/><trkpt lat="68.37255" lon="27.97543"/><trkpt lat="68.3725" lon="27.97514"/><trkpt lat="68.37239" lon="27.97487"/><trkpt lat="68.37231" lon="27.9744"/><trkpt lat="68.37229" lon="27.97393"/><trkpt lat="68.37232" lon="27.97333"/><trkpt lat="68.3723" lon="27.97294"/><trkpt lat="68.37209" lon="27.97228"/><trkpt lat="68.37205" lon="27.97198"/><trkpt lat="68.37203" lon="27.97142"/><trkpt lat="68.37198" lon="27.97119"/><trkpt lat="68.37198" lon="27.97119"/><trkpt lat="68.37187" lon="27.97056"/><trkpt lat="68.37174" lon="27.97041"/><trkpt lat="68.37174" lon="27.97041"/><trkpt lat="68.37158" lon="27.96988"/><trkpt lat="68.37158" lon="27.96911"/><trkpt lat="68.37137" lon="27.96876"/><trkpt lat="68.37123" lon="27.96836"/><trkpt lat="68.37103" lon="27.96823"/><trkpt lat="68.37086" lon="27.96823"/><trkpt lat="68.37061" lon="27.96844"/><trkpt lat="68.37054681570677" lon="27.968550572513134"/><trkpt lat="68.37054681589703" lon="27.968550572513134"/><trkpt lat="68.37041" lon="27.96879"/><trkpt lat="68.37025" lon="27.96947"/><trkpt lat="68.37025" lon="27.96947"/><trkpt lat="68.37025" lon="27.96947"/><trkpt lat="68.37001" lon="27.97013"/><trkpt lat="68.36987" lon="27.97037"/><trkpt lat="68.36973" lon="27.97085"/><trkpt lat="68.36972" lon="27.97105"/><trkpt lat="68.36965" lon="27.97119"/><trkpt lat="68.36965" lon="27.97119"/><trkpt lat="68.36948" lon="27.97153"/><trkpt lat="68.36927" lon="27.97168"/><trkpt lat="68.36908" lon="27.97195"/><trkpt lat="68.36871" lon="27.9721"/><trkpt lat="68.36839" lon="27.97212"/><trkpt lat="68.36821" lon="27.97178"/><trkpt lat="68.36797" lon="27.97144"/><trkpt lat="68.36783" lon="27.97139"/><trkpt lat="68.36771" lon="27.97119"/><trkpt lat="68.36771" lon="27.97119"/><trkpt lat="68.36757" lon="27.97089"/><trkpt lat="68.36737" lon="27.9706"/><trkpt lat="68.36722" lon="27.97045"/><trkpt lat="68.36696" lon="27.96985"/><trkpt lat="68.3668" lon="27.96954"/><trkpt lat="68.3668" lon="27.96954"/><trkpt lat="68.36674" lon="27.96929"/><trkpt lat="68.36658" lon="27.96913"/><trkpt lat="68.36636" lon="27.96856"/><trkpt lat="68.36622" lon="27.96839"/><trkpt lat="68.36598" lon="27.96788"/><trkpt lat="68.3654" lon="27.9668"/><trkpt lat="68.36517" lon="27.96645"/><trkpt lat="68.36483" lon="27.96609"/><trkpt lat="68.36451" lon="27.96565"/><trkpt lat="68.3643" lon="27.96517"/><trkpt lat="68.364" lon="27.96472"/><trkpt lat="68.3636" lon="27.96403"/><trkpt lat="68.36349" lon="27.96358"/><trkpt lat="68.36329" lon="27.96323"/><trkpt lat="68.36306" lon="27.9626"/><trkpt lat="68.36285" lon="27.96239"/><trkpt lat="68.36272" lon="27.96198"/><trkpt lat="68.36228" lon="27.96084"/><trkpt lat="68.36221" lon="27.96038"/><trkpt lat="68.36196" lon="27.96014"/><trkpt lat="68.36189" lon="27.95973"/><trkpt lat="68.36173" lon="27.95911"/><trkpt lat="68.36159" lon="27.95878"/><trkpt lat="68.36139" lon="27.95789"/><trkpt lat="68.36133" lon="27.95749"/><trkpt lat="68.36125" lon="27.9572"/><trkpt lat="68.36124" lon="27.95676"/><trkpt lat="68.36101" lon="27.95608"/><trkpt lat="68.36094" lon="27.95541"/><trkpt lat="68.36088" lon="27.95521"/><trkpt lat="68.36078" lon="27.95503"/><trkpt lat="68.36069" lon="27.95462"/><trkpt lat="68.36051" lon="27.95418"/><trkpt lat="68.36027" lon="27.95373"/><trkpt lat="68.36007" lon="27.95348"/><trkpt lat="68.35995" lon="27.95342"/><trkpt lat="68.35999" lon="27.95378"/><trkpt lat="68.35999" lon="27.95378"/><trkpt lat="68.35999" lon="27.95378"/><trkpt lat="68.3599" lon="27.95374"/><trkpt lat="68.3598" lon="27.95349"/><trkpt lat="68.35969" lon="27.95331"/><trkpt lat="68.35962" lon="27.9531"/><trkpt lat="68.3595" lon="27.95297"/><trkpt lat="68.35939" lon="27.95267"/><trkpt lat="68.35935" lon="27.95227"/><trkpt lat="68.35949" lon="27.95156"/><trkpt lat="68.35954" lon="27.95121"/><trkpt lat="68.35951" lon="27.95079"/><trkpt lat="68.35944" lon="27.95057"/><trkpt lat="68.35941" lon="27.95026"/><trkpt lat="68.35933" lon="27.94991"/><trkpt lat="68.35927262765189" lon="27.94974505449921"/><trkpt lat="68.35927262788235" lon="27.94974505449921"/><trkpt lat="68.35909" lon="27.94922"/><trkpt lat="68.35909" lon="27.94922"/><trkpt lat="68.35897" lon="27.94862"/><trkpt lat="68.35889" lon="27.94834"/><trkpt lat="68.35889" lon="27.94804"/><trkpt lat="68.35879" lon="27.94762"/><trkpt lat="68.35877" lon="27.94731"/><trkpt lat="68.3587" lon="27.94722"/><trkpt lat="68.3587" lon="27.94722"/><trkpt lat="68.35868" lon="27.94719"/><trkpt lat="68.35853" lon="27.94669"/><trkpt lat="68.35837" lon="27.94569"/><trkpt lat="68.35827" lon="27.94535"/><trkpt lat="68.35822" lon="27.94485"/><trkpt lat="68.35815" lon="27.94464"/><trkpt lat="68.35805" lon="27.94418"/><trkpt lat="68.35786" lon="27.94389"/><trkpt lat="68.35771" lon="27.94382"/><trkpt lat="68.3573" lon="27.94284"/><trkpt lat="68.35718" lon="27.94253"/><trkpt lat="68.35705" lon="27.94191"/><trkpt lat="68.35687" lon="27.94161"/><trkpt lat="68.35685" lon="27.94121"/><trkpt lat="68.35665" lon="27.94111"/><trkpt lat="68.35648" lon="27.94098"/><trkpt lat="68.35619" lon="27.9411"/><trkpt lat="68.35608" lon="27.94103"/><trkpt lat="68.35591" lon="27.94086"/><trkpt lat="68.35577" lon="27.9409"/><trkpt lat="68.35556" lon="27.94063"/><trkpt lat="68.35541" lon="27.94054"/><trkpt lat="68.3552" lon="27.94027"/><trkpt lat="68.3549" lon="27.93994"/><trkpt lat="68.35471" lon="27.93988"/><trkpt lat="68.35459" lon="27.93967"/><trkpt lat="68.35437" lon="27.93945"/><trkpt lat="68.35418" lon="27.93916"/><trkpt lat="68.3539" lon="27.93892"/><trkpt lat="68.3536" lon="27.93882"/><trkpt lat="68.3534" lon="27.93868"/><trkpt lat="68.35316" lon="27.93883"/><trkpt lat="68.35294" lon="27.93888"/><trkpt lat="68.35282" lon="27.93877"/><trkpt lat="68.35265" lon="27.93881"/><trkpt lat="68.35241" lon="27.93846"/><trkpt lat="68.35216" lon="27.93799"/><trkpt lat="68.35192" lon="27.93717"/><trkpt lat="68.35169" lon="27.93643"/><trkpt lat="68.35158032268727" lon="27.93613967832453"/><trkpt lat="68.35158032268727" lon="27.93613967832453"/><trkpt lat="68.35152" lon="27.93598"/><trkpt lat="68.35126" lon="27.9351"/><trkpt lat="68.35107" lon="27.9342"/><trkpt lat="68.35091" lon="27.93313"/><trkpt lat="68.35089" lon="27.93271"/><trkpt lat="68.35082" lon="27.93229"/><trkpt lat="68.3507" lon="27.93185"/><trkpt lat="68.35059" lon="27.931"/><trkpt lat="68.35059" lon="27.931"/><trkpt lat="68.35057" lon="27.93081"/><trkpt lat="68.35018" lon="27.92914"/><trkpt lat="68.35015" lon="27.92859"/><trkpt lat="68.35013" lon="27.92745"/><trkpt lat="68.35012" lon="27.92725"/><trkpt lat="68.35012" lon="27.92725"/><trkpt lat="68.35011" lon="27.92703"/><trkpt lat="68.35013" lon="27.92593"/><trkpt lat="68.35016" lon="27.9253"/><trkpt lat="68.35018" lon="27.92406"/><trkpt lat="68.35024" lon="27.92341"/><trkpt lat="68.35038" lon="27.92285"/><trkpt lat="68.35044" lon="27.92201"/><trkpt lat="68.3504" lon="27.92121"/><trkpt lat="68.35035" lon="27.91988"/><trkpt lat="68.35029" lon="27.91913"/><trkpt lat="68.35021" lon="27.91716"/><trkpt lat="68.35008" lon="27.91548"/><trkpt lat="68.35" lon="27.91418"/><trkpt lat="68.34978" lon="27.9127"/><trkpt lat="68.34963" lon="27.91114"/><trkpt lat="68.34947" lon="27.9105"/><trkpt lat="68.3491696013743" lon="27.90715685400426"/><trkpt lat="68.34916960143767" lon="27.907156854004263"/><trkpt lat="68.34916" lon="27.90705"/><trkpt lat="68.34911" lon="27.90616"/><trkpt lat="68.34916" lon="27.90547"/><trkpt lat="68.34915" lon="27.90527"/><trkpt lat="68.34915" lon="27.90527"/><trkpt lat="68.34914" lon="27.9051"/><trkpt lat="68.34908" lon="27.90479"/><trkpt lat="68.34893" lon="27.90431"/><trkpt lat="68.34893" lon="27.90431"/><trkpt lat="68.34885" lon="27.9044"/><trkpt lat="68.34868" lon="27.9044"/><trkpt lat="68.34859" lon="27.90435"/><trkpt lat="68.34847" lon="27.90421"/><trkpt lat="68.34847" lon="27.90421"/><trkpt lat="68.34847" lon="27.90421"/><trkpt lat="68.34827" lon="27.90381"/><trkpt lat="68.3481" lon="27.90362"/><trkpt lat="68.34797" lon="27.90363"/><trkpt lat="68.34791" lon="27.90354"/><trkpt lat="68.34779" lon="27.90355"/><trkpt lat="68.34779" lon="27.90355"/><trkpt lat="68.34779" lon="27.90355"/><trkpt lat="68.34765" lon="27.90339"/><trkpt lat="68.34752" lon="27.90339"/><trkpt lat="68.34744" lon="27.90318"/><trkpt lat="68.3473" lon="27.90317"/><trkpt lat="68.3468" lon="27.90258"/><trkpt lat="68.34648" lon="27.90217"/><trkpt lat="68.34631" lon="27.90213"/><trkpt lat="68.34626" lon="27.90232"/><trkpt lat="68.34581575882822" lon="27.90218602250375"/><trkpt lat="68.34581576064208" lon="27.90218602250375"/><trkpt lat="68.34563" lon="27.90213"/><trkpt lat="68.3455" lon="27.90201"/><trkpt lat="68.34545000000901" lon="27.902069999989187"/><trkpt lat="68.34545000000901" lon="27.902069999989187"/><trkpt lat="68.3454" lon="27.90213"/><trkpt lat="68.34522" lon="27.902"/><trkpt lat="68.34515" lon="27.90201"/><trkpt lat="68.34494" lon="27.90188"/><trkpt lat="68.34494" lon="27.90188"/><trkpt lat="68.34494" lon="27.90188"/><trkpt lat="68.34478" lon="27.9016"/><trkpt lat="68.34472" lon="27.90154"/><trkpt lat="68.34459" lon="27.90107"/><trkpt lat="68.34452" lon="27.90073"/><trkpt lat="68.34439" lon="27.90033"/><trkpt lat="68.34431" lon="27.90016"/><trkpt lat="68.34427" lon="27.8999"/><trkpt lat="68.34409" lon="27.89944"/><trkpt lat="68.344" lon="27.89913"/><trkpt lat="68.3439" lon="27.89885"/><trkpt lat="68.34385" lon="27.89865"/><trkpt lat="68.34381" lon="27.89839"/><trkpt lat="68.34372" lon="27.89839"/><trkpt lat="68.34349" lon="27.89776"/><trkpt lat="68.34343" lon="27.89746"/><trkpt lat="68.34341" lon="27.89687"/><trkpt lat="68.34333" lon="27.89674"/><trkpt lat="68.34331" lon="27.89638"/><trkpt lat="68.34331" lon="27.89638"/><trkpt lat="68.34331" lon="27.89638"/><trkpt lat="68.34308" lon="27.89585"/><trkpt lat="68.34297" lon="27.89574"/><trkpt lat="68.34285" lon="27.89523"/><trkpt lat="68.34269" lon="27.89482"/><trkpt lat="68.34249" lon="27.89432"/><trkpt lat="68.34249" lon="27.89432"/><trkpt lat="68.34232" lon="27.89375"/><trkpt lat="68.3422303022983" lon="27.893350437055318"/><trkpt lat="68.3422303022983" lon="27.893350437055318"/><trkpt lat="68.3421" lon="27.89277"/><trkpt lat="68.34199" lon="27.89235"/><trkpt lat="68.34181" lon="27.89193"/><trkpt lat="68.34177" lon="27.88963"/><trkpt lat="68.34172" lon="27.88873"/><trkpt lat="68.34169" lon="27.88771"/><trkpt lat="68.34168134741995" lon="27.887612658474364"/></trkseg></trk></gpx>