<?xml version="1.0"?>
<gpx xmlns="http://www.topografix.com/GPX/1/1" xmlns:gpxx="http://www.garmin.com/xmlschemas/GpxExtensions/v3" creator="CALTOPO" version="1.1"><metadata><name><![CDATA[kotakongas-tuiskukuru]]></name></metadata><trk><name>kotakongas-tuiskukuru</name><trkseg><trkpt lat="68.27473087915479" lon="27.74858951568604"/><trkpt lat="68.27458989585261" lon="27.74791"/><trkpt lat="68.27436" lon="27.74791"/><trkpt lat="68.2742" lon="27.7478"/><trkpt lat="68.27413" lon="27.74779"/><trkpt lat="68.27406" lon="27.74786"/><trkpt lat="68.27388" lon="27.74811"/><trkpt lat="68.2737" lon="27.74827"/><trkpt lat="68.27341" lon="27.74847"/><trkpt lat="68.27281" lon="27.74864"/><trkpt lat="68.27239" lon="27.74887"/><trkpt lat="68.2722" lon="27.74888"/><trkpt lat="68.27206" lon="27.74868"/><trkpt lat="68.27182" lon="27.74873"/><trkpt lat="68.27168" lon="27.74882"/><trkpt lat="68.27143" lon="27.74887"/><trkpt lat="68.2713" lon="27.74925"/><trkpt lat="68.27111" lon="27.74923"/><trkpt lat="68.27098" lon="27.74931"/><trkpt lat="68.27067" lon="27.74925"/><trkpt lat="68.27056" lon="27.74953"/><trkpt lat="68.27036" lon="27.74963"/><trkpt lat="68.27013" lon="27.74954"/><trkpt lat="68.26988650744627" lon="27.749567054728193"/><trkpt lat="68.26988650758759" lon="27.749567054728193"/><trkpt lat="68.26986" lon="27.74957"/><trkpt lat="68.2696" lon="27.74942"/><trkpt lat="68.26939" lon="27.74937"/><trkpt lat="68.26939" lon="27.74937"/><trkpt lat="68.26929" lon="27.74934"/><trkpt lat="68.26911" lon="27.749"/><trkpt lat="68.26888" lon="27.74877"/><trkpt lat="68.26866" lon="27.74864"/><trkpt lat="68.26846" lon="27.74787"/><trkpt lat="68.2684" lon="27.74741"/><trkpt lat="68.26837" lon="27.747"/><trkpt lat="68.26826" lon="27.7466"/><trkpt lat="68.26816" lon="27.74608"/><trkpt lat="68.26813" lon="27.74563"/><trkpt lat="68.26816" lon="27.74462"/><trkpt lat="68.26806" lon="27.74394"/><trkpt lat="68.26791" lon="27.74312"/><trkpt lat="68.26766" lon="27.74236"/><trkpt lat="68.26752" lon="27.74215"/><trkpt lat="68.2673363484219" lon="27.742071292135403"/><trkpt lat="68.26731" lon="27.74206"/><trkpt lat="68.26719" lon="27.74186"/><trkpt lat="68.26719" lon="27.74186"/><trkpt lat="68.26719" lon="27.74186"/><trkpt lat="68.26686" lon="27.74203"/><trkpt lat="68.26657" lon="27.74212"/><trkpt lat="68.26611" lon="27.74204"/><trkpt lat="68.26592" lon="27.74236"/><trkpt lat="68.26567" lon="27.74246"/><trkpt lat="68.26528" lon="27.74235"/><trkpt lat="68.26513" lon="27.74239"/><trkpt lat="68.26475" lon="27.7423"/><trkpt lat="68.26436" lon="27.74209"/><trkpt lat="68.2641" lon="27.74198"/><trkpt lat="68.26387026589983" lon="27.74192894797774"/><trkpt lat="68.26387026610229" lon="27.74192894797774"/><trkpt lat="68.26383" lon="27.74192"/><trkpt lat="68.26361" lon="27.7418"/><trkpt lat="68.26344" lon="27.74189"/><trkpt lat="68.26334" lon="27.74187"/><trkpt lat="68.26291" lon="27.74224"/><trkpt lat="68.26265" lon="27.74226"/><trkpt lat="68.26223" lon="27.74219"/><trkpt lat="68.26201" lon="27.74259"/><trkpt lat="68.26171" lon="27.74285"/><trkpt lat="68.26138" lon="27.74304"/><trkpt lat="68.26125" lon="27.74317"/><trkpt lat="68.26125" lon="27.74317"/><trkpt lat="68.26071" lon="27.74396"/><trkpt lat="68.2604" lon="27.74418"/><trkpt lat="68.26018" lon="27.74421"/><trkpt lat="68.25925" lon="27.74548"/><trkpt lat="68.25899" lon="27.74548"/><trkpt lat="68.25887" lon="27.74557"/><trkpt lat="68.25872" lon="27.74615"/><trkpt lat="68.25847" lon="27.74629"/><trkpt lat="68.25841787175162" lon="27.746438937852517"/><trkpt lat="68.25841787185185" lon="27.746438937852517"/><trkpt lat="68.25833" lon="27.74669"/><trkpt lat="68.25817" lon="27.74755"/><trkpt lat="68.25802" lon="27.7479"/><trkpt lat="68.25775" lon="27.74818"/><trkpt lat="68.25747" lon="27.74901"/><trkpt lat="68.25722" lon="27.74958"/><trkpt lat="68.25694" lon="27.74987"/><trkpt lat="68.25679" lon="27.74994"/><trkpt lat="68.25623" lon="27.75094"/><trkpt lat="68.25613" lon="27.75136"/><trkpt lat="68.25606" lon="27.75146"/><trkpt lat="68.25606" lon="27.75146"/><trkpt lat="68.25591" lon="27.75166"/><trkpt lat="68.25506" lon="27.75311"/><trkpt lat="68.25381" lon="27.75565"/><trkpt lat="68.25329" lon="27.75687"/><trkpt lat="68.25311" lon="27.75778"/><trkpt lat="68.25311" lon="27.75778"/><trkpt lat="68.25307" lon="27.75798"/><trkpt lat="68.25296" lon="27.75823"/><trkpt lat="68.2528" lon="27.75867"/><trkpt lat="68.25262" lon="27.75889"/><trkpt lat="68.25237" lon="27.75901"/><trkpt lat="68.25188" lon="27.75968"/><trkpt lat="68.25168" lon="27.76008"/><trkpt lat="68.25154" lon="27.76059"/><trkpt lat="68.25148" lon="27.76085"/><trkpt lat="68.25094" lon="27.76177"/><trkpt lat="68.2507" lon="27.76243"/><trkpt lat="68.2501" lon="27.76329"/><trkpt lat="68.24999" lon="27.7635"/><trkpt lat="68.24986" lon="27.76369"/><trkpt lat="68.24956" lon="27.76442"/><trkpt lat="68.24942" lon="27.76462"/><trkpt lat="68.24934" lon="27.76507"/><trkpt lat="68.24931296616427" lon="27.765122838860762"/><trkpt lat="68.24931296627837" lon="27.765122838860762"/><trkpt lat="68.24912" lon="27.7655"/><trkpt lat="68.24878" lon="27.76591"/><trkpt lat="68.24855" lon="27.76641"/><trkpt lat="68.24832" lon="27.76676"/><trkpt lat="68.2481" lon="27.76738"/><trkpt lat="68.24782" lon="27.7681"/><trkpt lat="68.24767" lon="27.76855"/><trkpt lat="68.24752" lon="27.76889"/><trkpt lat="68.24729" lon="27.76989"/><trkpt lat="68.24712" lon="27.77021"/><trkpt lat="68.24697" lon="27.77056"/><trkpt lat="68.24685" lon="27.77117"/><trkpt lat="68.24669" lon="27.77222"/><trkpt lat="68.24651" lon="27.77306"/><trkpt lat="68.2462" lon="27.7734"/><trkpt lat="68.24613" lon="27.77344"/><trkpt lat="68.24613" lon="27.77344"/><trkpt lat="68.24584" lon="27.77358"/><trkpt lat="68.24553" lon="27.77361"/><trkpt lat="68.24519" lon="27.77372"/><trkpt lat="68.24499" lon="27.77359"/><trkpt lat="68.24497" lon="27.77361"/><trkpt lat="68.24497" lon="27.77361"/><trkpt lat="68.24478" lon="27.77382"/><trkpt lat="68.2445" lon="27.77399"/><trkpt lat="68.24434" lon="27.77421"/><trkpt lat="68.24419" lon="27.77453"/><trkpt lat="68.24414" lon="27.7748"/><trkpt lat="68.24409" lon="27.77507"/><trkpt lat="68.24387" lon="27.77597"/><trkpt lat="68.24379" lon="27.77617"/><trkpt lat="68.24373" lon="27.77658"/><trkpt lat="68.24359" lon="27.77733"/><trkpt lat="68.24341" lon="27.77794"/><trkpt lat="68.24325" lon="27.77839"/><trkpt lat="68.24298" lon="27.77882"/><trkpt lat="68.24287" lon="27.77931"/><trkpt lat="68.24275" lon="27.77972"/><trkpt lat="68.24251" lon="27.78011"/><trkpt lat="68.24251" lon="27.78011"/><trkpt lat="68.24228" lon="27.78058"/><trkpt lat="68.24223883837735" lon="27.780844610431334"/><trkpt lat="68.2422388384033" lon="27.780844610431334"/><trkpt lat="68.24221" lon="27.78103"/><trkpt lat="68.24227" lon="27.78144"/><trkpt lat="68.24239" lon="27.78195"/><trkpt lat="68.24239" lon="27.78256"/><trkpt lat="68.24231" lon="27.78316"/><trkpt lat="68.24218" lon="27.78401"/><trkpt lat="68.24175" lon="27.78541"/><trkpt lat="68.24117" lon="27.78713"/><trkpt lat="68.24085" lon="27.78788"/><trkpt lat="68.24068" lon="27.78848"/><trkpt lat="68.24032" lon="27.78951"/><trkpt lat="68.24006" lon="27.79004"/><trkpt lat="68.23985" lon="27.79061"/><trkpt lat="68.23961" lon="27.79152"/><trkpt lat="68.23936" lon="27.79154"/><trkpt lat="68.23925" lon="27.79194"/><trkpt lat="68.23903" lon="27.79218"/><trkpt lat="68.23879" lon="27.79275"/><trkpt lat="68.23843" lon="27.7938"/><trkpt lat="68.23823" lon="27.79415"/><trkpt lat="68.23812" lon="27.79459"/><trkpt lat="68.23761" lon="27.79541"/><trkpt lat="68.23761" lon="27.79541"/><trkpt lat="68.23754" lon="27.79552"/><trkpt lat="68.23715" lon="27.79599"/><trkpt lat="68.23701" lon="27.79663"/><trkpt lat="68.23699" lon="27.79694"/><trkpt lat="68.23691" lon="27.79716"/><trkpt lat="68.23682" lon="27.7972"/><trkpt lat="68.23682" lon="27.7972"/><trkpt lat="68.23662" lon="27.7973"/><trkpt lat="68.2365" lon="27.79765"/><trkpt lat="68.23628" lon="27.79805"/><trkpt lat="68.23603" lon="27.79876"/><trkpt lat="68.23555" lon="27.79991"/><trkpt lat="68.23509" lon="27.80106"/><trkpt lat="68.2346" lon="27.80252"/><trkpt lat="68.23433" lon="27.80351"/><trkpt lat="68.23399" lon="27.80386"/><trkpt lat="68.23367" lon="27.80479"/><trkpt lat="68.23314" lon="27.80606"/><trkpt lat="68.23278" lon="27.80644"/><trkpt lat="68.23268" lon="27.80709"/><trkpt lat="68.23233" lon="27.80762"/><trkpt lat="68.23195" lon="27.80865"/><trkpt lat="68.23171" lon="27.80891"/><trkpt lat="68.23156" lon="27.80944"/><trkpt lat="68.2313" lon="27.80992"/><trkpt lat="68.23123" lon="27.81025"/><trkpt lat="68.23104" lon="27.8106"/><trkpt lat="68.23079" lon="27.81087"/><trkpt lat="68.23045" lon="27.8113"/><trkpt lat="68.23034" lon="27.81161"/><trkpt lat="68.23016" lon="27.8119"/><trkpt lat="68.23005" lon="27.81234"/><trkpt lat="68.22985" lon="27.81261"/><trkpt lat="68.22963" lon="27.81334"/><trkpt lat="68.22951" lon="27.81394"/><trkpt lat="68.22946" lon="27.81467"/><trkpt lat="68.2293" lon="27.81508"/><trkpt lat="68.22911" lon="27.81574"/><trkpt lat="68.22884" lon="27.81623"/><trkpt lat="68.22867" lon="27.81633"/><trkpt lat="68.22867" lon="27.81633"/><trkpt lat="68.22861" lon="27.81636"/><trkpt lat="68.22834" lon="27.81704"/><trkpt lat="68.22806" lon="27.81728"/><trkpt lat="68.22803" lon="27.81738"/><trkpt lat="68.22803" lon="27.81738"/><trkpt lat="68.22792" lon="27.81775"/><trkpt lat="68.22774" lon="27.81826"/><trkpt lat="68.22742" lon="27.81945"/><trkpt lat="68.22695" lon="27.82017"/><trkpt lat="68.22667" lon="27.82041"/><trkpt lat="68.22654" lon="27.82084"/><trkpt lat="68.22637906931584" lon="27.821112882464444"/><trkpt lat="68.22637906955869" lon="27.82111288246444"/><trkpt lat="68.22631" lon="27.82123"/><trkpt lat="68.22619" lon="27.82155"/><trkpt lat="68.226" lon="27.82212"/><trkpt lat="68.22571" lon="27.82242"/><trkpt lat="68.22529" lon="27.82301"/><trkpt lat="68.22487" lon="27.82342"/><trkpt lat="68.22456" lon="27.82358"/><trkpt lat="68.22441" lon="27.82403"/><trkpt lat="68.22431" lon="27.82454"/><trkpt lat="68.22411" lon="27.82475"/><trkpt lat="68.22385" lon="27.82476"/><trkpt lat="68.22379" lon="27.82513"/><trkpt lat="68.22351" lon="27.82611"/><trkpt lat="68.22337" lon="27.82639"/><trkpt lat="68.22318" lon="27.82671"/><trkpt lat="68.2229" lon="27.8268"/><trkpt lat="68.22249" lon="27.82745"/><trkpt lat="68.22229" lon="27.8274"/><trkpt lat="68.22212" lon="27.8275"/><trkpt lat="68.22183" lon="27.82788"/><trkpt lat="68.22159" lon="27.82846"/><trkpt lat="68.22121" lon="27.82884"/><trkpt lat="68.22085" lon="27.82971"/><trkpt lat="68.22054" lon="27.83032"/><trkpt lat="68.22052" lon="27.83039"/><trkpt lat="68.22052" lon="27.83039"/><trkpt lat="68.22029" lon="27.83125"/><trkpt lat="68.22004" lon="27.83161"/><trkpt lat="68.21992" lon="27.83218"/><trkpt lat="68.2197" lon="27.83264"/><trkpt lat="68.21945" lon="27.83282"/><trkpt lat="68.21902" lon="27.83399"/><trkpt lat="68.21865" lon="27.8349"/><trkpt lat="68.21846" lon="27.83557"/><trkpt lat="68.21835" lon="27.83609"/><trkpt lat="68.21835" lon="27.83609"/><trkpt lat="68.21835" lon="27.83609"/><trkpt lat="68.21826" lon="27.8365"/><trkpt lat="68.21803" lon="27.83696"/><trkpt lat="68.21789" lon="27.83728"/><trkpt lat="68.21779" lon="27.8374"/><trkpt lat="68.21767" lon="27.83788"/><trkpt lat="68.2175" lon="27.838"/><trkpt lat="68.21736" lon="27.83796"/><trkpt lat="68.21730123535241" lon="27.838038912526763"/><trkpt lat="68.21730123572611" lon="27.83803891252676"/><trkpt lat="68.21701" lon="27.83843"/><trkpt lat="68.2167" lon="27.83936"/><trkpt lat="68.2167" lon="27.83936"/><trkpt lat="68.21665" lon="27.83952"/><trkpt lat="68.21597" lon="27.84112"/><trkpt lat="68.21591" lon="27.8414"/><trkpt lat="68.21585" lon="27.84185"/><trkpt lat="68.21576" lon="27.84211"/><trkpt lat="68.21538" lon="27.84239"/><trkpt lat="68.21515" lon="27.84262"/><trkpt lat="68.21481" lon="27.84318"/><trkpt lat="68.21444" lon="27.84351"/><trkpt lat="68.21414" lon="27.84363"/><trkpt lat="68.21385" lon="27.84353"/><trkpt lat="68.21363" lon="27.84357"/><trkpt lat="68.21352" lon="27.84341"/><trkpt lat="68.21352100214189" lon="27.843411457222583"/><trkpt lat="68.21346" lon="27.84351"/><trkpt lat="68.21335" lon="27.84352"/><trkpt lat="68.21328356011719" lon="27.843480136070315"/></trkseg></trk></gpx>