<?xml version="1.0"?>
<gpx xmlns="http://www.topografix.com/GPX/1/1" xmlns:gpxx="http://www.garmin.com/xmlschemas/GpxExtensions/v3" creator="CALTOPO" version="1.1"><metadata><name><![CDATA[porttikoski-kotakongas]]></name></metadata><trk><name>porttikoski-kotakongas</name><trkseg><trkpt lat="68.3416776826043" lon="27.88757142929869"/><trkpt lat="68.34167768260433" lon="27.88757142929869"/><trkpt lat="68.34168" lon="27.88757"/><trkpt lat="68.34155" lon="27.88748"/><trkpt lat="68.34122" lon="27.88758"/><trkpt lat="68.34099" lon="27.8875"/><trkpt lat="68.34068" lon="27.88715"/><trkpt lat="68.34052" lon="27.88682"/><trkpt lat="68.34029" lon="27.8862"/><trkpt lat="68.34012" lon="27.88587"/><trkpt lat="68.33954" lon="27.88538"/><trkpt lat="68.3394" lon="27.88513"/><trkpt lat="68.33935" lon="27.88497"/><trkpt lat="68.33935" lon="27.88497"/><trkpt lat="68.33935" lon="27.88497"/><trkpt lat="68.33935" lon="27.88428"/><trkpt lat="68.33935233141963" lon="27.884229485907845"/><trkpt lat="68.33935233142105" lon="27.884229485907845"/><trkpt lat="68.33938" lon="27.88363"/><trkpt lat="68.33937988858702" lon="27.883632410874096"/><trkpt lat="68.33919" lon="27.88339"/><trkpt lat="68.33916" lon="27.8833"/><trkpt lat="68.33916" lon="27.8833"/><trkpt lat="68.33892" lon="27.88261"/><trkpt lat="68.3389" lon="27.88235"/><trkpt lat="68.33894" lon="27.88193"/><trkpt lat="68.33924" lon="27.88159"/><trkpt lat="68.33939" lon="27.88053"/><trkpt lat="68.33939" lon="27.88053"/><trkpt lat="68.33939" lon="27.88053"/><trkpt lat="68.33937" lon="27.8797"/><trkpt lat="68.33925" lon="27.87873"/><trkpt lat="68.33914" lon="27.87697"/><trkpt lat="68.33861" lon="27.87474"/><trkpt lat="68.33851" lon="27.87378"/><trkpt lat="68.33829" lon="27.87339"/><trkpt lat="68.33803" lon="27.87195"/><trkpt lat="68.33784" lon="27.86978"/><trkpt lat="68.33759" lon="27.8689"/><trkpt lat="68.33708" lon="27.86762"/><trkpt lat="68.33708" lon="27.86762"/><trkpt lat="68.33708" lon="27.86762"/><trkpt lat="68.33632" lon="27.86671"/><trkpt lat="68.33541" lon="27.86616"/><trkpt lat="68.33481" lon="27.86599"/><trkpt lat="68.33471552990191" lon="27.86594825739852"/><trkpt lat="68.33471553059825" lon="27.86594825739852"/><trkpt lat="68.33438" lon="27.8658"/><trkpt lat="68.33438" lon="27.8658"/><trkpt lat="68.3338" lon="27.86566"/><trkpt lat="68.33335" lon="27.86581"/><trkpt lat="68.33272" lon="27.8656"/><trkpt lat="68.33168" lon="27.86534"/><trkpt lat="68.33112" lon="27.86547"/><trkpt lat="68.33096" lon="27.86543"/><trkpt lat="68.33067" lon="27.86515"/><trkpt lat="68.32957" lon="27.86478"/><trkpt lat="68.32957" lon="27.86478"/><trkpt lat="68.32957" lon="27.86478"/><trkpt lat="68.32938" lon="27.865"/><trkpt lat="68.32906" lon="27.86558"/><trkpt lat="68.32906" lon="27.86558"/><trkpt lat="68.32885" lon="27.86592"/><trkpt lat="68.32781" lon="27.86611"/><trkpt lat="68.32738919541382" lon="27.865981182269532"/><trkpt lat="68.32738919605322" lon="27.865981182269536"/><trkpt lat="68.32732" lon="27.86596"/><trkpt lat="68.32699" lon="27.86573"/><trkpt lat="68.32649" lon="27.86648"/><trkpt lat="68.32626" lon="27.86653"/><trkpt lat="68.32626" lon="27.86653"/><trkpt lat="68.32599" lon="27.86652"/><trkpt lat="68.32482" lon="27.86584"/><trkpt lat="68.32394" lon="27.86472"/><trkpt lat="68.32296" lon="27.86373"/><trkpt lat="68.32092" lon="27.86206"/><trkpt lat="68.32001236024892" lon="27.861362550507064"/><trkpt lat="68.32001236024892" lon="27.861362550507064"/><trkpt lat="68.31997" lon="27.86133"/><trkpt lat="68.31997" lon="27.86133"/><trkpt lat="68.31955" lon="27.86086"/><trkpt lat="68.31925" lon="27.86063"/><trkpt lat="68.31894544624409" lon="27.860186410833784"/><trkpt lat="68.31894544728327" lon="27.860186410833787"/><trkpt lat="68.31879" lon="27.85996"/><trkpt lat="68.31834" lon="27.85918"/><trkpt lat="68.31815" lon="27.85848"/><trkpt lat="68.31815" lon="27.85848"/><trkpt lat="68.31801" lon="27.85808"/><trkpt lat="68.31778" lon="27.85688"/><trkpt lat="68.31764" lon="27.85671"/><trkpt lat="68.31748" lon="27.85598"/><trkpt lat="68.31746" lon="27.85558"/><trkpt lat="68.31756" lon="27.855"/><trkpt lat="68.31756" lon="27.85457"/><trkpt lat="68.31752" lon="27.85431"/><trkpt lat="68.31752" lon="27.85431"/><trkpt lat="68.31752" lon="27.85431"/><trkpt lat="68.31729" lon="27.85347"/><trkpt lat="68.31669" lon="27.85203"/><trkpt lat="68.3165" lon="27.85141"/><trkpt lat="68.31625" lon="27.84997"/><trkpt lat="68.31604" lon="27.84927"/><trkpt lat="68.31584" lon="27.84842"/><trkpt lat="68.31575" lon="27.84746"/><trkpt lat="68.31577" lon="27.84658"/><trkpt lat="68.31577" lon="27.84658"/><trkpt lat="68.3158" lon="27.84596"/><trkpt lat="68.31576054900455" lon="27.84560099594137"/><trkpt lat="68.31576054905698" lon="27.845600995941375"/><trkpt lat="68.3157" lon="27.84505"/><trkpt lat="68.31559" lon="27.84383"/><trkpt lat="68.31548" lon="27.84355"/><trkpt lat="68.31547" lon="27.84312"/><trkpt lat="68.31559" lon="27.84239"/><trkpt lat="68.31557" lon="27.84175"/><trkpt lat="68.31559" lon="27.8405"/><trkpt lat="68.31555" lon="27.83991"/><trkpt lat="68.3155" lon="27.83943"/><trkpt lat="68.31551" lon="27.83936"/><trkpt lat="68.31551" lon="27.83936"/><trkpt lat="68.31552" lon="27.83881"/><trkpt lat="68.31545" lon="27.83807"/><trkpt lat="68.31541" lon="27.83704"/><trkpt lat="68.31536" lon="27.83634"/><trkpt lat="68.31526" lon="27.83613"/><trkpt lat="68.3152" lon="27.83588"/><trkpt lat="68.31522" lon="27.83493"/><trkpt lat="68.31531" lon="27.83432"/><trkpt lat="68.31523" lon="27.83392"/><trkpt lat="68.31508" lon="27.83349"/><trkpt lat="68.31476" lon="27.83313"/><trkpt lat="68.3146" lon="27.83262"/><trkpt lat="68.31465" lon="27.83208"/><trkpt lat="68.31459" lon="27.83169"/><trkpt lat="68.31444" lon="27.83151"/><trkpt lat="68.31435" lon="27.83088"/><trkpt lat="68.31423" lon="27.83055"/><trkpt lat="68.31423" lon="27.83055"/><trkpt lat="68.31423" lon="27.83055"/><trkpt lat="68.31413" lon="27.83048"/><trkpt lat="68.31399" lon="27.83048"/><trkpt lat="68.31399" lon="27.83048"/><trkpt lat="68.31399" lon="27.83048"/><trkpt lat="68.31353" lon="27.83025"/><trkpt lat="68.31333" lon="27.83019"/><trkpt lat="68.31318" lon="27.82998"/><trkpt lat="68.31298" lon="27.82962"/><trkpt lat="68.31274" lon="27.82883"/><trkpt lat="68.31261" lon="27.82827"/><trkpt lat="68.31256" lon="27.82787"/><trkpt lat="68.31247" lon="27.82751"/><trkpt lat="68.31246" lon="27.82629"/><trkpt lat="68.31248" lon="27.82571"/><trkpt lat="68.31232" lon="27.82509"/><trkpt lat="68.31233918175973" lon="27.82499683145276"/><trkpt lat="68.3123391817811" lon="27.82499683145276"/><trkpt lat="68.31239" lon="27.82475"/><trkpt lat="68.31235" lon="27.82441"/><trkpt lat="68.31221" lon="27.82403"/><trkpt lat="68.31193" lon="27.82384"/><trkpt lat="68.31171" lon="27.82345"/><trkpt lat="68.31147" lon="27.82351"/><trkpt lat="68.31115" lon="27.82307"/><trkpt lat="68.31093" lon="27.82307"/><trkpt lat="68.31085" lon="27.82281"/><trkpt lat="68.31063" lon="27.82264"/><trkpt lat="68.31003" lon="27.82249"/><trkpt lat="68.31003" lon="27.82249"/><trkpt lat="68.30945" lon="27.82227"/><trkpt lat="68.30876" lon="27.82182"/><trkpt lat="68.30864" lon="27.82186"/><trkpt lat="68.30854" lon="27.82183"/><trkpt lat="68.30842" lon="27.82165"/><trkpt lat="68.30824" lon="27.82132"/><trkpt lat="68.30805" lon="27.82078"/><trkpt lat="68.30786" lon="27.82058"/><trkpt lat="68.30761" lon="27.81998"/><trkpt lat="68.30717" lon="27.81938"/><trkpt lat="68.30695" lon="27.81919"/><trkpt lat="68.30669" lon="27.81916"/><trkpt lat="68.30669" lon="27.81916"/><trkpt lat="68.30624" lon="27.81891"/><trkpt lat="68.30586" lon="27.81889"/><trkpt lat="68.30566" lon="27.81916"/><trkpt lat="68.30542" lon="27.8191"/><trkpt lat="68.3051" lon="27.81935"/><trkpt lat="68.30453" lon="27.81949"/><trkpt lat="68.3042" lon="27.8192"/><trkpt lat="68.30391" lon="27.81889"/><trkpt lat="68.30368" lon="27.81888"/><trkpt lat="68.30334" lon="27.81862"/><trkpt lat="68.30307" lon="27.81834"/><trkpt lat="68.30276" lon="27.81823"/><trkpt lat="68.30226" lon="27.81782"/><trkpt lat="68.3021" lon="27.81779"/><trkpt lat="68.30194" lon="27.81791"/><trkpt lat="68.3019" lon="27.8179"/><trkpt lat="68.3019" lon="27.8179"/><trkpt lat="68.30183" lon="27.81787"/><trkpt lat="68.30173" lon="27.81767"/><trkpt lat="68.30167" lon="27.81738"/><trkpt lat="68.30167" lon="27.81738"/><trkpt lat="68.30165" lon="27.81729"/><trkpt lat="68.30163" lon="27.81696"/><trkpt lat="68.30168" lon="27.81612"/><trkpt lat="68.30168" lon="27.81612"/><trkpt lat="68.30175" lon="27.81601"/><trkpt lat="68.3019" lon="27.81589"/><trkpt lat="68.3019" lon="27.81589"/><trkpt lat="68.30202" lon="27.81581"/><trkpt lat="68.30243" lon="27.8142"/><trkpt lat="68.30268" lon="27.81374"/><trkpt lat="68.30268" lon="27.81374"/><trkpt lat="68.30268" lon="27.81374"/><trkpt lat="68.30252181708306" lon="27.812878781896654"/><trkpt lat="68.30252181715876" lon="27.81287878189665"/><trkpt lat="68.3025" lon="27.81276"/><trkpt lat="68.3023" lon="27.81199"/><trkpt lat="68.30204" lon="27.81132"/><trkpt lat="68.30192" lon="27.81109"/><trkpt lat="68.3019" lon="27.81096"/><trkpt lat="68.3019" lon="27.81096"/><trkpt lat="68.30186" lon="27.81061"/><trkpt lat="68.3018" lon="27.80907"/><trkpt lat="68.30188" lon="27.80784"/><trkpt lat="68.30188" lon="27.80756"/><trkpt lat="68.3018" lon="27.80728"/><trkpt lat="68.30159" lon="27.80621"/><trkpt lat="68.30161" lon="27.80594"/><trkpt lat="68.30151" lon="27.8057"/><trkpt lat="68.30149" lon="27.80541"/><trkpt lat="68.30149" lon="27.80541"/><trkpt lat="68.30137" lon="27.80453"/><trkpt lat="68.30109" lon="27.80394"/><trkpt lat="68.30086530131352" lon="27.803930637554732"/><trkpt lat="68.30086530257157" lon="27.803930637554732"/><trkpt lat="68.30061" lon="27.80392"/><trkpt lat="68.30035" lon="27.80401"/><trkpt lat="68.3" lon="27.80364"/><trkpt lat="68.29978" lon="27.80359"/><trkpt lat="68.29972" lon="27.80363"/><trkpt lat="68.29965" lon="27.80379"/><trkpt lat="68.29939" lon="27.80376"/><trkpt lat="68.29918" lon="27.80328"/><trkpt lat="68.29882" lon="27.80306"/><trkpt lat="68.29852" lon="27.80272"/><trkpt lat="68.29816" lon="27.80273"/><trkpt lat="68.29802" lon="27.80257"/><trkpt lat="68.29781" lon="27.80267"/><trkpt lat="68.29781" lon="27.80267"/><trkpt lat="68.29781" lon="27.80267"/><trkpt lat="68.29766" lon="27.80241"/><trkpt lat="68.29731" lon="27.80223"/><trkpt lat="68.29715" lon="27.80212"/><trkpt lat="68.29709" lon="27.80215"/><trkpt lat="68.29692" lon="27.80206"/><trkpt lat="68.29685" lon="27.80198"/><trkpt lat="68.29674" lon="27.80195"/><trkpt lat="68.29662" lon="27.8016"/><trkpt lat="68.29656" lon="27.80148"/><trkpt lat="68.29651" lon="27.80144"/><trkpt lat="68.29644" lon="27.80146"/><trkpt lat="68.29637" lon="27.80139"/><trkpt lat="68.29631" lon="27.80109"/><trkpt lat="68.29626" lon="27.80097"/><trkpt lat="68.29608" lon="27.80042"/><trkpt lat="68.29601" lon="27.80026"/><trkpt lat="68.29592" lon="27.80014"/><trkpt lat="68.29575" lon="27.79984"/><trkpt lat="68.29573844781861" lon="27.799803803164995"/><trkpt lat="68.29573844785367" lon="27.79980380316499"/><trkpt lat="68.2956" lon="27.79937"/><trkpt lat="68.29551" lon="27.79927"/><trkpt lat="68.29541" lon="27.79904"/><trkpt lat="68.29492" lon="27.79873"/><trkpt lat="68.29477" lon="27.79875"/><trkpt lat="68.29447" lon="27.79886"/><trkpt lat="68.29421" lon="27.79867"/><trkpt lat="68.2941" lon="27.79864"/><trkpt lat="68.29378" lon="27.79847"/><trkpt lat="68.29378" lon="27.79847"/><trkpt lat="68.29357" lon="27.79838"/><trkpt lat="68.29326" lon="27.79798"/><trkpt lat="68.29295" lon="27.79801"/><trkpt lat="68.29273" lon="27.79824"/><trkpt lat="68.29255" lon="27.79817"/><trkpt lat="68.29227" lon="27.79781"/><trkpt lat="68.29213" lon="27.79746"/><trkpt lat="68.29193" lon="27.79702"/><trkpt lat="68.29147" lon="27.79671"/><trkpt lat="68.29115" lon="27.79641"/><trkpt lat="68.29082" lon="27.79619"/><trkpt lat="68.2904" lon="27.79561"/><trkpt lat="68.2902" lon="27.79541"/><trkpt lat="68.2902" lon="27.79541"/><trkpt lat="68.28997" lon="27.79516"/><trkpt lat="68.28961" lon="27.79506"/><trkpt lat="68.28935" lon="27.79495"/><trkpt lat="68.28926" lon="27.795"/><trkpt lat="68.28915" lon="27.79493"/><trkpt lat="68.28893" lon="27.79458"/><trkpt lat="68.28887" lon="27.79446"/><trkpt lat="68.28876" lon="27.79433"/><trkpt lat="68.28868" lon="27.79412"/><trkpt lat="68.28845" lon="27.79372"/><trkpt lat="68.28829" lon="27.79361"/><trkpt lat="68.28806" lon="27.79334"/><trkpt lat="68.28732" lon="27.79268"/><trkpt lat="68.28709" lon="27.79227"/><trkpt lat="68.28611" lon="27.79146"/><trkpt lat="68.28571" lon="27.79127"/><trkpt lat="68.28565" lon="27.79121"/><trkpt lat="68.28565" lon="27.79121"/><trkpt lat="68.28514" lon="27.79072"/><trkpt lat="68.28453" lon="27.79063"/><trkpt lat="68.28427" lon="27.79056"/><trkpt lat="68.28383" lon="27.79036"/><trkpt lat="68.28331" lon="27.78968"/><trkpt lat="68.28255538646674" lon="27.78889559909043"/><trkpt lat="68.28255538655581" lon="27.78889559909043"/><trkpt lat="68.28255" lon="27.78889"/><trkpt lat="68.28241" lon="27.78849"/><trkpt lat="68.28227" lon="27.7878"/><trkpt lat="68.28221" lon="27.78758"/><trkpt lat="68.28213" lon="27.78736"/><trkpt lat="68.28213" lon="27.78736"/><trkpt lat="68.28204" lon="27.78717"/><trkpt lat="68.28204" lon="27.78717"/><trkpt lat="68.28192" lon="27.7871"/><trkpt lat="68.28192" lon="27.7871"/><trkpt lat="68.28192" lon="27.7871"/><trkpt lat="68.28184" lon="27.78671"/><trkpt lat="68.28175" lon="27.78599"/><trkpt lat="68.28172" lon="27.7854"/><trkpt lat="68.28169" lon="27.78514"/><trkpt lat="68.28155" lon="27.78449"/><trkpt lat="68.28152" lon="27.78425"/><trkpt lat="68.28142" lon="27.784"/><trkpt lat="68.28079" lon="27.78363"/><trkpt lat="68.28079" lon="27.78363"/><trkpt lat="68.28079" lon="27.78363"/><trkpt lat="68.28039" lon="27.78357"/><trkpt lat="68.2803" lon="27.78349"/><trkpt lat="68.28019" lon="27.78327"/><trkpt lat="68.27927" lon="27.78229"/><trkpt lat="68.27905" lon="27.78247"/><trkpt lat="68.27887" lon="27.78253"/><trkpt lat="68.27848" lon="27.78203"/><trkpt lat="68.27848" lon="27.78203"/><trkpt lat="68.27848" lon="27.78203"/><trkpt lat="68.27826" lon="27.78158"/><trkpt lat="68.278" lon="27.78079"/><trkpt lat="68.27766" lon="27.77909"/><trkpt lat="68.27755" lon="27.77872"/><trkpt lat="68.27752" lon="27.77872"/><trkpt lat="68.27752" lon="27.77872"/><trkpt lat="68.27717" lon="27.77872"/><trkpt lat="68.27669" lon="27.77897"/><trkpt lat="68.27669" lon="27.77897"/><trkpt lat="68.27669" lon="27.77897"/><trkpt lat="68.27604" lon="27.77896"/><trkpt lat="68.2757887780579" lon="27.779176570639738"/><trkpt lat="68.27578877827129" lon="27.779176570639738"/><trkpt lat="68.27575" lon="27.77921"/><trkpt lat="68.2756" lon="27.77908"/><trkpt lat="68.27545" lon="27.77875"/><trkpt lat="68.27522" lon="27.77869"/><trkpt lat="68.27507" lon="27.77844"/><trkpt lat="68.27479" lon="27.77813"/><trkpt lat="68.27451" lon="27.77728"/><trkpt lat="68.27438" lon="27.77664"/><trkpt lat="68.27436" lon="27.7759"/><trkpt lat="68.2745" lon="27.77515"/><trkpt lat="68.27486" lon="27.77358"/><trkpt lat="68.27488" lon="27.77344"/><trkpt lat="68.27488" lon="27.77344"/><trkpt lat="68.2750572741104" lon="27.77190362437657"/><trkpt lat="68.27505727423745" lon="27.77190362437657"/><trkpt lat="68.27509" lon="27.77162"/><trkpt lat="68.27523" lon="27.77085"/><trkpt lat="68.27531" lon="27.77021"/><trkpt lat="68.2755" lon="27.76986"/><trkpt lat="68.27553" lon="27.76909"/><trkpt lat="68.27553" lon="27.76909"/><trkpt lat="68.27553" lon="27.76909"/><trkpt lat="68.27573" lon="27.76837"/><trkpt lat="68.27598" lon="27.768"/><trkpt lat="68.27604" lon="27.76692"/><trkpt lat="68.27614" lon="27.76613"/><trkpt lat="68.27629" lon="27.76508"/><trkpt lat="68.27649" lon="27.7644"/><trkpt lat="68.27671" lon="27.76415"/><trkpt lat="68.27679" lon="27.76375"/><trkpt lat="68.2771" lon="27.76338"/><trkpt lat="68.27734" lon="27.76251"/><trkpt lat="68.27744856197421" lon="27.76189203183901"/><trkpt lat="68.2774485620252" lon="27.76189203183901"/><trkpt lat="68.27747" lon="27.76177"/><trkpt lat="68.27747" lon="27.76073"/><trkpt lat="68.2774" lon="27.76036"/><trkpt lat="68.27733" lon="27.75985"/><trkpt lat="68.27723" lon="27.75953"/><trkpt lat="68.27722" lon="27.75889"/><trkpt lat="68.27702" lon="27.7586"/><trkpt lat="68.27692" lon="27.75819"/><trkpt lat="68.27696" lon="27.75751"/><trkpt lat="68.27688" lon="27.7566"/><trkpt lat="68.27679" lon="27.75643"/><trkpt lat="68.27672" lon="27.75566"/><trkpt lat="68.27673" lon="27.75542"/><trkpt lat="68.27655" lon="27.75532"/><trkpt lat="68.27642" lon="27.75513"/><trkpt lat="68.27621" lon="27.75515"/><trkpt lat="68.27607" lon="27.75548"/><trkpt lat="68.27536" lon="27.7554"/><trkpt lat="68.27518" lon="27.75554"/><trkpt lat="68.27497" lon="27.75558"/><trkpt lat="68.27479" lon="27.75536"/><trkpt lat="68.27456" lon="27.75443"/><trkpt lat="68.27449" lon="27.75409"/><trkpt lat="68.27449" lon="27.754029035568244"/><trkpt lat="68.27449000000001" lon="27.75402903556824"/><trkpt lat="68.27449" lon="27.75331"/><trkpt lat="68.27449" lon="27.75279"/><trkpt lat="68.27442" lon="27.7523"/><trkpt lat="68.27442" lon="27.7523"/><trkpt lat="68.27442" lon="27.7523"/><trkpt lat="68.27449" lon="27.7517"/><trkpt lat="68.27454" lon="27.75146"/><trkpt lat="68.27454" lon="27.75146"/><trkpt lat="68.27469" lon="27.75087"/><trkpt lat="68.27469" lon="27.75087"/><trkpt lat="68.27469" lon="27.75087"/><trkpt lat="68.27476" lon="27.75015"/><trkpt lat="68.27476" lon="27.74977"/><trkpt lat="68.27477209447966" lon="27.7495764883255"/><trkpt lat="68.27473286482886" lon="27.748621702194217"/></trkseg></trk></gpx>