<?xml version="1.0"?>
<gpx xmlns="http://www.topografix.com/GPX/1/1" xmlns:gpxx="http://www.garmin.com/xmlschemas/GpxExtensions/v3" creator="CALTOPO" version="1.1"><metadata><name><![CDATA[suomunruoktu-kiilopaa]]></name></metadata><trk><name>suomunruoktu-kiilopaa</name><trkseg><trkpt lat="68.25356490243003" lon="27.62305280976927"/><trkpt lat="68.25371" lon="27.62284"/><trkpt lat="68.25386" lon="27.62254"/><trkpt lat="68.25386" lon="27.62254"/><trkpt lat="68.25386" lon="27.62254"/><trkpt lat="68.25394" lon="27.62231"/><trkpt lat="68.2539" lon="27.62208"/><trkpt lat="68.25393" lon="27.6218"/><trkpt lat="68.25393" lon="27.62164"/><trkpt lat="68.25393" lon="27.62164"/><trkpt lat="68.25385" lon="27.62146"/><trkpt lat="68.25369" lon="27.62126"/><trkpt lat="68.2537" lon="27.62109"/><trkpt lat="68.25368" lon="27.62072"/><trkpt lat="68.25368" lon="27.62072"/><trkpt lat="68.25361" lon="27.62035"/><trkpt lat="68.2536" lon="27.61994"/><trkpt lat="68.2536" lon="27.61994"/><trkpt lat="68.2536" lon="27.61994"/><trkpt lat="68.25361" lon="27.61974"/><trkpt lat="68.25366" lon="27.61963"/><trkpt lat="68.25366" lon="27.61963"/><trkpt lat="68.25374" lon="27.61944"/><trkpt lat="68.25396" lon="27.61924"/><trkpt lat="68.25413246042564" lon="27.619149231354932"/><trkpt lat="68.25413246192561" lon="27.619149231354935"/><trkpt lat="68.25453" lon="27.61894"/><trkpt lat="68.25512" lon="27.61884"/><trkpt lat="68.25547" lon="27.61886"/><trkpt lat="68.2561" lon="27.61784"/><trkpt lat="68.25653" lon="27.6171"/><trkpt lat="68.25715" lon="27.61684"/><trkpt lat="68.25738" lon="27.61662"/><trkpt lat="68.25771" lon="27.61622"/><trkpt lat="68.25805" lon="27.61635"/><trkpt lat="68.25828" lon="27.61624"/><trkpt lat="68.25904" lon="27.61562"/><trkpt lat="68.25949" lon="27.61573"/><trkpt lat="68.26" lon="27.61569"/><trkpt lat="68.26035" lon="27.61544"/><trkpt lat="68.26074" lon="27.6149"/><trkpt lat="68.26125" lon="27.61462"/><trkpt lat="68.26125" lon="27.61462"/><trkpt lat="68.26136" lon="27.61457"/><trkpt lat="68.26232" lon="27.61322"/><trkpt lat="68.2627" lon="27.61255"/><trkpt lat="68.26281" lon="27.61214"/><trkpt lat="68.26324" lon="27.61179"/><trkpt lat="68.26386" lon="27.61141"/><trkpt lat="68.2646" lon="27.61112"/><trkpt lat="68.26495" lon="27.61068"/><trkpt lat="68.2652" lon="27.6101"/><trkpt lat="68.26565" lon="27.60963"/><trkpt lat="68.26606" lon="27.60896"/><trkpt lat="68.26649" lon="27.60879"/><trkpt lat="68.26692" lon="27.60853"/><trkpt lat="68.26759" lon="27.60779"/><trkpt lat="68.26821" lon="27.60719"/><trkpt lat="68.26848" lon="27.60725"/><trkpt lat="68.26871" lon="27.607"/><trkpt lat="68.26895" lon="27.60697"/><trkpt lat="68.26913" lon="27.60679"/><trkpt lat="68.26939" lon="27.60696"/><trkpt lat="68.26939" lon="27.60696"/><trkpt lat="68.26942" lon="27.60699"/><trkpt lat="68.26973" lon="27.60689"/><trkpt lat="68.27019" lon="27.60636"/><trkpt lat="68.27089" lon="27.60585"/><trkpt lat="68.27089" lon="27.60585"/><trkpt lat="68.27229" lon="27.6052"/><trkpt lat="68.27288" lon="27.60438"/><trkpt lat="68.27327" lon="27.60422"/><trkpt lat="68.27375" lon="27.60366"/><trkpt lat="68.27478" lon="27.60185"/><trkpt lat="68.27752" lon="27.59857"/><trkpt lat="68.27752" lon="27.59857"/><trkpt lat="68.27827" lon="27.59766"/><trkpt lat="68.27827" lon="27.59766"/><trkpt lat="68.27854" lon="27.59732"/><trkpt lat="68.28117" lon="27.59227"/><trkpt lat="68.28235" lon="27.58979"/><trkpt lat="68.28255" lon="27.58887"/><trkpt lat="68.28273" lon="27.58858"/><trkpt lat="68.28285" lon="27.58824"/><trkpt lat="68.28309" lon="27.58792"/><trkpt lat="68.28335" lon="27.58767"/><trkpt lat="68.28371" lon="27.58693"/><trkpt lat="68.2839" lon="27.58643"/><trkpt lat="68.28412" lon="27.58605"/><trkpt lat="68.2844" lon="27.5859"/><trkpt lat="68.28477" lon="27.58554"/><trkpt lat="68.28524" lon="27.585"/><trkpt lat="68.28539" lon="27.58473"/><trkpt lat="68.28554" lon="27.58457"/><trkpt lat="68.28565" lon="27.58426"/><trkpt lat="68.28565" lon="27.58426"/><trkpt lat="68.2857" lon="27.58413"/><trkpt lat="68.28625" lon="27.58392"/><trkpt lat="68.28644" lon="27.58402"/><trkpt lat="68.28682" lon="27.58446"/><trkpt lat="68.28708" lon="27.58458"/><trkpt lat="68.28719102947159" lon="27.58451736799039"/><trkpt lat="68.28719103015037" lon="27.584517367990394"/><trkpt lat="68.28747" lon="27.58436"/><trkpt lat="68.28773" lon="27.58431"/><trkpt lat="68.28777013355534" lon="27.584305775415224"/><trkpt lat="68.28777" lon="27.5843"/><trkpt lat="68.28787" lon="27.58399"/><trkpt lat="68.28795" lon="27.58356"/><trkpt lat="68.28795" lon="27.58356"/><trkpt lat="68.28795" lon="27.58356"/><trkpt lat="68.2878" lon="27.58224"/><trkpt lat="68.28759" lon="27.58139"/><trkpt lat="68.28779" lon="27.5792"/><trkpt lat="68.28801" lon="27.57616"/><trkpt lat="68.28795" lon="27.57568"/><trkpt lat="68.28795" lon="27.57568"/><trkpt lat="68.28775" lon="27.57403"/><trkpt lat="68.28776" lon="27.5727"/><trkpt lat="68.28794" lon="27.57095"/><trkpt lat="68.2879" lon="27.56885"/><trkpt lat="68.28819" lon="27.56738"/><trkpt lat="68.28826" lon="27.56519"/><trkpt lat="68.28856" lon="27.56448"/><trkpt lat="68.28881" lon="27.56257"/><trkpt lat="68.28931" lon="27.56011"/><trkpt lat="68.28986" lon="27.55836"/><trkpt lat="68.29021" lon="27.5579"/><trkpt lat="68.29049" lon="27.55697"/><trkpt lat="68.29097" lon="27.55703"/><trkpt lat="68.29168" lon="27.55646"/><trkpt lat="68.292" lon="27.55561"/><trkpt lat="68.29231" lon="27.55548"/><trkpt lat="68.29257" lon="27.55475"/><trkpt lat="68.29257" lon="27.55475"/><trkpt lat="68.29278" lon="27.55371"/><trkpt lat="68.29278" lon="27.55371"/><trkpt lat="68.29319" lon="27.55251"/><trkpt lat="68.29353" lon="27.55189"/><trkpt lat="68.29376" lon="27.55088"/><trkpt lat="68.29378" lon="27.55085"/><trkpt lat="68.29378" lon="27.55085"/><trkpt lat="68.29408" lon="27.55034"/><trkpt lat="68.29447" lon="27.54973"/><trkpt lat="68.29485" lon="27.54883"/><trkpt lat="68.29535" lon="27.54786"/><trkpt lat="68.29583" lon="27.54659"/><trkpt lat="68.29613" lon="27.54494"/><trkpt lat="68.29653" lon="27.54374"/><trkpt lat="68.29653" lon="27.54374"/><trkpt lat="68.29653" lon="27.54374"/><trkpt lat="68.29714" lon="27.54339"/><trkpt lat="68.29761" lon="27.54298"/><trkpt lat="68.29837" lon="27.54307"/><trkpt lat="68.29905" lon="27.54272"/><trkpt lat="68.29905" lon="27.54272"/><trkpt lat="68.29939" lon="27.54288"/><trkpt lat="68.29984" lon="27.5425"/><trkpt lat="68.30055" lon="27.54169"/><trkpt lat="68.3019" lon="27.54186"/><trkpt lat="68.3019" lon="27.54186"/><trkpt lat="68.30229" lon="27.54191"/><trkpt lat="68.30314" lon="27.54169"/><trkpt lat="68.30362" lon="27.54163"/><trkpt lat="68.30445" lon="27.54049"/><trkpt lat="68.30506" lon="27.54031"/><trkpt lat="68.30553" lon="27.5398"/><trkpt lat="68.30648" lon="27.53811"/><trkpt lat="68.30744" lon="27.53737"/><trkpt lat="68.30859" lon="27.53682"/><trkpt lat="68.30886" lon="27.53621"/><trkpt lat="68.30886" lon="27.53621"/><trkpt lat="68.30936" lon="27.53528"/><trkpt lat="68.3098" lon="27.534"/><trkpt lat="68.31003" lon="27.53365"/><trkpt lat="68.31003" lon="27.53365"/><trkpt lat="68.31027" lon="27.53327"/><trkpt lat="68.3118" lon="27.532"/><trkpt lat="68.31201" lon="27.53174"/><trkpt lat="68.31201" lon="27.53174"/><trkpt lat="68.31279469169394" lon="27.530736324577525"/><trkpt lat="68.31279470039463" lon="27.530736324577525"/><trkpt lat="68.3133" lon="27.53009"/><trkpt lat="68.31493" lon="27.52721"/><trkpt lat="68.31525" lon="27.52671"/><trkpt lat="68.31601" lon="27.52506"/><trkpt lat="68.31621" lon="27.52457"/><trkpt lat="68.31643" lon="27.52395"/><trkpt lat="68.31683" lon="27.52294"/><trkpt lat="68.31783" lon="27.52063"/><trkpt lat="68.31815" lon="27.51983"/><trkpt lat="68.31815" lon="27.51983"/><trkpt lat="68.31848" lon="27.51889"/><trkpt lat="68.3186" lon="27.51845"/><trkpt lat="68.31871992826821" lon="27.51798170882026"/><trkpt lat="68.31871992826821" lon="27.51798170882026"/><trkpt lat="68.31877775973035" lon="27.51775589063162"/><trkpt lat="68.31877775973035" lon="27.51775589063162"/><trkpt lat="68.31881" lon="27.51763"/><trkpt lat="68.31914" lon="27.51678"/><trkpt lat="68.31927" lon="27.51636"/><trkpt lat="68.31944" lon="27.51569"/><trkpt lat="68.31962" lon="27.51481"/><trkpt lat="68.31962" lon="27.51481"/><trkpt lat="68.31962" lon="27.51481"/><trkpt lat="68.31978" lon="27.51412"/><trkpt lat="68.31978" lon="27.51412"/><trkpt lat="68.31998936162209" lon="27.51323021323859"/><trkpt lat="68.31998936162209" lon="27.51323021323859"/><trkpt lat="68.3201" lon="27.51276"/><trkpt lat="68.32020557386626" lon="27.51240557411926"/><trkpt lat="68.32020557386626" lon="27.51240557411926"/><trkpt lat="68.32024" lon="27.51229"/><trkpt lat="68.32046" lon="27.51164"/><trkpt lat="68.32059" lon="27.51114"/><trkpt lat="68.32059" lon="27.51114"/><trkpt lat="68.32059" lon="27.51114"/><trkpt lat="68.32074" lon="27.51063"/><trkpt lat="68.32089" lon="27.51032"/><trkpt lat="68.32101133681763" lon="27.50990290468939"/><trkpt lat="68.32101133681763" lon="27.50990290468939"/><trkpt lat="68.32105" lon="27.50977"/><trkpt lat="68.32105" lon="27.50977"/><trkpt lat="68.32129067429155" lon="27.50889061250456"/><trkpt lat="68.32129793142838" lon="27.508864096187768"/><trkpt lat="68.32131" lon="27.50882"/><trkpt lat="68.32169" lon="27.5078"/><trkpt lat="68.32177" lon="27.50752"/><trkpt lat="68.32187" lon="27.50696"/><trkpt lat="68.32196" lon="27.50635"/><trkpt lat="68.3221" lon="27.50586"/><trkpt lat="68.32231" lon="27.50491"/><trkpt lat="68.32247" lon="27.5041"/><trkpt lat="68.32264" lon="27.50343"/><trkpt lat="68.32306" lon="27.50223"/><trkpt lat="68.32344" lon="27.5009"/><trkpt lat="68.32366" lon="27.50053"/><trkpt lat="68.32381" lon="27.50023"/><trkpt lat="68.32395" lon="27.50001"/><trkpt lat="68.32403" lon="27.49984"/><trkpt lat="68.32418" lon="27.49929"/><trkpt lat="68.32432" lon="27.49898"/><trkpt lat="68.32542" lon="27.49747"/><trkpt lat="68.32555" lon="27.49734"/><trkpt lat="68.32569" lon="27.49727"/><trkpt lat="68.32586" lon="27.49733"/><trkpt lat="68.32593" lon="27.49732"/><trkpt lat="68.32626" lon="27.49713"/><trkpt lat="68.32626" lon="27.49713"/><trkpt lat="68.32631" lon="27.4971"/><trkpt lat="68.32648" lon="27.49689"/><trkpt lat="68.32661" lon="27.4967"/><trkpt lat="68.3267" lon="27.49664"/><trkpt lat="68.32708" lon="27.49654"/><trkpt lat="68.32748" lon="27.49624"/><trkpt lat="68.32814" lon="27.49608"/><trkpt lat="68.32845" lon="27.49613"/><trkpt lat="68.32856" lon="27.49611"/><trkpt lat="68.32868" lon="27.49604"/><trkpt lat="68.32947" lon="27.49532"/><trkpt lat="68.32993" lon="27.49487"/><trkpt lat="68.33017" lon="27.49471"/><trkpt lat="68.33017" lon="27.49471"/><trkpt lat="68.33036" lon="27.49461"/><trkpt lat="68.33062" lon="27.49434"/><trkpt lat="68.33089" lon="27.49418"/><trkpt lat="68.33109" lon="27.494"/><trkpt lat="68.33118053831475" lon="27.493811958918243"/><trkpt lat="68.33118053831475" lon="27.493811958918243"/><trkpt lat="68.33122" lon="27.49373"/><trkpt lat="68.3313" lon="27.49351"/><trkpt lat="68.33146" lon="27.49282"/><trkpt lat="68.33167" lon="27.49236"/><trkpt lat="68.33179" lon="27.49192"/><trkpt lat="68.33207" lon="27.49131"/><trkpt lat="68.33238" lon="27.49082"/><trkpt lat="68.33287" lon="27.4902"/><trkpt lat="68.33307" lon="27.49009"/><trkpt lat="68.33319" lon="27.48986"/><trkpt lat="68.33327" lon="27.48964"/><trkpt lat="68.3334" lon="27.48891"/><trkpt lat="68.3335" lon="27.48868"/><trkpt lat="68.3337" lon="27.48842"/><trkpt lat="68.33389" lon="27.48791"/><trkpt lat="68.33391" lon="27.48779"/><trkpt lat="68.33391" lon="27.48779"/><trkpt lat="68.33409" lon="27.48696"/><trkpt lat="68.33428" lon="27.48652"/><trkpt lat="68.33433" lon="27.48621"/><trkpt lat="68.33438" lon="27.48566"/><trkpt lat="68.33438" lon="27.48566"/><trkpt lat="68.33443" lon="27.48536"/><trkpt lat="68.3349" lon="27.4842"/><trkpt lat="68.33502" lon="27.48371"/><trkpt lat="68.33528" lon="27.48302"/><trkpt lat="68.33541" lon="27.48279"/><trkpt lat="68.33548" lon="27.48255"/><trkpt lat="68.33561" lon="27.482"/><trkpt lat="68.33571" lon="27.48145"/><trkpt lat="68.33576" lon="27.48122"/><trkpt lat="68.33592" lon="27.48088"/><trkpt lat="68.33602" lon="27.48072"/><trkpt lat="68.33621" lon="27.48064"/><trkpt lat="68.33635" lon="27.48051"/><trkpt lat="68.33658" lon="27.48004"/><trkpt lat="68.33668" lon="27.47992"/><trkpt lat="68.33695555026006" lon="27.479682720609404"/><trkpt lat="68.33695555077131" lon="27.479682720609404"/><trkpt lat="68.33704" lon="27.47961"/><trkpt lat="68.33725" lon="27.47933"/><trkpt lat="68.33747" lon="27.47866"/><trkpt lat="68.33766" lon="27.47825"/><trkpt lat="68.33778" lon="27.47806"/><trkpt lat="68.33802" lon="27.47791"/><trkpt lat="68.33815" lon="27.47765"/><trkpt lat="68.3385" lon="27.47687"/><trkpt lat="68.33871" lon="27.47662"/><trkpt lat="68.33913" lon="27.47565"/><trkpt lat="68.33927" lon="27.4754"/><trkpt lat="68.33978" lon="27.47477"/><trkpt lat="68.34008" lon="27.47417"/><trkpt lat="68.34028" lon="27.47365"/><trkpt lat="68.34034" lon="27.47338"/><trkpt lat="68.34039534580918" lon="27.473083504593625"/><trkpt lat="68.3404" lon="27.47309"/><trkpt lat="68.34063" lon="27.47267"/><trkpt lat="68.34083" lon="27.47254"/><trkpt lat="68.34091" lon="27.47237"/><trkpt lat="68.34108" lon="27.47215"/><trkpt lat="68.34108" lon="27.47215"/><trkpt lat="68.34108" lon="27.47215"/><trkpt lat="68.34116" lon="27.47169"/><trkpt lat="68.34116013454123" lon="27.47168882334882"/><trkpt lat="68.34116013454123" lon="27.47168882334882"/><trkpt lat="68.3413" lon="27.47156"/><trkpt lat="68.34166" lon="27.47122"/><trkpt lat="68.34249" lon="27.47026"/><trkpt lat="68.34249" lon="27.47026"/><trkpt lat="68.34289" lon="27.46979"/><trkpt lat="68.34289" lon="27.46979"/><trkpt lat="68.34349" lon="27.46917"/><trkpt lat="68.34379" lon="27.46875"/><trkpt lat="68.34395" lon="27.46829"/><trkpt lat="68.34426" lon="27.46773"/><trkpt lat="68.34435219779093" lon="27.46754018101867"/><trkpt lat="68.3443521979486" lon="27.46754018101867"/><trkpt lat="68.34443" lon="27.46738"/><trkpt lat="68.34453" lon="27.46693"/><trkpt lat="68.3446" lon="27.46673"/><trkpt lat="68.34467" lon="27.46663"/><trkpt lat="68.34483946278283" lon="27.466446415318593"/><trkpt lat="68.34483946278283" lon="27.466446415318593"/><trkpt lat="68.34491" lon="27.46637"/><trkpt lat="68.34496" lon="27.4663"/><trkpt lat="68.34496" lon="27.4663"/><trkpt lat="68.34496" lon="27.4663"/><trkpt lat="68.34501" lon="27.46611"/><trkpt lat="68.34506" lon="27.46582"/><trkpt lat="68.34506" lon="27.46582"/><trkpt lat="68.34523" lon="27.46512"/><trkpt lat="68.34541" lon="27.46477"/><trkpt lat="68.34555" lon="27.46469"/><trkpt lat="68.34567" lon="27.46435"/><trkpt lat="68.34576" lon="27.46395"/><trkpt lat="68.34587" lon="27.46358"/><trkpt lat="68.34596" lon="27.46306"/><trkpt lat="68.34601" lon="27.46287"/><trkpt lat="68.34615" lon="27.4625"/><trkpt lat="68.34615" lon="27.4625"/><trkpt lat="68.34618" lon="27.46242"/><trkpt lat="68.34618" lon="27.46242"/><trkpt lat="68.34656628330487" lon="27.461656630611813"/><trkpt lat="68.34656628359113" lon="27.46165663061181"/><trkpt lat="68.3466" lon="27.46159"/><trkpt lat="68.3466" lon="27.46159"/><trkpt lat="68.34662123404055" lon="27.461542536697188"/><trkpt lat="68.34662123404055" lon="27.461542536697188"/><trkpt lat="68.3468" lon="27.46191"/></trkseg></trk></gpx>