<?xml version="1.0"?>
<gpx xmlns="http://www.topografix.com/GPX/1/1" xmlns:gpxx="http://www.garmin.com/xmlschemas/GpxExtensions/v3" creator="CALTOPO" version="1.1"><metadata><name><![CDATA[tuiskukuru-suomunruoktu]]></name></metadata><trk><name>tuiskukuru-suomunruoktu</name><trkseg><trkpt lat="68.21316958137818" lon="27.843496799468998"/><trkpt lat="68.21309103907865" lon="27.842817273360946"/><trkpt lat="68.21307" lon="27.84267"/><trkpt lat="68.21304" lon="27.84257"/><trkpt lat="68.21302" lon="27.84231"/><trkpt lat="68.21299" lon="27.84208"/><trkpt lat="68.21299" lon="27.84195"/><trkpt lat="68.21306" lon="27.84163"/><trkpt lat="68.21305" lon="27.84115"/><trkpt lat="68.21305" lon="27.84115"/><trkpt lat="68.21305" lon="27.841"/><trkpt lat="68.21305" lon="27.841"/><trkpt lat="68.21304" lon="27.84094"/><trkpt lat="68.21304" lon="27.84094"/><trkpt lat="68.21304" lon="27.84094"/><trkpt lat="68.21291" lon="27.84068"/><trkpt lat="68.21286" lon="27.84027"/><trkpt lat="68.21277" lon="27.83936"/><trkpt lat="68.21277" lon="27.83936"/><trkpt lat="68.21279" lon="27.83839"/><trkpt lat="68.21281" lon="27.83816"/><trkpt lat="68.21277" lon="27.83793"/><trkpt lat="68.21277" lon="27.83746"/><trkpt lat="68.21269" lon="27.83705"/><trkpt lat="68.21269" lon="27.83601"/><trkpt lat="68.21261" lon="27.83502"/><trkpt lat="68.21261" lon="27.834784984588623"/><trkpt lat="68.21261" lon="27.834784984588627"/><trkpt lat="68.21261" lon="27.83455"/><trkpt lat="68.21264" lon="27.83326"/><trkpt lat="68.21244" lon="27.8319"/><trkpt lat="68.21262" lon="27.8298"/><trkpt lat="68.21256" lon="27.82812"/><trkpt lat="68.21248" lon="27.8274"/><trkpt lat="68.21237" lon="27.82683"/><trkpt lat="68.21237" lon="27.82683"/><trkpt lat="68.21229" lon="27.82644"/><trkpt lat="68.21228" lon="27.82447"/><trkpt lat="68.21237" lon="27.82297"/><trkpt lat="68.21237" lon="27.82297"/><trkpt lat="68.21248" lon="27.82135"/><trkpt lat="68.21247" lon="27.82"/><trkpt lat="68.2124" lon="27.81867"/><trkpt lat="68.21248" lon="27.81761"/><trkpt lat="68.21248" lon="27.81738"/><trkpt lat="68.21248" lon="27.81738"/><trkpt lat="68.21244" lon="27.81643"/><trkpt lat="68.21259" lon="27.81576"/><trkpt lat="68.21261" lon="27.81524"/><trkpt lat="68.21261" lon="27.81524"/><trkpt lat="68.21258" lon="27.81416"/><trkpt lat="68.21275" lon="27.81267"/><trkpt lat="68.21284" lon="27.8118"/><trkpt lat="68.21279" lon="27.8109"/><trkpt lat="68.21266" lon="27.80941"/><trkpt lat="68.21269" lon="27.80846"/><trkpt lat="68.21264" lon="27.80778"/><trkpt lat="68.21259" lon="27.80758"/><trkpt lat="68.21254" lon="27.80685"/><trkpt lat="68.21237" lon="27.80576"/><trkpt lat="68.21237" lon="27.80576"/><trkpt lat="68.21204" lon="27.8042"/><trkpt lat="68.21205" lon="27.80357"/><trkpt lat="68.21182" lon="27.80157"/><trkpt lat="68.21115" lon="27.79817"/><trkpt lat="68.21115" lon="27.79817"/><trkpt lat="68.21115" lon="27.79817"/><trkpt lat="68.21108" lon="27.79747"/><trkpt lat="68.21104" lon="27.79624"/><trkpt lat="68.21095" lon="27.79592"/><trkpt lat="68.21091" lon="27.79541"/><trkpt lat="68.21091" lon="27.79541"/><trkpt lat="68.21091" lon="27.79537"/><trkpt lat="68.2108" lon="27.79513"/><trkpt lat="68.21064" lon="27.79405"/><trkpt lat="68.21057" lon="27.7928"/><trkpt lat="68.21035" lon="27.79006"/><trkpt lat="68.21035" lon="27.78927"/><trkpt lat="68.2104" lon="27.78853"/><trkpt lat="68.21091" lon="27.78717"/><trkpt lat="68.2116" lon="27.78547"/><trkpt lat="68.21175" lon="27.7849"/><trkpt lat="68.21203" lon="27.78295"/><trkpt lat="68.21203" lon="27.78238"/><trkpt lat="68.21237" lon="27.78009"/><trkpt lat="68.21237" lon="27.78009"/><trkpt lat="68.2124" lon="27.77991"/><trkpt lat="68.21264" lon="27.77671"/><trkpt lat="68.21267" lon="27.77472"/><trkpt lat="68.21264" lon="27.77344"/><trkpt lat="68.21264" lon="27.77344"/><trkpt lat="68.21263" lon="27.77278"/><trkpt lat="68.21283" lon="27.76694"/><trkpt lat="68.21285" lon="27.76617"/><trkpt lat="68.21286" lon="27.76418"/><trkpt lat="68.21291" lon="27.76324"/><trkpt lat="68.21285" lon="27.76263"/><trkpt lat="68.21256" lon="27.7622"/><trkpt lat="68.21244" lon="27.76225"/><trkpt lat="68.21237" lon="27.76205"/><trkpt lat="68.21237" lon="27.76205"/><trkpt lat="68.21223" lon="27.76168"/><trkpt lat="68.21218" lon="27.76136"/><trkpt lat="68.21206" lon="27.76104"/><trkpt lat="68.2116" lon="27.7603"/><trkpt lat="68.2113" lon="27.75905"/><trkpt lat="68.21106" lon="27.75654"/><trkpt lat="68.21102662984508" lon="27.756390205082358"/><trkpt lat="68.21102663014858" lon="27.756390205082358"/><trkpt lat="68.21061" lon="27.75452"/><trkpt lat="68.21053082613466" lon="27.753519530247143"/><trkpt lat="68.21053082613466" lon="27.753519530247143"/><trkpt lat="68.2105" lon="27.75313"/><trkpt lat="68.21052" lon="27.75159"/><trkpt lat="68.21051" lon="27.75146"/><trkpt lat="68.21051" lon="27.75146"/><trkpt lat="68.21047" lon="27.75084"/><trkpt lat="68.21066" lon="27.74963"/><trkpt lat="68.21072" lon="27.74747"/><trkpt lat="68.21065" lon="27.74633"/><trkpt lat="68.21044" lon="27.74445"/><trkpt lat="68.21037" lon="27.74352"/><trkpt lat="68.21047" lon="27.74267"/><trkpt lat="68.2104" lon="27.74072"/><trkpt lat="68.21048" lon="27.74"/><trkpt lat="68.21031" lon="27.73925"/><trkpt lat="68.2102" lon="27.7382"/><trkpt lat="68.21025" lon="27.73786"/><trkpt lat="68.21059" lon="27.73694"/><trkpt lat="68.21068" lon="27.73648"/><trkpt lat="68.21095" lon="27.73534"/><trkpt lat="68.21116" lon="27.73458"/><trkpt lat="68.21114" lon="27.73358"/><trkpt lat="68.21123" lon="27.73295"/><trkpt lat="68.21118" lon="27.73206"/><trkpt lat="68.21122" lon="27.73141"/><trkpt lat="68.2113" lon="27.73083"/><trkpt lat="68.21129" lon="27.73011"/><trkpt lat="68.21137" lon="27.72949"/><trkpt lat="68.21137" lon="27.72949"/><trkpt lat="68.21139" lon="27.72937"/><trkpt lat="68.21146" lon="27.72813"/><trkpt lat="68.21148" lon="27.7271"/><trkpt lat="68.21164" lon="27.72639"/><trkpt lat="68.21177" lon="27.72526"/><trkpt lat="68.21184" lon="27.72277"/><trkpt lat="68.21164" lon="27.72075"/><trkpt lat="68.21181" lon="27.72003"/><trkpt lat="68.21187" lon="27.71898"/><trkpt lat="68.21203" lon="27.71725"/><trkpt lat="68.2123" lon="27.71585"/><trkpt lat="68.21229" lon="27.71489"/><trkpt lat="68.21237" lon="27.71375"/><trkpt lat="68.21237" lon="27.71375"/><trkpt lat="68.2124" lon="27.71334"/><trkpt lat="68.21245" lon="27.71091"/><trkpt lat="68.21249" lon="27.71044"/><trkpt lat="68.21254" lon="27.70971"/><trkpt lat="68.21269" lon="27.70905"/><trkpt lat="68.2127" lon="27.7087"/><trkpt lat="68.21293" lon="27.70752"/><trkpt lat="68.21293" lon="27.70752"/><trkpt lat="68.21334" lon="27.70542"/><trkpt lat="68.21335414597115" lon="27.705387287441724"/><trkpt lat="68.2133541460162" lon="27.705387287441724"/><trkpt lat="68.2135" lon="27.70505"/><trkpt lat="68.21376" lon="27.70457"/><trkpt lat="68.21393" lon="27.7038"/><trkpt lat="68.21417" lon="27.70367"/><trkpt lat="68.21432" lon="27.70319"/><trkpt lat="68.21447" lon="27.70247"/><trkpt lat="68.21469" lon="27.70173"/><trkpt lat="68.2148" lon="27.69922"/><trkpt lat="68.21492" lon="27.69788"/><trkpt lat="68.21533" lon="27.69531"/><trkpt lat="68.21549" lon="27.69471"/><trkpt lat="68.21559" lon="27.69402"/><trkpt lat="68.21561" lon="27.69345"/><trkpt lat="68.21583" lon="27.69153"/><trkpt lat="68.21612" lon="27.69062"/><trkpt lat="68.2161" lon="27.69017"/><trkpt lat="68.21628" lon="27.68941"/><trkpt lat="68.21625" lon="27.68864"/><trkpt lat="68.21645" lon="27.68799"/><trkpt lat="68.21663" lon="27.68655"/><trkpt lat="68.21682" lon="27.68624"/><trkpt lat="68.21688" lon="27.68555"/><trkpt lat="68.21688" lon="27.68555"/><trkpt lat="68.21692" lon="27.68507"/><trkpt lat="68.21719" lon="27.68433"/><trkpt lat="68.2177" lon="27.68329"/><trkpt lat="68.21816" lon="27.68208"/><trkpt lat="68.2185" lon="27.68085"/><trkpt lat="68.21879" lon="27.68002"/><trkpt lat="68.21905" lon="27.6785"/><trkpt lat="68.21907" lon="27.67734"/><trkpt lat="68.21927" lon="27.67658"/><trkpt lat="68.21953" lon="27.67545"/><trkpt lat="68.22023" lon="27.6745"/><trkpt lat="68.22052" lon="27.67349"/><trkpt lat="68.22052" lon="27.67349"/><trkpt lat="68.22058" lon="27.67327"/><trkpt lat="68.22127" lon="27.67192"/><trkpt lat="68.22129" lon="27.67137"/><trkpt lat="68.22157" lon="27.67073"/><trkpt lat="68.22164" lon="27.66955"/><trkpt lat="68.22208" lon="27.66833"/><trkpt lat="68.22305" lon="27.66657"/><trkpt lat="68.2236" lon="27.66513"/><trkpt lat="68.2239" lon="27.66415"/><trkpt lat="68.22414" lon="27.66357"/><trkpt lat="68.22414" lon="27.66357"/><trkpt lat="68.22421" lon="27.66339"/><trkpt lat="68.22432" lon="27.66296"/><trkpt lat="68.22496" lon="27.66186"/><trkpt lat="68.22557" lon="27.66122"/><trkpt lat="68.22629247305986" lon="27.661427517871413"/><trkpt lat="68.22651" lon="27.66149"/><trkpt lat="68.22725" lon="27.66137"/><trkpt lat="68.22865" lon="27.66107"/><trkpt lat="68.22867" lon="27.66109"/><trkpt lat="68.22867" lon="27.66109"/><trkpt lat="68.22978" lon="27.66248"/><trkpt lat="68.23021" lon="27.66257"/><trkpt lat="68.23085" lon="27.66235"/><trkpt lat="68.23114" lon="27.66241"/><trkpt lat="68.23149" lon="27.66265"/><trkpt lat="68.23155" lon="27.66347"/><trkpt lat="68.23153" lon="27.66357"/><trkpt lat="68.23153" lon="27.66357"/><trkpt lat="68.23145" lon="27.66403"/><trkpt lat="68.23159" lon="27.66461"/><trkpt lat="68.23259" lon="27.66682"/><trkpt lat="68.2331" lon="27.66721"/><trkpt lat="68.23345" lon="27.66718"/><trkpt lat="68.23387" lon="27.66843"/><trkpt lat="68.23419" lon="27.66849"/><trkpt lat="68.23445" lon="27.66824"/><trkpt lat="68.23473" lon="27.66844"/><trkpt lat="68.23503" lon="27.66755"/><trkpt lat="68.23514" lon="27.66659"/><trkpt lat="68.23548" lon="27.66551"/><trkpt lat="68.23584" lon="27.66531"/><trkpt lat="68.23609" lon="27.66404"/><trkpt lat="68.23676" lon="27.66382"/><trkpt lat="68.23682" lon="27.6637"/><trkpt lat="68.23682" lon="27.6637"/><trkpt lat="68.23689" lon="27.66357"/><trkpt lat="68.23689" lon="27.66357"/><trkpt lat="68.23734" lon="27.66274"/><trkpt lat="68.23771" lon="27.66194"/><trkpt lat="68.23775" lon="27.66105"/><trkpt lat="68.23749" lon="27.66008"/><trkpt lat="68.23752" lon="27.65961"/><trkpt lat="68.2378" lon="27.65874"/><trkpt lat="68.23803" lon="27.65785"/><trkpt lat="68.23828" lon="27.65771"/><trkpt lat="68.23861" lon="27.65704"/><trkpt lat="68.23864002282556" lon="27.65686395706824"/><trkpt lat="68.23864002295024" lon="27.656863957068243"/><trkpt lat="68.23883" lon="27.65575"/><trkpt lat="68.23934" lon="27.65493"/><trkpt lat="68.23956" lon="27.65479"/><trkpt lat="68.23963" lon="27.6546"/><trkpt lat="68.23972" lon="27.65442"/><trkpt lat="68.23972" lon="27.65442"/><trkpt lat="68.23983" lon="27.65443"/><trkpt lat="68.23983" lon="27.65443"/><trkpt lat="68.23992" lon="27.65432"/><trkpt lat="68.23992" lon="27.65432"/><trkpt lat="68.23994627766436" lon="27.65428809143412"/><trkpt lat="68.23994627766436" lon="27.65428809143412"/><trkpt lat="68.2402" lon="27.65398"/><trkpt lat="68.2402" lon="27.65398"/><trkpt lat="68.24045" lon="27.65363"/><trkpt lat="68.24045" lon="27.65363"/><trkpt lat="68.24061" lon="27.65334"/><trkpt lat="68.24068" lon="27.65298"/><trkpt lat="68.2407" lon="27.65274"/><trkpt lat="68.24068110348792" lon="27.65244710375334"/><trkpt lat="68.24068110348792" lon="27.65244710375334"/><trkpt lat="68.24076" lon="27.65224"/><trkpt lat="68.24099" lon="27.65184"/><trkpt lat="68.24118" lon="27.65116"/><trkpt lat="68.24135" lon="27.65035"/><trkpt lat="68.24145" lon="27.65032"/><trkpt lat="68.24154" lon="27.65021"/><trkpt lat="68.24175" lon="27.65011"/><trkpt lat="68.24187" lon="27.64988"/><trkpt lat="68.24214" lon="27.64957"/><trkpt lat="68.24226" lon="27.64889"/><trkpt lat="68.24228" lon="27.64817"/><trkpt lat="68.24241" lon="27.64761"/><trkpt lat="68.24237" lon="27.64723"/><trkpt lat="68.24245" lon="27.64663"/><trkpt lat="68.24242" lon="27.64589"/><trkpt lat="68.24242" lon="27.64541"/><trkpt lat="68.24261" lon="27.64447"/><trkpt lat="68.24292" lon="27.64359"/><trkpt lat="68.24292" lon="27.64359"/><trkpt lat="68.24292" lon="27.64359"/><trkpt lat="68.24299" lon="27.64308"/><trkpt lat="68.2432" lon="27.64265"/><trkpt lat="68.24331" lon="27.64225"/><trkpt lat="68.24352" lon="27.64187"/><trkpt lat="68.24359" lon="27.6416"/><trkpt lat="68.24359" lon="27.6416"/><trkpt lat="68.24364" lon="27.64139"/><trkpt lat="68.24389" lon="27.64078"/><trkpt lat="68.24414" lon="27.63995"/><trkpt lat="68.24438" lon="27.63799"/><trkpt lat="68.24446" lon="27.63772"/><trkpt lat="68.24456" lon="27.63684"/><trkpt lat="68.24484" lon="27.63629"/><trkpt lat="68.24497" lon="27.63575"/><trkpt lat="68.24497" lon="27.63575"/><trkpt lat="68.24525" lon="27.635"/><trkpt lat="68.2455" lon="27.63452"/><trkpt lat="68.24568" lon="27.63386"/><trkpt lat="68.24599" lon="27.63311"/><trkpt lat="68.24627" lon="27.63277"/><trkpt lat="68.24643" lon="27.63283"/><trkpt lat="68.24661" lon="27.63273"/><trkpt lat="68.2469" lon="27.6322"/><trkpt lat="68.24745" lon="27.63193"/><trkpt lat="68.24765" lon="27.63156"/><trkpt lat="68.24799" lon="27.63073"/><trkpt lat="68.24824" lon="27.63048"/><trkpt lat="68.24855" lon="27.62989"/><trkpt lat="68.24863" lon="27.62996"/><trkpt lat="68.24893" lon="27.62955"/><trkpt lat="68.24915" lon="27.62918"/><trkpt lat="68.24936" lon="27.62861"/><trkpt lat="68.24951" lon="27.62842"/><trkpt lat="68.2497" lon="27.62823"/><trkpt lat="68.24987" lon="27.62794"/><trkpt lat="68.24993" lon="27.62767"/><trkpt lat="68.25004" lon="27.6273"/><trkpt lat="68.25023" lon="27.62704"/><trkpt lat="68.25023" lon="27.62704"/><trkpt lat="68.25023" lon="27.62704"/><trkpt lat="68.25042" lon="27.62702"/><trkpt lat="68.25054" lon="27.62687"/><trkpt lat="68.25060975356652" lon="27.626838029228"/><trkpt lat="68.25060975356652" lon="27.626838029228"/><trkpt lat="68.25078" lon="27.62676"/><trkpt lat="68.25103" lon="27.62688"/><trkpt lat="68.25133" lon="27.62661"/><trkpt lat="68.25177" lon="27.62628"/><trkpt lat="68.25197" lon="27.62632"/><trkpt lat="68.25229" lon="27.62606"/><trkpt lat="68.25272" lon="27.62498"/><trkpt lat="68.25297" lon="27.62449"/><trkpt lat="68.25297" lon="27.62449"/><trkpt lat="68.2530923507887" lon="27.62420160171235"/><trkpt lat="68.25309235083593" lon="27.624201601712354"/><trkpt lat="68.25311" lon="27.62416"/><trkpt lat="68.25311" lon="27.62416"/><trkpt lat="68.25356" lon="27.62306"/><trkpt lat="68.25356490243003" lon="27.62305280976927"/></trkseg></trk></gpx>