<?xml version="1.0" encoding="utf-8" standalone="yes"?>
<gpx version="1.1" creator="GPS Visualizer https://www.gpsvisualizer.com/" xmlns="http://www.topografix.com/GPX/1/1" xmlns:xsi="http://www.w3.org/2001/XMLSchema-instance" xsi:schemaLocation="http://www.topografix.com/GPX/1/1 http://www.topografix.com/GPX/1/1/gpx.xsd http://www.garmin.com/xmlschemas/TrackPointExtension/v2 http://www.garmin.com/xmlschemas/TrackPointExtensionv2.xsd" xmlns:gpxtpx="http://www.garmin.com/xmlschemas/TrackPointExtension/v2">
<trk>
  <name>Day 2_new</name>
  <trkseg>
    <trkpt lat="67.611707829" lon="17.363449482">
      <ele>505.766</ele>
    </trkpt>
    <trkpt lat="67.61168" lon="17.36293">
      <ele>504.904</ele>
    </trkpt>
    <trkpt lat="67.61148" lon="17.36164">
      <ele>503.576</ele>
    </trkpt>
    <trkpt lat="67.61116" lon="17.36059">
      <ele>502.67</ele>
    </trkpt>
    <trkpt lat="67.61102" lon="17.36033">
      <ele>502.516</ele>
    </trkpt>
    <trkpt lat="67.61092" lon="17.36008">
      <ele>502.466</ele>
    </trkpt>
    <trkpt lat="67.61072" lon="17.35946">
      <ele>502.033</ele>
    </trkpt>
    <trkpt lat="67.61059" lon="17.3584">
      <ele>499.24</ele>
    </trkpt>
    <trkpt lat="67.61059" lon="17.3584">
      <ele>499.24</ele>
    </trkpt>
    <trkpt lat="67.61053" lon="17.35802">
      <ele>497.872</ele>
    </trkpt>
    <trkpt lat="67.61047" lon="17.3573">
      <ele>495.81</ele>
    </trkpt>
    <trkpt lat="67.6104" lon="17.35695">
      <ele>495.14</ele>
    </trkpt>
    <trkpt lat="67.61033" lon="17.35649">
      <ele>495.624</ele>
    </trkpt>
    <trkpt lat="67.61012" lon="17.35604">
      <ele>497.704</ele>
    </trkpt>
    <trkpt lat="67.60972" lon="17.35546">
      <ele>500.672</ele>
    </trkpt>
    <trkpt lat="67.60935" lon="17.35457">
      <ele>501.154</ele>
    </trkpt>
    <trkpt lat="67.60931" lon="17.35432">
      <ele>500.783</ele>
    </trkpt>
    <trkpt lat="67.60928" lon="17.35389">
      <ele>500.002</ele>
    </trkpt>
    <trkpt lat="67.60926" lon="17.35268">
      <ele>494.984</ele>
    </trkpt>
    <trkpt lat="67.60922" lon="17.35237">
      <ele>493.634</ele>
    </trkpt>
    <trkpt lat="67.60922" lon="17.35237">
      <ele>493.634</ele>
    </trkpt>
    <trkpt lat="67.60909" lon="17.3518">
      <ele>491.624</ele>
    </trkpt>
    <trkpt lat="67.60899" lon="17.35152">
      <ele>491.108</ele>
    </trkpt>
    <trkpt lat="67.60886" lon="17.35129">
      <ele>490.852</ele>
    </trkpt>
    <trkpt lat="67.60873" lon="17.35096">
      <ele>491.377</ele>
    </trkpt>
    <trkpt lat="67.60847" lon="17.35081">
      <ele>492.508</ele>
    </trkpt>
    <trkpt lat="67.60847" lon="17.35081">
      <ele>492.508</ele>
    </trkpt>
    <trkpt lat="67.60847" lon="17.35056">
      <ele>492.508</ele>
    </trkpt>
    <trkpt lat="67.60847" lon="17.35056">
      <ele>492.508</ele>
    </trkpt>
    <trkpt lat="67.60846" lon="17.35">
      <ele>493.088</ele>
    </trkpt>
    <trkpt lat="67.60816" lon="17.3486">
      <ele>498.04</ele>
    </trkpt>
    <trkpt lat="67.608" lon="17.34805">
      <ele>499.02</ele>
    </trkpt>
    <trkpt lat="67.60785" lon="17.34738">
      <ele>501.0</ele>
    </trkpt>
    <trkpt lat="67.60773" lon="17.34696">
      <ele>501.944</ele>
    </trkpt>
    <trkpt lat="67.6074" lon="17.34654">
      <ele>503.0</ele>
    </trkpt>
    <trkpt lat="67.60718" lon="17.34645">
      <ele>502.967</ele>
    </trkpt>
    <trkpt lat="67.607" lon="17.34623">
      <ele>503.114</ele>
    </trkpt>
    <trkpt lat="67.60693" lon="17.3461">
      <ele>503.038</ele>
    </trkpt>
    <trkpt lat="67.60681" lon="17.34559">
      <ele>503.94</ele>
    </trkpt>
    <trkpt lat="67.60673" lon="17.34488">
      <ele>505.0</ele>
    </trkpt>
    <trkpt lat="67.60672" lon="17.34435">
      <ele>505.34</ele>
    </trkpt>
    <trkpt lat="67.60668" lon="17.34371">
      <ele>506.0</ele>
    </trkpt>
    <trkpt lat="67.6067" lon="17.34321">
      <ele>507.0</ele>
    </trkpt>
    <trkpt lat="67.60669" lon="17.34291">
      <ele>507.0</ele>
    </trkpt>
    <trkpt lat="67.60671" lon="17.34141">
      <ele>508.0</ele>
    </trkpt>
    <trkpt lat="67.60673" lon="17.3412">
      <ele>508.525</ele>
    </trkpt>
    <trkpt lat="67.60669" lon="17.34085">
      <ele>508.916</ele>
    </trkpt>
    <trkpt lat="67.60639" lon="17.33902">
      <ele>512.522</ele>
    </trkpt>
    <trkpt lat="67.6063" lon="17.33865">
      <ele>513.595</ele>
    </trkpt>
    <trkpt lat="67.60628" lon="17.33845">
      <ele>514.364</ele>
    </trkpt>
    <trkpt lat="67.60619" lon="17.33815">
      <ele>515.432</ele>
    </trkpt>
    <trkpt lat="67.60601" lon="17.33777">
      <ele>518.092</ele>
    </trkpt>
    <trkpt lat="67.60579" lon="17.33739">
      <ele>520.312</ele>
    </trkpt>
    <trkpt lat="67.60568" lon="17.33708">
      <ele>521.387</ele>
    </trkpt>
    <trkpt lat="67.60551" lon="17.33643">
      <ele>522.452</ele>
    </trkpt>
    <trkpt lat="67.60551" lon="17.33643">
      <ele>522.452</ele>
    </trkpt>
    <trkpt lat="67.60547" lon="17.3363">
      <ele>522.616</ele>
    </trkpt>
    <trkpt lat="67.60541" lon="17.33586">
      <ele>522.144</ele>
    </trkpt>
    <trkpt lat="67.60535" lon="17.33565">
      <ele>522.48</ele>
    </trkpt>
    <trkpt lat="67.6052" lon="17.33502">
      <ele>522.612</ele>
    </trkpt>
    <trkpt lat="67.60509" lon="17.33435">
      <ele>522.566</ele>
    </trkpt>
    <trkpt lat="67.60499" lon="17.3336">
      <ele>522.036</ele>
    </trkpt>
    <trkpt lat="67.60477" lon="17.33229">
      <ele>521.698</ele>
    </trkpt>
    <trkpt lat="67.60445" lon="17.3311">
      <ele>520.94</ele>
    </trkpt>
    <trkpt lat="67.6043" lon="17.33013">
      <ele>520.265</ele>
    </trkpt>
    <trkpt lat="67.60412" lon="17.3293">
      <ele>520.249</ele>
    </trkpt>
    <trkpt lat="67.60412" lon="17.32824">
      <ele>519.336</ele>
    </trkpt>
    <trkpt lat="67.60412" lon="17.32764">
      <ele>519.168</ele>
    </trkpt>
    <trkpt lat="67.60408" lon="17.32727">
      <ele>518.742</ele>
    </trkpt>
    <trkpt lat="67.604" lon="17.32678">
      <ele>518.845</ele>
    </trkpt>
    <trkpt lat="67.60381" lon="17.32601">
      <ele>518.739</ele>
    </trkpt>
    <trkpt lat="67.60377" lon="17.3258">
      <ele>518.377</ele>
    </trkpt>
    <trkpt lat="67.60372" lon="17.32521">
      <ele>517.364</ele>
    </trkpt>
    <trkpt lat="67.60369" lon="17.3247">
      <ele>516.716</ele>
    </trkpt>
    <trkpt lat="67.60364" lon="17.32446">
      <ele>516.896</ele>
    </trkpt>
    <trkpt lat="67.60357" lon="17.32431">
      <ele>517.148</ele>
    </trkpt>
    <trkpt lat="67.60344" lon="17.32433">
      <ele>517.616</ele>
    </trkpt>
    <trkpt lat="67.60325" lon="17.32386">
      <ele>519.3</ele>
    </trkpt>
    <trkpt lat="67.60288" lon="17.32282">
      <ele>520.632</ele>
    </trkpt>
    <trkpt lat="67.60277" lon="17.32233">
      <ele>521.433</ele>
    </trkpt>
    <trkpt lat="67.60263" lon="17.32189">
      <ele>521.532</ele>
    </trkpt>
    <trkpt lat="67.6025" lon="17.32126">
      <ele>521.536</ele>
    </trkpt>
    <trkpt lat="67.6024" lon="17.32095">
      <ele>520.78</ele>
    </trkpt>
    <trkpt lat="67.6022" lon="17.31932">
      <ele>520.528</ele>
    </trkpt>
    <trkpt lat="67.60217" lon="17.3189">
      <ele>521.188</ele>
    </trkpt>
    <trkpt lat="67.60211" lon="17.31879">
      <ele>521.76</ele>
    </trkpt>
    <trkpt lat="67.60191" lon="17.31866">
      <ele>522.948</ele>
    </trkpt>
    <trkpt lat="67.60174" lon="17.3185">
      <ele>523.736</ele>
    </trkpt>
    <trkpt lat="67.60152" lon="17.31822">
      <ele>524.936</ele>
    </trkpt>
    <trkpt lat="67.60138" lon="17.3177">
      <ele>526.303</ele>
    </trkpt>
    <trkpt lat="67.6013" lon="17.31746">
      <ele>527.046</ele>
    </trkpt>
    <trkpt lat="67.60118" lon="17.31692">
      <ele>527.752</ele>
    </trkpt>
    <trkpt lat="67.60085" lon="17.31599">
      <ele>529.41</ele>
    </trkpt>
    <trkpt lat="67.60085" lon="17.31599">
      <ele>529.41</ele>
    </trkpt>
    <trkpt lat="67.60069" lon="17.31537">
      <ele>530.516</ele>
    </trkpt>
    <trkpt lat="67.60065" lon="17.31525">
      <ele>530.66</ele>
    </trkpt>
    <trkpt lat="67.60046" lon="17.31504">
      <ele>531.344</ele>
    </trkpt>
    <trkpt lat="67.60038" lon="17.31481">
      <ele>531.2</ele>
    </trkpt>
    <trkpt lat="67.60013" lon="17.31445">
      <ele>530.031</ele>
    </trkpt>
    <trkpt lat="67.60013" lon="17.31445">
      <ele>530.031</ele>
    </trkpt>
    <trkpt lat="67.6001" lon="17.3144">
      <ele>529.84</ele>
    </trkpt>
    <trkpt lat="67.60004" lon="17.31417">
      <ele>529.012</ele>
    </trkpt>
    <trkpt lat="67.60004" lon="17.31359">
      <ele>528.065</ele>
    </trkpt>
    <trkpt lat="67.60006" lon="17.31304">
      <ele>529.828</ele>
    </trkpt>
    <trkpt lat="67.60019" lon="17.31263">
      <ele>529.996</ele>
    </trkpt>
    <trkpt lat="67.60026" lon="17.31211">
      <ele>531.064</ele>
    </trkpt>
    <trkpt lat="67.60033" lon="17.31183">
      <ele>531.036</ele>
    </trkpt>
    <trkpt lat="67.60039" lon="17.31126">
      <ele>531.192</ele>
    </trkpt>
    <trkpt lat="67.60039" lon="17.31096">
      <ele>530.648</ele>
    </trkpt>
    <trkpt lat="67.60035" lon="17.31059">
      <ele>530.48</ele>
    </trkpt>
    <trkpt lat="67.6004" lon="17.31004">
      <ele>530.416</ele>
    </trkpt>
    <trkpt lat="67.60045" lon="17.30992">
      <ele>530.668</ele>
    </trkpt>
    <trkpt lat="67.6007" lon="17.30949">
      <ele>530.395</ele>
    </trkpt>
    <trkpt lat="67.60076" lon="17.30934">
      <ele>530.64</ele>
    </trkpt>
    <trkpt lat="67.60085" lon="17.30896">
      <ele>531.639</ele>
    </trkpt>
    <trkpt lat="67.60085" lon="17.30896">
      <ele>531.639</ele>
    </trkpt>
    <trkpt lat="67.60095" lon="17.3083">
      <ele>532.21</ele>
    </trkpt>
    <trkpt lat="67.60097" lon="17.30741">
      <ele>532.508</ele>
    </trkpt>
    <trkpt lat="67.60085" lon="17.30663">
      <ele>532.94</ele>
    </trkpt>
    <trkpt lat="67.60085" lon="17.30663">
      <ele>532.94</ele>
    </trkpt>
    <trkpt lat="67.60074" lon="17.30621">
      <ele>533.336</ele>
    </trkpt>
    <trkpt lat="67.60042" lon="17.30485">
      <ele>533.0</ele>
    </trkpt>
    <trkpt lat="67.60034" lon="17.30444">
      <ele>533.0</ele>
    </trkpt>
    <trkpt lat="67.60028" lon="17.30398">
      <ele>533.0</ele>
    </trkpt>
    <trkpt lat="67.6002" lon="17.30361">
      <ele>533.28</ele>
    </trkpt>
    <trkpt lat="67.60006" lon="17.30322">
      <ele>533.784</ele>
    </trkpt>
    <trkpt lat="67.59995" lon="17.30279">
      <ele>534.0</ele>
    </trkpt>
    <trkpt lat="67.59981" lon="17.30192">
      <ele>533.684</ele>
    </trkpt>
    <trkpt lat="67.59977" lon="17.30126">
      <ele>533.828</ele>
    </trkpt>
    <trkpt lat="67.59965" lon="17.30055">
      <ele>534.0</ele>
    </trkpt>
    <trkpt lat="67.5996" lon="17.30017">
      <ele>534.0</ele>
    </trkpt>
    <trkpt lat="67.59958" lon="17.29949">
      <ele>534.0</ele>
    </trkpt>
    <trkpt lat="67.59952" lon="17.29897">
      <ele>533.807</ele>
    </trkpt>
    <trkpt lat="67.59937" lon="17.2984">
      <ele>534.0</ele>
    </trkpt>
    <trkpt lat="67.59918" lon="17.29789">
      <ele>533.385</ele>
    </trkpt>
    <trkpt lat="67.59895" lon="17.29702">
      <ele>533.0</ele>
    </trkpt>
    <trkpt lat="67.59883" lon="17.29653">
      <ele>533.212</ele>
    </trkpt>
    <trkpt lat="67.59879" lon="17.29593">
      <ele>533.356</ele>
    </trkpt>
    <trkpt lat="67.59862" lon="17.2956">
      <ele>533.155</ele>
    </trkpt>
    <trkpt lat="67.5985" lon="17.29527">
      <ele>533.4</ele>
    </trkpt>
    <trkpt lat="67.59826" lon="17.29477">
      <ele>534.0</ele>
    </trkpt>
    <trkpt lat="67.59814" lon="17.29421">
      <ele>533.743</ele>
    </trkpt>
    <trkpt lat="67.59808" lon="17.29356">
      <ele>532.984</ele>
    </trkpt>
    <trkpt lat="67.598" lon="17.29325">
      <ele>532.7</ele>
    </trkpt>
    <trkpt lat="67.59795" lon="17.29315">
      <ele>532.34</ele>
    </trkpt>
    <trkpt lat="67.59782" lon="17.29264">
      <ele>531.352</ele>
    </trkpt>
    <trkpt lat="67.59773" lon="17.29248">
      <ele>530.24</ele>
    </trkpt>
    <trkpt lat="67.59773" lon="17.29248">
      <ele>530.24</ele>
    </trkpt>
    <trkpt lat="67.59769" lon="17.29235">
      <ele>529.196</ele>
    </trkpt>
    <trkpt lat="67.59766" lon="17.29205">
      <ele>527.064</ele>
    </trkpt>
    <trkpt lat="67.5976" lon="17.29165">
      <ele>523.342</ele>
    </trkpt>
    <trkpt lat="67.59759" lon="17.29126">
      <ele>520.692</ele>
    </trkpt>
    <trkpt lat="67.59745" lon="17.29034">
      <ele>514.004</ele>
    </trkpt>
    <trkpt lat="67.59693" lon="17.28863">
      <ele>509.0</ele>
    </trkpt>
    <trkpt lat="67.59692" lon="17.28846">
      <ele>509.0</ele>
    </trkpt>
    <trkpt lat="67.59692" lon="17.28846">
      <ele>509.0</ele>
    </trkpt>
    <trkpt lat="67.59694" lon="17.28808">
      <ele>509.0</ele>
    </trkpt>
    <trkpt lat="67.59694" lon="17.28808">
      <ele>509.0</ele>
    </trkpt>
    <trkpt lat="67.59695" lon="17.28801">
      <ele>508.997</ele>
    </trkpt>
    <trkpt lat="67.59695" lon="17.28801">
      <ele>508.997</ele>
    </trkpt>
    <trkpt lat="67.59695" lon="17.28801">
      <ele>508.997</ele>
    </trkpt>
    <trkpt lat="67.59688" lon="17.28787">
      <ele>509.0</ele>
    </trkpt>
    <trkpt lat="67.59662" lon="17.28687">
      <ele>510.045</ele>
    </trkpt>
    <trkpt lat="67.59647" lon="17.28639">
      <ele>511.704</ele>
    </trkpt>
    <trkpt lat="67.59625" lon="17.28612">
      <ele>512.5</ele>
    </trkpt>
    <trkpt lat="67.59532" lon="17.28367">
      <ele>512.848</ele>
    </trkpt>
    <trkpt lat="67.59512" lon="17.28329">
      <ele>513.0</ele>
    </trkpt>
    <trkpt lat="67.59491" lon="17.28263">
      <ele>513.684</ele>
    </trkpt>
    <trkpt lat="67.59484" lon="17.28234">
      <ele>514.332</ele>
    </trkpt>
    <trkpt lat="67.59466" lon="17.28206">
      <ele>515.808</ele>
    </trkpt>
    <trkpt lat="67.59458" lon="17.28144">
      <ele>517.93</ele>
    </trkpt>
    <trkpt lat="67.59455" lon="17.28084">
      <ele>520.216</ele>
    </trkpt>
    <trkpt lat="67.59439" lon="17.28025">
      <ele>523.1</ele>
    </trkpt>
    <trkpt lat="67.59434" lon="17.27998">
      <ele>524.072</ele>
    </trkpt>
    <trkpt lat="67.59432" lon="17.27957">
      <ele>525.548</ele>
    </trkpt>
    <trkpt lat="67.59438" lon="17.27743">
      <ele>531.484</ele>
    </trkpt>
    <trkpt lat="67.59434" lon="17.27717">
      <ele>532.564</ele>
    </trkpt>
    <trkpt lat="67.59433" lon="17.27665">
      <ele>533.412</ele>
    </trkpt>
    <trkpt lat="67.59409" lon="17.27479">
      <ele>534.0</ele>
    </trkpt>
    <trkpt lat="67.59396" lon="17.27395">
      <ele>534.836</ele>
    </trkpt>
    <trkpt lat="67.59394" lon="17.27345">
      <ele>535.0</ele>
    </trkpt>
    <trkpt lat="67.5939" lon="17.27314">
      <ele>535.0</ele>
    </trkpt>
    <trkpt lat="67.59389" lon="17.2726">
      <ele>535.0</ele>
    </trkpt>
    <trkpt lat="67.59377" lon="17.27217">
      <ele>534.572</ele>
    </trkpt>
    <trkpt lat="67.59346" lon="17.27151">
      <ele>533.912</ele>
    </trkpt>
    <trkpt lat="67.59315" lon="17.27067">
      <ele>532.68</ele>
    </trkpt>
    <trkpt lat="67.59311" lon="17.27051">
      <ele>532.392</ele>
    </trkpt>
    <trkpt lat="67.59311" lon="17.27051">
      <ele>532.392</ele>
    </trkpt>
    <trkpt lat="67.59299" lon="17.2701">
      <ele>531.528</ele>
    </trkpt>
    <trkpt lat="67.59279" lon="17.26902">
      <ele>530.616</ele>
    </trkpt>
    <trkpt lat="67.59247" lon="17.26804">
      <ele>529.784</ele>
    </trkpt>
    <trkpt lat="67.59247" lon="17.26804">
      <ele>529.784</ele>
    </trkpt>
    <trkpt lat="67.59232" lon="17.26758">
      <ele>529.165</ele>
    </trkpt>
    <trkpt lat="67.59195" lon="17.26631">
      <ele>528.318</ele>
    </trkpt>
    <trkpt lat="67.59187" lon="17.26579">
      <ele>528.506</ele>
    </trkpt>
    <trkpt lat="67.59172" lon="17.26468">
      <ele>528.221</ele>
    </trkpt>
    <trkpt lat="67.59168" lon="17.26412">
      <ele>529.048</ele>
    </trkpt>
    <trkpt lat="67.59154" lon="17.26341">
      <ele>528.544</ele>
    </trkpt>
    <trkpt lat="67.59121" lon="17.26232">
      <ele>527.587</ele>
    </trkpt>
    <trkpt lat="67.59114" lon="17.26195">
      <ele>527.208</ele>
    </trkpt>
    <trkpt lat="67.5911" lon="17.26126">
      <ele>526.92</ele>
    </trkpt>
    <trkpt lat="67.59089" lon="17.26019">
      <ele>524.612</ele>
    </trkpt>
    <trkpt lat="67.59083" lon="17.25979">
      <ele>523.976</ele>
    </trkpt>
    <trkpt lat="67.59023" lon="17.25843">
      <ele>521.828</ele>
    </trkpt>
    <trkpt lat="67.58982" lon="17.25802">
      <ele>522.0</ele>
    </trkpt>
    <trkpt lat="67.58948" lon="17.25717">
      <ele>522.0</ele>
    </trkpt>
    <trkpt lat="67.58935" lon="17.25688">
      <ele>522.0</ele>
    </trkpt>
    <trkpt lat="67.5889" lon="17.25625">
      <ele>522.96</ele>
    </trkpt>
    <trkpt lat="67.58877" lon="17.25584">
      <ele>523.0</ele>
    </trkpt>
    <trkpt lat="67.58868" lon="17.25547">
      <ele>523.0</ele>
    </trkpt>
    <trkpt lat="67.58827" lon="17.25435">
      <ele>524.228</ele>
    </trkpt>
    <trkpt lat="67.58791" lon="17.25385">
      <ele>524.524</ele>
    </trkpt>
    <trkpt lat="67.5878" lon="17.25379">
      <ele>524.92</ele>
    </trkpt>
    <trkpt lat="67.5877" lon="17.25367">
      <ele>525.059</ele>
    </trkpt>
    <trkpt lat="67.58764" lon="17.25338">
      <ele>524.581</ele>
    </trkpt>
    <trkpt lat="67.58738" lon="17.25296">
      <ele>524.656</ele>
    </trkpt>
    <trkpt lat="67.5868" lon="17.25172">
      <ele>524.0</ele>
    </trkpt>
    <trkpt lat="67.58539" lon="17.24921">
      <ele>524.0</ele>
    </trkpt>
    <trkpt lat="67.58523" lon="17.24854">
      <ele>524.0</ele>
    </trkpt>
    <trkpt lat="67.58523" lon="17.24854">
      <ele>524.0</ele>
    </trkpt>
    <trkpt lat="67.58502" lon="17.24783">
      <ele>524.058</ele>
    </trkpt>
    <trkpt lat="67.58455" lon="17.24698">
      <ele>524.0</ele>
    </trkpt>
    <trkpt lat="67.5845" lon="17.2468">
      <ele>524.0</ele>
    </trkpt>
    <trkpt lat="67.58444" lon="17.24647">
      <ele>524.0</ele>
    </trkpt>
    <trkpt lat="67.5843" lon="17.24601">
      <ele>524.0</ele>
    </trkpt>
    <trkpt lat="67.5841" lon="17.24563">
      <ele>524.0</ele>
    </trkpt>
    <trkpt lat="67.5841" lon="17.24563">
      <ele>524.0</ele>
    </trkpt>
    <trkpt lat="67.584" lon="17.24544">
      <ele>524.0</ele>
    </trkpt>
    <trkpt lat="67.58381" lon="17.24498">
      <ele>524.0</ele>
    </trkpt>
    <trkpt lat="67.58365" lon="17.24467">
      <ele>524.0</ele>
    </trkpt>
    <trkpt lat="67.58355" lon="17.24453">
      <ele>523.932</ele>
    </trkpt>
    <trkpt lat="67.58349" lon="17.24447">
      <ele>523.96</ele>
    </trkpt>
    <trkpt lat="67.58332" lon="17.24453">
      <ele>523.659</ele>
    </trkpt>
    <trkpt lat="67.58308" lon="17.24502">
      <ele>523.0</ele>
    </trkpt>
    <trkpt lat="67.58254" lon="17.24561">
      <ele>523.0</ele>
    </trkpt>
    <trkpt lat="67.58242" lon="17.24567">
      <ele>523.288</ele>
    </trkpt>
    <trkpt lat="67.58183" lon="17.24538">
      <ele>524.564</ele>
    </trkpt>
    <trkpt lat="67.58168" lon="17.24539">
      <ele>525.337</ele>
    </trkpt>
    <trkpt lat="67.58153" lon="17.24515">
      <ele>525.984</ele>
    </trkpt>
    <trkpt lat="67.58139" lon="17.24475">
      <ele>526.092</ele>
    </trkpt>
    <trkpt lat="67.58119" lon="17.24363">
      <ele>525.932</ele>
    </trkpt>
    <trkpt lat="67.58107" lon="17.24327">
      <ele>527.364</ele>
    </trkpt>
    <trkpt lat="67.58089" lon="17.2424">
      <ele>527.897</ele>
    </trkpt>
    <trkpt lat="67.58082" lon="17.242">
      <ele>528.202</ele>
    </trkpt>
    <trkpt lat="67.58077" lon="17.24183">
      <ele>528.912</ele>
    </trkpt>
    <trkpt lat="67.58076" lon="17.24163">
      <ele>528.959</ele>
    </trkpt>
    <trkpt lat="67.58066" lon="17.24089">
      <ele>530.419</ele>
    </trkpt>
    <trkpt lat="67.58066" lon="17.24033">
      <ele>531.12</ele>
    </trkpt>
    <trkpt lat="67.58063" lon="17.24007">
      <ele>531.66</ele>
    </trkpt>
    <trkpt lat="67.58057" lon="17.23971">
      <ele>532.696</ele>
    </trkpt>
    <trkpt lat="67.58049" lon="17.23906">
      <ele>532.179</ele>
    </trkpt>
    <trkpt lat="67.58036" lon="17.23825">
      <ele>531.516</ele>
    </trkpt>
    <trkpt lat="67.58017" lon="17.23775">
      <ele>533.064</ele>
    </trkpt>
    <trkpt lat="67.58006" lon="17.23735">
      <ele>533.352</ele>
    </trkpt>
    <trkpt lat="67.57998" lon="17.23714">
      <ele>533.869</ele>
    </trkpt>
    <trkpt lat="67.57985" lon="17.23655">
      <ele>534.2</ele>
    </trkpt>
    <trkpt lat="67.57981" lon="17.23604">
      <ele>533.655</ele>
    </trkpt>
    <trkpt lat="67.57977" lon="17.23584">
      <ele>534.144</ele>
    </trkpt>
    <trkpt lat="67.5797" lon="17.23566">
      <ele>534.506</ele>
    </trkpt>
    <trkpt lat="67.57926" lon="17.23528">
      <ele>535.672</ele>
    </trkpt>
    <trkpt lat="67.57886" lon="17.23487">
      <ele>535.685</ele>
    </trkpt>
    <trkpt lat="67.57855" lon="17.23452">
      <ele>536.652</ele>
    </trkpt>
    <trkpt lat="67.57847" lon="17.23436">
      <ele>536.712</ele>
    </trkpt>
    <trkpt lat="67.57824" lon="17.23406">
      <ele>537.081</ele>
    </trkpt>
    <trkpt lat="67.57806" lon="17.23397">
      <ele>537.973</ele>
    </trkpt>
    <trkpt lat="67.57794" lon="17.23381">
      <ele>537.716</ele>
    </trkpt>
    <trkpt lat="67.57775" lon="17.23316">
      <ele>535.476</ele>
    </trkpt>
    <trkpt lat="67.57753" lon="17.2329">
      <ele>535.892</ele>
    </trkpt>
    <trkpt lat="67.5773" lon="17.23252">
      <ele>537.18</ele>
    </trkpt>
    <trkpt lat="67.57718" lon="17.23215">
      <ele>538.868</ele>
    </trkpt>
    <trkpt lat="67.57708" lon="17.23172">
      <ele>541.048</ele>
    </trkpt>
    <trkpt lat="67.57692" lon="17.23145">
      <ele>543.352</ele>
    </trkpt>
    <trkpt lat="67.57682" lon="17.23141">
      <ele>544.792</ele>
    </trkpt>
    <trkpt lat="67.57671" lon="17.23128">
      <ele>546.315</ele>
    </trkpt>
    <trkpt lat="67.57648" lon="17.23109">
      <ele>549.016</ele>
    </trkpt>
    <trkpt lat="67.57643" lon="17.23095">
      <ele>549.556</ele>
    </trkpt>
    <trkpt lat="67.57638" lon="17.23088">
      <ele>550.064</ele>
    </trkpt>
    <trkpt lat="67.57629" lon="17.2307">
      <ele>550.712</ele>
    </trkpt>
    <trkpt lat="67.57593" lon="17.22898">
      <ele>550.976</ele>
    </trkpt>
    <trkpt lat="67.57589" lon="17.22861">
      <ele>551.592</ele>
    </trkpt>
    <trkpt lat="67.57572" lon="17.22797">
      <ele>552.408</ele>
    </trkpt>
    <trkpt lat="67.57572" lon="17.22797">
      <ele>552.408</ele>
    </trkpt>
    <trkpt lat="67.57569" lon="17.22787">
      <ele>552.516</ele>
    </trkpt>
    <trkpt lat="67.57554" lon="17.22754">
      <ele>553.056</ele>
    </trkpt>
    <trkpt lat="67.57546" lon="17.22741">
      <ele>553.344</ele>
    </trkpt>
    <trkpt lat="67.57538" lon="17.22714">
      <ele>553.523</ele>
    </trkpt>
    <trkpt lat="67.57536" lon="17.22702">
      <ele>553.489</ele>
    </trkpt>
    <trkpt lat="67.57527" lon="17.22681">
      <ele>554.028</ele>
    </trkpt>
    <trkpt lat="67.57509" lon="17.22656">
      <ele>554.552</ele>
    </trkpt>
    <trkpt lat="67.57509" lon="17.22656">
      <ele>554.552</ele>
    </trkpt>
    <trkpt lat="67.57484" lon="17.22622">
      <ele>555.576</ele>
    </trkpt>
    <trkpt lat="67.57475" lon="17.22579">
      <ele>555.9</ele>
    </trkpt>
    <trkpt lat="67.57465" lon="17.22555">
      <ele>555.985</ele>
    </trkpt>
    <trkpt lat="67.57452" lon="17.2251">
      <ele>555.262</ele>
    </trkpt>
    <trkpt lat="67.57438" lon="17.22477">
      <ele>555.0</ele>
    </trkpt>
    <trkpt lat="67.57421" lon="17.22409">
      <ele>554.233</ele>
    </trkpt>
    <trkpt lat="67.57406" lon="17.22358">
      <ele>555.837</ele>
    </trkpt>
    <trkpt lat="67.57387" lon="17.2232">
      <ele>557.583</ele>
    </trkpt>
    <trkpt lat="67.57387" lon="17.22294">
      <ele>558.512</ele>
    </trkpt>
    <trkpt lat="67.5737" lon="17.22189">
      <ele>564.493</ele>
    </trkpt>
    <trkpt lat="67.5733" lon="17.22103">
      <ele>569.652</ele>
    </trkpt>
    <trkpt lat="67.57283" lon="17.2198">
      <ele>575.436</ele>
    </trkpt>
    <trkpt lat="67.57256" lon="17.21858">
      <ele>579.92</ele>
    </trkpt>
    <trkpt lat="67.57237" lon="17.21792">
      <ele>582.404</ele>
    </trkpt>
    <trkpt lat="67.57194" lon="17.21683">
      <ele>583.993</ele>
    </trkpt>
    <trkpt lat="67.57174" lon="17.21605">
      <ele>582.264</ele>
    </trkpt>
    <trkpt lat="67.57159" lon="17.21558">
      <ele>581.976</ele>
    </trkpt>
    <trkpt lat="67.57152" lon="17.21545">
      <ele>581.821</ele>
    </trkpt>
    <trkpt lat="67.57113" lon="17.21538">
      <ele>582.932</ele>
    </trkpt>
    <trkpt lat="67.57081" lon="17.21485">
      <ele>584.0</ele>
    </trkpt>
    <trkpt lat="67.57058" lon="17.21432">
      <ele>584.0</ele>
    </trkpt>
    <trkpt lat="67.57037" lon="17.21391">
      <ele>584.0</ele>
    </trkpt>
    <trkpt lat="67.57011" lon="17.21357">
      <ele>584.0</ele>
    </trkpt>
    <trkpt lat="67.56983" lon="17.21331">
      <ele>584.612</ele>
    </trkpt>
    <trkpt lat="67.56964" lon="17.21303">
      <ele>585.0</ele>
    </trkpt>
    <trkpt lat="67.56939" lon="17.21282">
      <ele>585.0</ele>
    </trkpt>
    <trkpt lat="67.56903" lon="17.21272">
      <ele>585.594</ele>
    </trkpt>
    <trkpt lat="67.56883" lon="17.21279">
      <ele>586.212</ele>
    </trkpt>
    <trkpt lat="67.56854" lon="17.21326">
      <ele>587.256</ele>
    </trkpt>
    <trkpt lat="67.56845" lon="17.21336">
      <ele>587.58</ele>
    </trkpt>
    <trkpt lat="67.56805" lon="17.21367">
      <ele>587.016</ele>
    </trkpt>
    <trkpt lat="67.56733" lon="17.21479">
      <ele>589.632</ele>
    </trkpt>
    <trkpt lat="67.56733" lon="17.21479">
      <ele>589.632</ele>
    </trkpt>
    <trkpt lat="67.56678" lon="17.21566">
      <ele>589.231</ele>
    </trkpt>
    <trkpt lat="67.5665" lon="17.21623">
      <ele>589.542</ele>
    </trkpt>
    <trkpt lat="67.56639" lon="17.21635">
      <ele>589.589</ele>
    </trkpt>
    <trkpt lat="67.56621" lon="17.21644">
      <ele>587.082</ele>
    </trkpt>
    <trkpt lat="67.56591" lon="17.21637">
      <ele>581.244</ele>
    </trkpt>
    <trkpt lat="67.56559" lon="17.2165">
      <ele>576.82</ele>
    </trkpt>
    <trkpt lat="67.56544" lon="17.21629">
      <ele>573.396</ele>
    </trkpt>
    <trkpt lat="67.56487" lon="17.21595">
      <ele>568.261</ele>
    </trkpt>
    <trkpt lat="67.56458" lon="17.21581">
      <ele>567.0</ele>
    </trkpt>
    <trkpt lat="67.56431" lon="17.21581">
      <ele>566.959</ele>
    </trkpt>
    <trkpt lat="67.5642" lon="17.21603">
      <ele>567.0</ele>
    </trkpt>
    <trkpt lat="67.56409" lon="17.21619">
      <ele>567.56</ele>
    </trkpt>
    <trkpt lat="67.56368" lon="17.21671">
      <ele>567.496</ele>
    </trkpt>
    <trkpt lat="67.56347" lon="17.21667">
      <ele>565.99</ele>
    </trkpt>
    <trkpt lat="67.56336" lon="17.2166">
      <ele>564.952</ele>
    </trkpt>
    <trkpt lat="67.56336" lon="17.2166">
      <ele>564.952</ele>
    </trkpt>
    <trkpt lat="67.56314" lon="17.21607">
      <ele>563.696</ele>
    </trkpt>
    <trkpt lat="67.56314" lon="17.21607">
      <ele>563.696</ele>
    </trkpt>
    <trkpt lat="67.563" lon="17.21629">
      <ele>564.2</ele>
    </trkpt>
    <trkpt lat="67.56282" lon="17.2164">
      <ele>564.848</ele>
    </trkpt>
    <trkpt lat="67.56266" lon="17.2163">
      <ele>565.56</ele>
    </trkpt>
    <trkpt lat="67.56248" lon="17.2165">
      <ele>566.144</ele>
    </trkpt>
    <trkpt lat="67.56248" lon="17.2165">
      <ele>566.144</ele>
    </trkpt>
    <trkpt lat="67.56248" lon="17.2165">
      <ele>566.144</ele>
    </trkpt>
    <trkpt lat="67.56168" lon="17.21619">
      <ele>568.825</ele>
    </trkpt>
    <trkpt lat="67.56105" lon="17.21646">
      <ele>568.732</ele>
    </trkpt>
    <trkpt lat="67.56098" lon="17.21633">
      <ele>568.26</ele>
    </trkpt>
    <trkpt lat="67.56098" lon="17.21633">
      <ele>568.26</ele>
    </trkpt>
    <trkpt lat="67.56091" lon="17.21593">
      <ele>568.196</ele>
    </trkpt>
    <trkpt lat="67.56091" lon="17.21593">
      <ele>568.196</ele>
    </trkpt>
    <trkpt lat="67.56092" lon="17.21578">
      <ele>568.76</ele>
    </trkpt>
    <trkpt lat="67.56089" lon="17.21559">
      <ele>570.344</ele>
    </trkpt>
    <trkpt lat="67.56079" lon="17.21557">
      <ele>571.044</ele>
    </trkpt>
    <trkpt lat="67.56068" lon="17.21537">
      <ele>572.888</ele>
    </trkpt>
    <trkpt lat="67.56062" lon="17.21532">
      <ele>573.464</ele>
    </trkpt>
    <trkpt lat="67.56049" lon="17.2149">
      <ele>577.956</ele>
    </trkpt>
    <trkpt lat="67.56031" lon="17.2148">
      <ele>579.324</ele>
    </trkpt>
    <trkpt lat="67.56013" lon="17.21463">
      <ele>580.464</ele>
    </trkpt>
    <trkpt lat="67.55997" lon="17.21407">
      <ele>586.392</ele>
    </trkpt>
    <trkpt lat="67.55993" lon="17.21298">
      <ele>593.069</ele>
    </trkpt>
    <trkpt lat="67.55988" lon="17.21227">
      <ele>593.432</ele>
    </trkpt>
    <trkpt lat="67.55986" lon="17.21152">
      <ele>593.504</ele>
    </trkpt>
    <trkpt lat="67.55986" lon="17.21095">
      <ele>593.504</ele>
    </trkpt>
    <trkpt lat="67.55991" lon="17.21062">
      <ele>593.075</ele>
    </trkpt>
    <trkpt lat="67.56" lon="17.21014">
      <ele>593.0</ele>
    </trkpt>
    <trkpt lat="67.56" lon="17.20941">
      <ele>592.0</ele>
    </trkpt>
    <trkpt lat="67.55997" lon="17.20854">
      <ele>591.664</ele>
    </trkpt>
    <trkpt lat="67.56005" lon="17.20794">
      <ele>590.105</ele>
    </trkpt>
    <trkpt lat="67.56007" lon="17.20746">
      <ele>589.712</ele>
    </trkpt>
    <trkpt lat="67.55995" lon="17.20689">
      <ele>590.215</ele>
    </trkpt>
    <trkpt lat="67.5599" lon="17.20644">
      <ele>590.72</ele>
    </trkpt>
    <trkpt lat="67.55983" lon="17.20594">
      <ele>589.608</ele>
    </trkpt>
    <trkpt lat="67.55961" lon="17.20555">
      <ele>590.392</ele>
    </trkpt>
    <trkpt lat="67.55948" lon="17.20521">
      <ele>590.531</ele>
    </trkpt>
    <trkpt lat="67.55944" lon="17.20459">
      <ele>589.532</ele>
    </trkpt>
    <trkpt lat="67.55944" lon="17.20459">
      <ele>589.532</ele>
    </trkpt>
    <trkpt lat="67.55954" lon="17.20307">
      <ele>589.982</ele>
    </trkpt>
    <trkpt lat="67.55953" lon="17.20235">
      <ele>589.692</ele>
    </trkpt>
    <trkpt lat="67.55954" lon="17.20181">
      <ele>589.656</ele>
    </trkpt>
    <trkpt lat="67.55951" lon="17.20153">
      <ele>589.764</ele>
    </trkpt>
    <trkpt lat="67.55953" lon="17.20106">
      <ele>589.565</ele>
    </trkpt>
    <trkpt lat="67.55961" lon="17.20079">
      <ele>589.0</ele>
    </trkpt>
    <trkpt lat="67.55961" lon="17.20042">
      <ele>589.0</ele>
    </trkpt>
    <trkpt lat="67.55935" lon="17.19927">
      <ele>587.032</ele>
    </trkpt>
  </trkseg>
</trk>
</gpx>
