<?xml version="1.0"?>
<gpx xmlns="http://www.topografix.com/GPX/1/1" xmlns:gpxx="http://www.garmin.com/xmlschemas/GpxExtensions/v3" creator="CALTOPO" version="1.1"><metadata><name><![CDATA[hetta-sioskuru]]></name></metadata><trk><name>hetta-sioskuru</name><trkseg><trkpt lat="68.38275918886535" lon="23.66626739501953"/><trkpt lat="68.38250621053572" lon="23.666288447367222"/><trkpt lat="68.3825" lon="23.66629"/><trkpt lat="68.38246" lon="23.66636"/><trkpt lat="68.38226" lon="23.66717"/><trkpt lat="68.38215" lon="23.66758"/><trkpt lat="68.382" lon="23.66801"/><trkpt lat="68.38193" lon="23.66812"/><trkpt lat="68.38183" lon="23.66823"/><trkpt lat="68.38105" lon="23.66885"/><trkpt lat="68.38077" lon="23.66928"/><trkpt lat="68.3804" lon="23.67034"/><trkpt lat="68.37975" lon="23.67128"/><trkpt lat="68.37949" lon="23.6718"/><trkpt lat="68.37948970810194" lon="23.67180078113712"/><trkpt lat="68.37948970810194" lon="23.67180078113712"/><trkpt lat="68.37909" lon="23.67287"/><trkpt lat="68.37882" lon="23.67392"/><trkpt lat="68.37804" lon="23.67555"/><trkpt lat="68.37776" lon="23.67675"/><trkpt lat="68.37751" lon="23.67754"/><trkpt lat="68.3766" lon="23.67786"/><trkpt lat="68.37583" lon="23.67784"/><trkpt lat="68.3749" lon="23.67882"/><trkpt lat="68.3749" lon="23.67882"/><trkpt lat="68.37421" lon="23.67954"/><trkpt lat="68.37335" lon="23.68099"/><trkpt lat="68.37309" lon="23.68175"/><trkpt lat="68.37253" lon="23.68248"/><trkpt lat="68.37228" lon="23.68253"/><trkpt lat="68.37182" lon="23.68293"/><trkpt lat="68.37108" lon="23.683"/><trkpt lat="68.37044" lon="23.68338"/><trkpt lat="68.36963" lon="23.68455"/><trkpt lat="68.36922" lon="23.68548"/><trkpt lat="68.36897" lon="23.68652"/><trkpt lat="68.36897" lon="23.68652"/><trkpt lat="68.36885" lon="23.68703"/><trkpt lat="68.36802" lon="23.68806"/><trkpt lat="68.36756" lon="23.68806"/><trkpt lat="68.36726" lon="23.6883"/><trkpt lat="68.36692" lon="23.68822"/><trkpt lat="68.3668" lon="23.68825"/><trkpt lat="68.3668" lon="23.68825"/><trkpt lat="68.36639" lon="23.68837"/><trkpt lat="68.36526" lon="23.68935"/><trkpt lat="68.36466" lon="23.68929"/><trkpt lat="68.36427" lon="23.68902"/><trkpt lat="68.36423152427344" lon="23.6890318386851"/><trkpt lat="68.36423152457101" lon="23.689031838685096"/><trkpt lat="68.36388" lon="23.68914"/><trkpt lat="68.36308" lon="23.69031"/><trkpt lat="68.36301" lon="23.69076"/><trkpt lat="68.36254" lon="23.69124"/><trkpt lat="68.36215" lon="23.69192"/><trkpt lat="68.36161" lon="23.69122"/><trkpt lat="68.36144" lon="23.69139"/><trkpt lat="68.36118" lon="23.69213"/><trkpt lat="68.36038" lon="23.69315"/><trkpt lat="68.36002" lon="23.69315"/><trkpt lat="68.35956" lon="23.69346"/><trkpt lat="68.35874" lon="23.69333"/><trkpt lat="68.3587" lon="23.69334"/><trkpt lat="68.3587" lon="23.69334"/><trkpt lat="68.35724" lon="23.69386"/><trkpt lat="68.35724" lon="23.69386"/><trkpt lat="68.35714" lon="23.69387"/><trkpt lat="68.357" lon="23.69407"/><trkpt lat="68.357" lon="23.69407"/><trkpt lat="68.35665" lon="23.69452"/><trkpt lat="68.35618" lon="23.69564"/><trkpt lat="68.35571" lon="23.69621"/><trkpt lat="68.3552" lon="23.69747"/><trkpt lat="68.3552" lon="23.69747"/><trkpt lat="68.35508" lon="23.69798"/><trkpt lat="68.35508" lon="23.69798"/><trkpt lat="68.3546" lon="23.69894"/><trkpt lat="68.35374" lon="23.70012"/><trkpt lat="68.35259" lon="23.70203"/><trkpt lat="68.35234" lon="23.70211"/><trkpt lat="68.35184" lon="23.70275"/><trkpt lat="68.35164" lon="23.70321"/><trkpt lat="68.3513" lon="23.70361"/><trkpt lat="68.35094" lon="23.70357"/><trkpt lat="68.35066" lon="23.70377"/><trkpt lat="68.35059" lon="23.70392"/><trkpt lat="68.35059" lon="23.70392"/><trkpt lat="68.35028" lon="23.70473"/><trkpt lat="68.34986" lon="23.70531"/><trkpt lat="68.34915" lon="23.70656"/><trkpt lat="68.34889" lon="23.70666"/><trkpt lat="68.34873" lon="23.70667"/><trkpt lat="68.34817" lon="23.70716"/><trkpt lat="68.34802" lon="23.70719"/><trkpt lat="68.34802" lon="23.70719"/><trkpt lat="68.34792" lon="23.70749"/><trkpt lat="68.34785" lon="23.70789"/><trkpt lat="68.34758" lon="23.70808"/><trkpt lat="68.34758" lon="23.70808"/><trkpt lat="68.34752" lon="23.70823"/><trkpt lat="68.34749" lon="23.7085"/><trkpt lat="68.34749" lon="23.7085"/><trkpt lat="68.34741" lon="23.70907"/><trkpt lat="68.34732" lon="23.70912"/><trkpt lat="68.34717" lon="23.70908"/><trkpt lat="68.34691" lon="23.70918"/><trkpt lat="68.34673" lon="23.70915"/><trkpt lat="68.34645" lon="23.70946"/><trkpt lat="68.34615" lon="23.70935"/><trkpt lat="68.34594" lon="23.70951"/><trkpt lat="68.34594" lon="23.70951"/><trkpt lat="68.34593999999997" lon="23.709510000000005"/><trkpt lat="68.34572" lon="23.7091"/><trkpt lat="68.34556" lon="23.70893"/><trkpt lat="68.3454" lon="23.7085"/><trkpt lat="68.3454" lon="23.7085"/><trkpt lat="68.3452" lon="23.70825"/><trkpt lat="68.34504" lon="23.70818"/><trkpt lat="68.34504" lon="23.70818"/><trkpt lat="68.34492" lon="23.70783"/><trkpt lat="68.34464" lon="23.70821"/><trkpt lat="68.34457" lon="23.70821"/><trkpt lat="68.34449" lon="23.70835"/><trkpt lat="68.34424" lon="23.7083"/><trkpt lat="68.34404" lon="23.70832"/><trkpt lat="68.34397" lon="23.7085"/><trkpt lat="68.34397" lon="23.7085"/><trkpt lat="68.34386" lon="23.70878"/><trkpt lat="68.34374" lon="23.70888"/><trkpt lat="68.34341" lon="23.7098"/><trkpt lat="68.34294" lon="23.71035"/><trkpt lat="68.34271" lon="23.71097"/><trkpt lat="68.34262" lon="23.71164"/><trkpt lat="68.34249" lon="23.71226"/><trkpt lat="68.34249" lon="23.71226"/><trkpt lat="68.34239" lon="23.71269"/><trkpt lat="68.34218" lon="23.71329"/><trkpt lat="68.34218" lon="23.71329"/><trkpt lat="68.34215" lon="23.71407"/><trkpt lat="68.34217" lon="23.71559"/><trkpt lat="68.34225" lon="23.71606"/><trkpt lat="68.34232" lon="23.71632"/><trkpt lat="68.34241" lon="23.7169"/><trkpt lat="68.34249" lon="23.7172"/><trkpt lat="68.34249" lon="23.7172"/><trkpt lat="68.34259" lon="23.71763"/><trkpt lat="68.34268" lon="23.71776"/><trkpt lat="68.34269890430522" lon="23.717841918656"/><trkpt lat="68.34269890430522" lon="23.717841918656"/><trkpt lat="68.3428" lon="23.71828"/><trkpt lat="68.34287" lon="23.7187"/><trkpt lat="68.3429" lon="23.71914"/><trkpt lat="68.34286689665966" lon="23.719476551701895"/><trkpt lat="68.34286689665966" lon="23.719476551701895"/><trkpt lat="68.34284" lon="23.71975"/><trkpt lat="68.34284" lon="23.71975"/><trkpt lat="68.3428" lon="23.72034"/><trkpt lat="68.3428" lon="23.72034"/><trkpt lat="68.34281913533985" lon="23.720383737919672"/><trkpt lat="68.34281913536125" lon="23.720383737919672"/><trkpt lat="68.3428" lon="23.72034"/><trkpt lat="68.3428" lon="23.72034"/><trkpt lat="68.34273" lon="23.72052"/><trkpt lat="68.34262" lon="23.72096"/><trkpt lat="68.34249" lon="23.72119"/><trkpt lat="68.34249" lon="23.72119"/><trkpt lat="68.34243" lon="23.72139"/><trkpt lat="68.34243" lon="23.72139"/><trkpt lat="68.34243" lon="23.72139"/><trkpt lat="68.34238" lon="23.72173"/><trkpt lat="68.34227" lon="23.72204"/><trkpt lat="68.34212" lon="23.72261"/><trkpt lat="68.34116" lon="23.72436"/><trkpt lat="68.34105" lon="23.72468"/><trkpt lat="68.34046951002023" lon="23.726050336906532"/><trkpt lat="68.34046951002023" lon="23.726050336906532"/><trkpt lat="68.34044" lon="23.72612"/><trkpt lat="68.34012" lon="23.72731"/><trkpt lat="68.34001" lon="23.72791"/><trkpt lat="68.33984" lon="23.72855"/><trkpt lat="68.33977" lon="23.72903"/><trkpt lat="68.33974" lon="23.72952"/><trkpt lat="68.33974" lon="23.72952"/><trkpt lat="68.33948" lon="23.73011"/><trkpt lat="68.33941" lon="23.73021"/><trkpt lat="68.33935" lon="23.73025"/><trkpt lat="68.33935" lon="23.73025"/><trkpt lat="68.33929" lon="23.73047"/><trkpt lat="68.33929" lon="23.73047"/><trkpt lat="68.33918" lon="23.73086"/><trkpt lat="68.33911" lon="23.73187"/><trkpt lat="68.33836" lon="23.73438"/><trkpt lat="68.33836" lon="23.73438"/><trkpt lat="68.33706" lon="23.73638"/><trkpt lat="68.33622" lon="23.73801"/><trkpt lat="68.33531" lon="23.73914"/><trkpt lat="68.33461" lon="23.74025"/><trkpt lat="68.33438" lon="23.74039"/><trkpt lat="68.33438" lon="23.74039"/><trkpt lat="68.33418" lon="23.7405"/><trkpt lat="68.33393" lon="23.74075"/><trkpt lat="68.33369" lon="23.7411"/><trkpt lat="68.33323" lon="23.74141"/><trkpt lat="68.33309" lon="23.74158"/><trkpt lat="68.33301" lon="23.74159"/><trkpt lat="68.33294" lon="23.74168"/><trkpt lat="68.33272" lon="23.74185"/><trkpt lat="68.33252" lon="23.74206"/><trkpt lat="68.33196" lon="23.74192"/><trkpt lat="68.33184" lon="23.74196"/><trkpt lat="68.33168" lon="23.7419"/><trkpt lat="68.33157" lon="23.74197"/><trkpt lat="68.331" lon="23.74208"/><trkpt lat="68.33068" lon="23.7423"/><trkpt lat="68.33011" lon="23.7429"/><trkpt lat="68.32978" lon="23.7429"/><trkpt lat="68.32978" lon="23.7429"/><trkpt lat="68.32952" lon="23.743"/><trkpt lat="68.32944" lon="23.74296"/><trkpt lat="68.32927" lon="23.74298"/><trkpt lat="68.32894" lon="23.74278"/><trkpt lat="68.32846" lon="23.74285"/><trkpt lat="68.32819" lon="23.74302"/><trkpt lat="68.328" lon="23.74322"/><trkpt lat="68.32798989564486" lon="23.743241127031656"/><trkpt lat="68.32799" lon="23.74324"/><trkpt lat="68.32798" lon="23.74335"/><trkpt lat="68.32778" lon="23.74384"/><trkpt lat="68.32776" lon="23.74399"/><trkpt lat="68.32774" lon="23.74402"/><trkpt lat="68.3277" lon="23.74423"/><trkpt lat="68.32772" lon="23.74477"/><trkpt lat="68.32771658539356" lon="23.744772805129188"/><trkpt lat="68.32782" lon="23.74571"/><trkpt lat="68.32791" lon="23.74623"/><trkpt lat="68.32798" lon="23.74647"/><trkpt lat="68.32817" lon="23.7476"/><trkpt lat="68.32824032641989" lon="23.747939506854614"/><trkpt lat="68.32824" lon="23.74794"/><trkpt lat="68.32825" lon="23.74815"/><trkpt lat="68.32834" lon="23.74879"/><trkpt lat="68.32839" lon="23.74918"/><trkpt lat="68.32854" lon="23.74989"/><trkpt lat="68.32859" lon="23.75024"/><trkpt lat="68.32872" lon="23.75085"/><trkpt lat="68.3288" lon="23.75132"/><trkpt lat="68.32896" lon="23.75201"/><trkpt lat="68.32904" lon="23.75244"/><trkpt lat="68.32904" lon="23.75244"/><trkpt lat="68.32915" lon="23.75292"/><trkpt lat="68.32926" lon="23.75354"/><trkpt lat="68.3294" lon="23.75418"/><trkpt lat="68.32957" lon="23.75533"/><trkpt lat="68.32957060415411" lon="23.75532957625923"/><trkpt lat="68.3298" lon="23.7577"/><trkpt lat="68.32982" lon="23.75834"/><trkpt lat="68.32992" lon="23.75918"/><trkpt lat="68.32993" lon="23.75985"/><trkpt lat="68.32991" lon="23.76045"/><trkpt lat="68.32972" lon="23.76135"/><trkpt lat="68.32961" lon="23.76166"/><trkpt lat="68.32961" lon="23.76166"/><trkpt lat="68.32927517625019" lon="23.76250602786783"/><trkpt lat="68.32927007831955" lon="23.76251890924611"/><trkpt lat="68.32926303918333" lon="23.762536695634928"/><trkpt lat="68.32925456342669" lon="23.762558112055718"/><trkpt lat="68.32887533130015" lon="23.763516350375518"/><trkpt lat="68.32887533130015" lon="23.763516350375518"/><trkpt lat="68.3288703728255" lon="23.763528879378427"/><trkpt lat="68.32886354327606" lon="23.763546136186385"/><trkpt lat="68.32849" lon="23.76449"/><trkpt lat="68.32849" lon="23.76449"/><trkpt lat="68.32800911202182" lon="23.765975820434466"/><trkpt lat="68.32800493215127" lon="23.765988735161667"/><trkpt lat="68.3280007153572" lon="23.76600176397576"/><trkpt lat="68.32799508068017" lon="23.766019173685173"/><trkpt lat="68.32794818147818" lon="23.76616408021212"/><trkpt lat="68.32794146121901" lon="23.766184844092443"/><trkpt lat="68.32793699057218" lon="23.766198657246523"/><trkpt lat="68.32792818733398" lon="23.76622585699876"/><trkpt lat="68.32791972328977" lon="23.76625200872842"/><trkpt lat="68.32789690262089" lon="23.766278775907452"/><trkpt lat="68.32789230891017" lon="23.766291791421214"/><trkpt lat="68.32788556849195" lon="23.766310889272802"/><trkpt lat="68.3278792187422" lon="23.766328880230436"/><trkpt lat="68.32788640568883" lon="23.76635495158527"/><trkpt lat="68.32788234770973" lon="23.766367489701757"/><trkpt lat="68.32785996054126" lon="23.766383445133076"/><trkpt lat="68.32784" lon="23.76644"/><trkpt lat="68.32784" lon="23.76651"/><trkpt lat="68.32782077461592" lon="23.766534624359856"/><trkpt lat="68.32783" lon="23.76655"/><trkpt lat="68.32782578039634" lon="23.766542268217616"/><trkpt lat="68.32776804753564" lon="23.766720648639424"/><trkpt lat="68.32776804753564" lon="23.766720648639424"/><trkpt lat="68.32771" lon="23.7669"/><trkpt lat="68.32764015371889" lon="23.767080436226205"/><trkpt lat="68.32764015371889" lon="23.767080436226205"/><trkpt lat="68.32747" lon="23.76752"/><trkpt lat="68.32707601118013" lon="23.768363136116797"/><trkpt lat="68.32706170665122" lon="23.768393747806137"/><trkpt lat="68.3270203937525" lon="23.76848215739148"/><trkpt lat="68.32702039379821" lon="23.76848215739148"/><trkpt lat="68.32697" lon="23.76859"/><trkpt lat="68.32697" lon="23.76859"/><trkpt lat="68.32697" lon="23.76859"/><trkpt lat="68.32691" lon="23.76855"/><trkpt lat="68.32691" lon="23.76855"/><trkpt lat="68.32691" lon="23.76855"/><trkpt lat="68.32684064531907" lon="23.768633955666402"/><trkpt lat="68.32684064531907" lon="23.768633955666402"/><trkpt lat="68.32672" lon="23.76878"/><trkpt lat="68.32672" lon="23.76878"/><trkpt lat="68.32669" lon="23.76885"/><trkpt lat="68.32669" lon="23.76885"/><trkpt lat="68.32663" lon="23.76893"/><trkpt lat="68.32663" lon="23.76893"/><trkpt lat="68.32657" lon="23.76892"/><trkpt lat="68.32651" lon="23.76904"/><trkpt lat="68.32647" lon="23.76902"/><trkpt lat="68.32645" lon="23.76905"/><trkpt lat="68.32644" lon="23.76914"/><trkpt lat="68.32635" lon="23.76936"/><trkpt lat="68.32635" lon="23.76936"/><trkpt lat="68.32635" lon="23.76936"/><trkpt lat="68.32628951029588" lon="23.769447374017066"/><trkpt lat="68.32628049373231" lon="23.769478518803066"/><trkpt lat="68.32627595306171" lon="23.7694921408149"/><trkpt lat="68.32627067276239" lon="23.76950798171285"/><trkpt lat="68.32626" lon="23.76954"/><trkpt lat="68.32623573153487" lon="23.769535503372126"/><trkpt lat="68.32618" lon="23.76964"/><trkpt lat="68.32618" lon="23.76964"/><trkpt lat="68.32614410783431" lon="23.76980510396224"/><trkpt lat="68.32614410783431" lon="23.76980510396224"/><trkpt lat="68.32613552460155" lon="23.769844586832903"/><trkpt lat="68.32613552460155" lon="23.769844586832903"/><trkpt lat="68.32613" lon="23.76987"/><trkpt lat="68.32608" lon="23.76989"/><trkpt lat="68.32606" lon="23.76996"/><trkpt lat="68.326" lon="23.76998"/><trkpt lat="68.32588" lon="23.77032"/><trkpt lat="68.32563" lon="23.77061"/><trkpt lat="68.32563" lon="23.77061"/><trkpt lat="68.32539" lon="23.77123"/><trkpt lat="68.32445" lon="23.77227"/><trkpt lat="68.32412" lon="23.77247"/><trkpt lat="68.32327" lon="23.7736"/><trkpt lat="68.32327" lon="23.7736"/><trkpt lat="68.32279" lon="23.77441"/><trkpt lat="68.32279" lon="23.77441"/><trkpt lat="68.3227" lon="23.77452"/><trkpt lat="68.32238" lon="23.77448"/><trkpt lat="68.32227" lon="23.77455"/><trkpt lat="68.32198" lon="23.77489"/><trkpt lat="68.3219608949094" lon="23.774952091544442"/><trkpt lat="68.3219608949094" lon="23.774952091544442"/><trkpt lat="68.32178" lon="23.77554"/><trkpt lat="68.32178" lon="23.77554"/><trkpt lat="68.32167167738844" lon="23.775682173492896"/><trkpt lat="68.32167167738844" lon="23.775682173492896"/><trkpt lat="68.32162" lon="23.77575"/><trkpt lat="68.32119" lon="23.77674"/><trkpt lat="68.32046" lon="23.77817"/><trkpt lat="68.32003" lon="23.77882"/><trkpt lat="68.31815" lon="23.78142"/><trkpt lat="68.31815" lon="23.78142"/><trkpt lat="68.31737" lon="23.78248"/><trkpt lat="68.31694" lon="23.78315"/><trkpt lat="68.31681" lon="23.78306"/><trkpt lat="68.31677" lon="23.7832"/><trkpt lat="68.31672" lon="23.78345"/><trkpt lat="68.31658" lon="23.78357"/><trkpt lat="68.31628" lon="23.7841"/><trkpt lat="68.31618806312152" lon="23.784219517942034"/><trkpt lat="68.31616963039991" lon="23.784236598836415"/><trkpt lat="68.31607" lon="23.7843"/><trkpt lat="68.31583" lon="23.7848"/><trkpt lat="68.3153938362341" lon="23.786357727735368"/><trkpt lat="68.31539363162179" lon="23.786379036410978"/><trkpt lat="68.31539593149947" lon="23.78639744141403"/><trkpt lat="68.31537812813939" lon="23.78641382807361"/><trkpt lat="68.31527" lon="23.7868"/><trkpt lat="68.31514789069722" lon="23.787180981060494"/><trkpt lat="68.31514230429002" lon="23.78719841064937"/><trkpt lat="68.31502" lon="23.78758"/><trkpt lat="68.31466" lon="23.78834"/><trkpt lat="68.31429" lon="23.78907"/><trkpt lat="68.31429" lon="23.78907"/><trkpt lat="68.31429" lon="23.78907"/><trkpt lat="68.3139" lon="23.78973"/><trkpt lat="68.31385032656699" lon="23.789824118850298"/><trkpt lat="68.31385032656699" lon="23.789824118850298"/><trkpt lat="68.31371" lon="23.79009"/><trkpt lat="68.31369133068839" lon="23.79015300892671"/><trkpt lat="68.31369133068839" lon="23.79015300892671"/><trkpt lat="68.31363" lon="23.79036"/><trkpt lat="68.31346" lon="23.79069"/><trkpt lat="68.31288" lon="23.79159"/><trkpt lat="68.31288" lon="23.79159"/><trkpt lat="68.31288" lon="23.79159"/><trkpt lat="68.31282" lon="23.79174"/><trkpt lat="68.3127" lon="23.79195"/><trkpt lat="68.31257" lon="23.79212"/><trkpt lat="68.31244" lon="23.79227"/><trkpt lat="68.31229216879224" lon="23.792607055153688"/><trkpt lat="68.31229216879224" lon="23.792607055153688"/><trkpt lat="68.31169" lon="23.79398"/><trkpt lat="68.31169" lon="23.79398"/><trkpt lat="68.31152879601669" lon="23.794386514392706"/><trkpt lat="68.31152879601669" lon="23.794386514392706"/><trkpt lat="68.31151149994881" lon="23.794430130563875"/><trkpt lat="68.31151143223909" lon="23.794459628573676"/><trkpt lat="68.31150699969483" lon="23.79447625048818"/><trkpt lat="68.31148362104513" lon="23.79450043388621"/><trkpt lat="68.31130785562726" lon="23.794943668418185"/><trkpt lat="68.31130785562726" lon="23.794943668418185"/><trkpt lat="68.31123" lon="23.79514"/><trkpt lat="68.3111813249722" lon="23.795332487627817"/><trkpt lat="68.3111813249722" lon="23.795332487627817"/><trkpt lat="68.31101287437284" lon="23.79599863324178"/><trkpt lat="68.31100786706195" lon="23.79602157880658"/><trkpt lat="68.31094" lon="23.79639"/><trkpt lat="68.31094" lon="23.79639"/><trkpt lat="68.31093" lon="23.79651"/><trkpt lat="68.31089" lon="23.79669"/><trkpt lat="68.31085" lon="23.79681"/><trkpt lat="68.31074647579409" lon="23.797008421394633"/><trkpt lat="68.3107371033669" lon="23.797026385213425"/><trkpt lat="68.31073" lon="23.79704"/><trkpt lat="68.31072" lon="23.79706"/><trkpt lat="68.31003" lon="23.79809"/><trkpt lat="68.31003" lon="23.79809"/><trkpt lat="68.30965" lon="23.79864"/><trkpt lat="68.30951920322383" lon="23.79872096943288"/><trkpt lat="68.30951920322383" lon="23.79872096943288"/><trkpt lat="68.30902" lon="23.79903"/><trkpt lat="68.3088902218004" lon="23.799171494287066"/><trkpt lat="68.3088902218004" lon="23.799171494287066"/><trkpt lat="68.30801015270232" lon="23.80013101406761"/><trkpt lat="68.30801015270232" lon="23.80013101406761"/><trkpt lat="68.30758" lon="23.8006"/><trkpt lat="68.30707" lon="23.80161"/><trkpt lat="68.30707" lon="23.80161"/><trkpt lat="68.30707" lon="23.80161"/><trkpt lat="68.30693" lon="23.80184"/><trkpt lat="68.30693" lon="23.80184"/><trkpt lat="68.30693" lon="23.80184"/><trkpt lat="68.30673" lon="23.80227"/><trkpt lat="68.30665" lon="23.80238"/><trkpt lat="68.30665" lon="23.80238"/><trkpt lat="68.30654" lon="23.80263"/><trkpt lat="68.30601" lon="23.8037"/><trkpt lat="68.30592" lon="23.80384"/><trkpt lat="68.30583" lon="23.80405"/><trkpt lat="68.30573016054181" lon="23.804240602601986"/><trkpt lat="68.30572" lon="23.80426"/><trkpt lat="68.30564" lon="23.80448"/><trkpt lat="68.30532" lon="23.8052"/><trkpt lat="68.30532" lon="23.8052"/><trkpt lat="68.30532" lon="23.8052"/><trkpt lat="68.30529" lon="23.8052"/><trkpt lat="68.30529" lon="23.8052"/><trkpt lat="68.30529" lon="23.8052"/><trkpt lat="68.30526" lon="23.80525"/><trkpt lat="68.30518" lon="23.80546"/><trkpt lat="68.30518" lon="23.80546"/><trkpt lat="68.30518" lon="23.80546"/><trkpt lat="68.30512" lon="23.80555"/><trkpt lat="68.3050466951319" lon="23.8057197586419"/><trkpt lat="68.3050466951319" lon="23.8057197586419"/><trkpt lat="68.30493" lon="23.80599"/><trkpt lat="68.30488887325768" lon="23.80605462773792"/><trkpt lat="68.30488887325768" lon="23.80605462773792"/><trkpt lat="68.30486" lon="23.8061"/><trkpt lat="68.30477" lon="23.80635"/><trkpt lat="68.30477" lon="23.80635"/><trkpt lat="68.30392" lon="23.80811"/><trkpt lat="68.30378" lon="23.80835"/><trkpt lat="68.30362" lon="23.80845"/><trkpt lat="68.30352" lon="23.80856"/><trkpt lat="68.30247" lon="23.8108"/><trkpt lat="68.30236" lon="23.81117"/><trkpt lat="68.3021" lon="23.81156"/><trkpt lat="68.3019" lon="23.81166"/><trkpt lat="68.3019" lon="23.81166"/><trkpt lat="68.30143" lon="23.81195"/><trkpt lat="68.30122" lon="23.81183"/><trkpt lat="68.30092" lon="23.81194"/><trkpt lat="68.30048" lon="23.81284"/><trkpt lat="68.3002" lon="23.81322"/><trkpt lat="68.29996036384293" lon="23.813393529630986"/><trkpt lat="68.29996036384293" lon="23.813393529630986"/><trkpt lat="68.29991" lon="23.81343"/><trkpt lat="68.29983278953733" lon="23.813501114904952"/><trkpt lat="68.29983278953733" lon="23.813501114904952"/><trkpt lat="68.29953" lon="23.81378"/><trkpt lat="68.29943" lon="23.81396"/><trkpt lat="68.29928987749112" lon="23.81402816770702"/><trkpt lat="68.29928987749112" lon="23.81402816770702"/><trkpt lat="68.29906" lon="23.81414"/><trkpt lat="68.29906" lon="23.81414"/><trkpt lat="68.29881" lon="23.81434"/><trkpt lat="68.29864" lon="23.8146"/><trkpt lat="68.29856" lon="23.81466"/><trkpt lat="68.29847" lon="23.81489"/><trkpt lat="68.2984202323556" lon="23.814972946214723"/><trkpt lat="68.2984202323556" lon="23.814972946214723"/><trkpt lat="68.29838" lon="23.81504"/><trkpt lat="68.29834" lon="23.81516"/><trkpt lat="68.29817" lon="23.81543"/><trkpt lat="68.29817" lon="23.81543"/><trkpt lat="68.29813" lon="23.81555"/><trkpt lat="68.29809" lon="23.81562"/><trkpt lat="68.29801" lon="23.81586"/><trkpt lat="68.29796" lon="23.8159"/><trkpt lat="68.29792" lon="23.81602"/><trkpt lat="68.29789" lon="23.81618"/><trkpt lat="68.29788" lon="23.81644"/><trkpt lat="68.29783" lon="23.81659"/><trkpt lat="68.29783" lon="23.81659"/><trkpt lat="68.2978" lon="23.81705"/><trkpt lat="68.2978" lon="23.81705"/><trkpt lat="68.29778293499561" lon="23.817014651062344"/></trkseg></trk></gpx>