<?xml version="1.0"?>
<gpx xmlns="http://www.topografix.com/GPX/1/1" xmlns:gpxx="http://www.garmin.com/xmlschemas/GpxExtensions/v3" creator="CALTOPO" version="1.1"><metadata><name><![CDATA[keimiojarvi-pahtavuoma]]></name></metadata><trk><name>keimiojarvi-pahtavuoma</name><trkseg><trkpt lat="67.95082945586105" lon="24.163385646835078"/><trkpt lat="67.9508" lon="24.16315"/><trkpt lat="67.95089" lon="24.16293"/><trkpt lat="67.95081" lon="24.1626"/><trkpt lat="67.95035" lon="24.16215"/><trkpt lat="67.95006" lon="24.16224"/><trkpt lat="67.95006" lon="24.16224"/><trkpt lat="67.9499" lon="24.16216"/><trkpt lat="67.9499" lon="24.16216"/><trkpt lat="67.94976" lon="24.16203"/><trkpt lat="67.94968" lon="24.16186"/><trkpt lat="67.94958" lon="24.16157"/><trkpt lat="67.94956" lon="24.16142"/><trkpt lat="67.94955" lon="24.16111"/><trkpt lat="67.94955" lon="24.16111"/><trkpt lat="67.94951" lon="24.1607"/><trkpt lat="67.94942" lon="24.16039"/><trkpt lat="67.94942" lon="24.16039"/><trkpt lat="67.94935" lon="24.16"/><trkpt lat="67.94942" lon="24.15922"/><trkpt lat="67.94933" lon="24.15857"/><trkpt lat="67.94933" lon="24.15857"/><trkpt lat="67.94894" lon="24.1586"/><trkpt lat="67.94884" lon="24.15853"/><trkpt lat="67.94884" lon="24.15853"/><trkpt lat="67.94867" lon="24.15854"/><trkpt lat="67.94867" lon="24.15854"/><trkpt lat="67.94834" lon="24.15777"/><trkpt lat="67.94812" lon="24.15777"/><trkpt lat="67.94812" lon="24.15777"/><trkpt lat="67.94759" lon="24.15832"/><trkpt lat="67.94729" lon="24.15857"/><trkpt lat="67.94719" lon="24.15861"/><trkpt lat="67.94719" lon="24.15861"/><trkpt lat="67.9469" lon="24.15854"/><trkpt lat="67.9469" lon="24.15854"/><trkpt lat="67.94678" lon="24.15865"/><trkpt lat="67.94657" lon="24.15855"/><trkpt lat="67.94653703373656" lon="24.15860860669055"/><trkpt lat="67.94653703377708" lon="24.158608606690546"/><trkpt lat="67.94648" lon="24.15871"/><trkpt lat="67.94648" lon="24.15871"/><trkpt lat="67.94632" lon="24.15884"/><trkpt lat="67.94563" lon="24.15966"/><trkpt lat="67.94502" lon="24.1603"/><trkpt lat="67.94452" lon="24.16095"/><trkpt lat="67.94452" lon="24.16095"/><trkpt lat="67.9438" lon="24.16165"/><trkpt lat="67.94301" lon="24.16261"/><trkpt lat="67.94301" lon="24.16261"/><trkpt lat="67.94286" lon="24.16271"/><trkpt lat="67.94274" lon="24.16282"/><trkpt lat="67.94232" lon="24.16295"/><trkpt lat="67.94165" lon="24.16357"/><trkpt lat="67.94165" lon="24.16357"/><trkpt lat="67.94152" lon="24.16362"/><trkpt lat="67.94152" lon="24.16362"/><trkpt lat="67.94139" lon="24.1639"/><trkpt lat="67.94119" lon="24.16386"/><trkpt lat="67.941" lon="24.1641"/><trkpt lat="67.94084" lon="24.16412"/><trkpt lat="67.94044" lon="24.1643"/><trkpt lat="67.94021" lon="24.16459"/><trkpt lat="67.94021" lon="24.16459"/><trkpt lat="67.93919" lon="24.16443"/><trkpt lat="67.93891" lon="24.16459"/><trkpt lat="67.93878" lon="24.16447"/><trkpt lat="67.93843" lon="24.16437"/><trkpt lat="67.93788" lon="24.16444"/><trkpt lat="67.93735" lon="24.16418"/><trkpt lat="67.9371" lon="24.16411"/><trkpt lat="67.93694" lon="24.16426"/><trkpt lat="67.93683" lon="24.16428"/><trkpt lat="67.93683" lon="24.16428"/><trkpt lat="67.9366" lon="24.16426"/><trkpt lat="67.93621" lon="24.16398"/><trkpt lat="67.93598" lon="24.16371"/><trkpt lat="67.93539" lon="24.1634"/><trkpt lat="67.93539" lon="24.1634"/><trkpt lat="67.93527" lon="24.16289"/><trkpt lat="67.93509" lon="24.16256"/><trkpt lat="67.93482" lon="24.16234"/><trkpt lat="67.93454" lon="24.16188"/><trkpt lat="67.93408" lon="24.16195"/><trkpt lat="67.93386" lon="24.16214"/><trkpt lat="67.93374" lon="24.16256"/><trkpt lat="67.93365" lon="24.16277"/><trkpt lat="67.9334" lon="24.16285"/><trkpt lat="67.9334" lon="24.16285"/><trkpt lat="67.9331" lon="24.16294"/><trkpt lat="67.93295" lon="24.16281"/><trkpt lat="67.93264" lon="24.16237"/><trkpt lat="67.93224" lon="24.16232"/><trkpt lat="67.9321" lon="24.16236"/><trkpt lat="67.93166" lon="24.16227"/><trkpt lat="67.9314" lon="24.16195"/><trkpt lat="67.93082" lon="24.16103"/><trkpt lat="67.93018" lon="24.16035"/><trkpt lat="67.92943" lon="24.15932"/><trkpt lat="67.92938" lon="24.1592"/><trkpt lat="67.92938" lon="24.1592"/><trkpt lat="67.9293" lon="24.15918"/><trkpt lat="67.92922" lon="24.15909"/><trkpt lat="67.92899" lon="24.15869"/><trkpt lat="67.92899" lon="24.15869"/><trkpt lat="67.9289" lon="24.15857"/><trkpt lat="67.92844" lon="24.15835"/><trkpt lat="67.92828" lon="24.15781"/><trkpt lat="67.92813" lon="24.15742"/><trkpt lat="67.92813" lon="24.15742"/><trkpt lat="67.92802" lon="24.15709"/><trkpt lat="67.92788" lon="24.15676"/><trkpt lat="67.92773" lon="24.15661"/><trkpt lat="67.92755" lon="24.15631"/><trkpt lat="67.92718" lon="24.15615"/><trkpt lat="67.92697" lon="24.15593"/><trkpt lat="67.92684" lon="24.15567"/><trkpt lat="67.92684" lon="24.15567"/><trkpt lat="67.92653" lon="24.15547"/><trkpt lat="67.92635" lon="24.15547"/><trkpt lat="67.92613" lon="24.15533"/><trkpt lat="67.92594" lon="24.15505"/><trkpt lat="67.92594" lon="24.15505"/><trkpt lat="67.92583" lon="24.15519"/><trkpt lat="67.92549" lon="24.15536"/><trkpt lat="67.92533" lon="24.15511"/><trkpt lat="67.92514" lon="24.15472"/><trkpt lat="67.92514" lon="24.15472"/><trkpt lat="67.92501" lon="24.15444"/><trkpt lat="67.92477" lon="24.15419"/><trkpt lat="67.92477" lon="24.15419"/><trkpt lat="67.92475" lon="24.15413"/><trkpt lat="67.92475" lon="24.15413"/><trkpt lat="67.92465" lon="24.15389"/><trkpt lat="67.92465" lon="24.15389"/><trkpt lat="67.92458" lon="24.15371"/><trkpt lat="67.92458" lon="24.15371"/><trkpt lat="67.92435" lon="24.15309"/><trkpt lat="67.92435" lon="24.15309"/><trkpt lat="67.92391" lon="24.15192"/><trkpt lat="67.92391" lon="24.15192"/><trkpt lat="67.92378" lon="24.15161"/><trkpt lat="67.92378" lon="24.15161"/><trkpt lat="67.92361" lon="24.15138"/><trkpt lat="67.92345895883506" lon="24.15124844801763"/><trkpt lat="67.92345895883506" lon="24.15124844801763"/><trkpt lat="67.9233" lon="24.15111"/><trkpt lat="67.9233" lon="24.15111"/><trkpt lat="67.92329869070616" lon="24.151116359427224"/><trkpt lat="67.92329869070687" lon="24.151116359427224"/><trkpt lat="67.92327245860993" lon="24.15124377246606"/><trkpt lat="67.92327245860993" lon="24.15124377246606"/><trkpt lat="67.92302" lon="24.15247"/><trkpt lat="67.92302" lon="24.15247"/><trkpt lat="67.92302" lon="24.15247"/><trkpt lat="67.92262" lon="24.15476"/><trkpt lat="67.92262" lon="24.15476"/><trkpt lat="67.92258" lon="24.15496"/><trkpt lat="67.92258" lon="24.15496"/><trkpt lat="67.92235853303525" lon="24.156152514425496"/><trkpt lat="67.9223529068284" lon="24.15618280938553"/><trkpt lat="67.9222242365957" lon="24.15687564910005"/><trkpt lat="67.9222242365957" lon="24.15687564910005"/><trkpt lat="67.92167" lon="24.15986"/><trkpt lat="67.92167" lon="24.15986"/><trkpt lat="67.92167" lon="24.15986"/><trkpt lat="67.92146" lon="24.16091"/><trkpt lat="67.92129" lon="24.16154"/><trkpt lat="67.92129" lon="24.16154"/><trkpt lat="67.92106" lon="24.16237"/><trkpt lat="67.92091573182849" lon="24.16281020288231"/><trkpt lat="67.92091573182849" lon="24.16281020288231"/><trkpt lat="67.92067" lon="24.16356"/><trkpt lat="67.92067" lon="24.16356"/><trkpt lat="67.92067" lon="24.16356"/><trkpt lat="67.91980907234641" lon="24.16580978264196"/><trkpt lat="67.91979557278601" lon="24.165845059795032"/><trkpt lat="67.91855" lon="24.1691"/><trkpt lat="67.91855" lon="24.1691"/><trkpt lat="67.91855" lon="24.1691"/><trkpt lat="67.91827" lon="24.16992"/><trkpt lat="67.91827" lon="24.16992"/><trkpt lat="67.91804" lon="24.17056"/><trkpt lat="67.91779" lon="24.1714"/><trkpt lat="67.9176" lon="24.17212"/><trkpt lat="67.91742" lon="24.17289"/><trkpt lat="67.91722917583674" lon="24.17386885728196"/><trkpt lat="67.91722917583674" lon="24.17386885728196"/><trkpt lat="67.91688" lon="24.17566"/><trkpt lat="67.91688" lon="24.17566"/><trkpt lat="67.91655" lon="24.17741"/><trkpt lat="67.91638" lon="24.1782"/><trkpt lat="67.91627625798115" lon="24.178593127650366"/><trkpt lat="67.91627625798115" lon="24.178593127650366"/><trkpt lat="67.916" lon="24.17964"/><trkpt lat="67.91562" lon="24.18085"/><trkpt lat="67.91541" lon="24.18142"/><trkpt lat="67.91518" lon="24.18199"/><trkpt lat="67.91488" lon="24.18264"/><trkpt lat="67.9146" lon="24.18317"/><trkpt lat="67.91423" lon="24.18383"/><trkpt lat="67.91374" lon="24.18453"/><trkpt lat="67.91347" lon="24.18485"/><trkpt lat="67.91347" lon="24.18485"/><trkpt lat="67.91347" lon="24.18485"/><trkpt lat="67.91302793633471" lon="24.18530587815482"/><trkpt lat="67.91302793633471" lon="24.18530587815482"/><trkpt lat="67.91252992181384" lon="24.18581945562948"/><trkpt lat="67.91252992181384" lon="24.18581945562948"/><trkpt lat="67.91251" lon="24.18584"/><trkpt lat="67.91039" lon="24.18791"/><trkpt lat="67.91039" lon="24.18791"/><trkpt lat="67.91039" lon="24.18791"/><trkpt lat="67.91009" lon="24.18828"/><trkpt lat="67.91009" lon="24.18828"/><trkpt lat="67.90947" lon="24.18911"/><trkpt lat="67.90947" lon="24.18911"/><trkpt lat="67.90947" lon="24.18911"/><trkpt lat="67.90862" lon="24.19046"/><trkpt lat="67.90862" lon="24.19046"/><trkpt lat="67.90772" lon="24.19189"/><trkpt lat="67.90772" lon="24.19189"/><trkpt lat="67.90729027024678" lon="24.192581173728946"/><trkpt lat="67.90729027024678" lon="24.192581173728946"/><trkpt lat="67.90629" lon="24.19419"/><trkpt lat="67.90594" lon="24.19496"/><trkpt lat="67.90582" lon="24.19528"/><trkpt lat="67.90582" lon="24.19528"/><trkpt lat="67.90561" lon="24.1959"/><trkpt lat="67.90528" lon="24.19697"/><trkpt lat="67.9051" lon="24.19766"/><trkpt lat="67.90396" lon="24.20229"/><trkpt lat="67.90376" lon="24.20302"/><trkpt lat="67.90359" lon="24.20361"/><trkpt lat="67.90335" lon="24.20439"/><trkpt lat="67.90304" lon="24.20533"/><trkpt lat="67.90304" lon="24.20533"/><trkpt lat="67.90258" lon="24.20662"/><trkpt lat="67.90258" lon="24.20662"/><trkpt lat="67.90258" lon="24.20662"/><trkpt lat="67.90186" lon="24.20857"/><trkpt lat="67.90035" lon="24.21275"/><trkpt lat="67.90035" lon="24.21275"/><trkpt lat="67.90008962490839" lon="24.213479050256513"/><trkpt lat="67.90008962490839" lon="24.213479050256513"/><trkpt lat="67.89995" lon="24.21387"/><trkpt lat="67.89995" lon="24.21387"/><trkpt lat="67.89894336901948" lon="24.216618540242465"/><trkpt lat="67.89894336901948" lon="24.216618540242465"/><trkpt lat="67.8988" lon="24.21701"/><trkpt lat="67.8988" lon="24.21701"/><trkpt lat="67.89835" lon="24.21832"/><trkpt lat="67.89835" lon="24.21832"/><trkpt lat="67.89835" lon="24.21832"/><trkpt lat="67.89807777884042" lon="24.21903402271365"/><trkpt lat="67.89807777884042" lon="24.21903402271365"/><trkpt lat="67.89774" lon="24.21992"/><trkpt lat="67.89774" lon="24.21992"/><trkpt lat="67.89774" lon="24.21992"/><trkpt lat="67.89767" lon="24.22017"/><trkpt lat="67.89763" lon="24.2204"/><trkpt lat="67.89763" lon="24.2204"/><trkpt lat="67.89658" lon="24.21954"/><trkpt lat="67.89635140912596" lon="24.219366417625057"/><trkpt lat="67.89635140912596" lon="24.219366417625057"/><trkpt lat="67.89555121011995" lon="24.218758779877177"/><trkpt lat="67.89555121011995" lon="24.218758779877177"/><trkpt lat="67.89490057856881" lon="24.218264717415884"/><trkpt lat="67.89490057856881" lon="24.218264717415884"/><trkpt lat="67.89471" lon="24.21812"/><trkpt lat="67.89337125209775" lon="24.217150151535513"/><trkpt lat="67.89337125209775" lon="24.217150151535513"/><trkpt lat="67.89246" lon="24.21649"/><trkpt lat="67.89225911576182" lon="24.216359696710366"/><trkpt lat="67.89225911576182" lon="24.216359696710366"/><trkpt lat="67.89215953583775" lon="24.21629510402975"/><trkpt lat="67.89215953583775" lon="24.21629510402975"/><trkpt lat="67.89209" lon="24.21625"/><trkpt lat="67.89209" lon="24.21625"/><trkpt lat="67.89183" lon="24.2161"/><trkpt lat="67.89171906818098" lon="24.216051644911378"/><trkpt lat="67.89171906818098" lon="24.216051644911378"/><trkpt lat="67.89144" lon="24.21593"/><trkpt lat="67.89082" lon="24.21574"/><trkpt lat="67.89082" lon="24.21574"/><trkpt lat="67.88901" lon="24.21524"/><trkpt lat="67.88826" lon="24.21508"/><trkpt lat="67.88826" lon="24.21508"/><trkpt lat="67.88826" lon="24.21508"/><trkpt lat="67.88753969797416" lon="24.214877536727872"/><trkpt lat="67.88753969797416" lon="24.214877536727872"/><trkpt lat="67.88641" lon="24.21456"/><trkpt lat="67.88579" lon="24.21434"/><trkpt lat="67.88547" lon="24.21419"/><trkpt lat="67.8851321030561" lon="24.213932554709395"/><trkpt lat="67.8851321030561" lon="24.213932554709395"/><trkpt lat="67.88505" lon="24.21387"/><trkpt lat="67.88505" lon="24.21387"/><trkpt lat="67.88463069799943" lon="24.21345502070046"/><trkpt lat="67.88463069799943" lon="24.21345502070046"/><trkpt lat="67.88408" lon="24.21291"/><trkpt lat="67.88382" lon="24.21257"/><trkpt lat="67.88382" lon="24.21257"/><trkpt lat="67.88322" lon="24.21178"/><trkpt lat="67.88322" lon="24.21178"/><trkpt lat="67.88303" lon="24.21152"/><trkpt lat="67.88303" lon="24.21152"/><trkpt lat="67.88198" lon="24.2101"/><trkpt lat="67.88198" lon="24.2101"/><trkpt lat="67.8814775344971" lon="24.209443368945056"/><trkpt lat="67.8814775344971" lon="24.209443368945056"/><trkpt lat="67.8811" lon="24.20895"/><trkpt lat="67.88061" lon="24.20843"/><trkpt lat="67.88024" lon="24.2081"/><trkpt lat="67.87832" lon="24.20685"/><trkpt lat="67.87832" lon="24.20685"/><trkpt lat="67.87826" lon="24.20716"/><trkpt lat="67.87817" lon="24.20727"/><trkpt lat="67.87792" lon="24.20698"/><trkpt lat="67.87755" lon="24.20752"/><trkpt lat="67.87744" lon="24.20819"/><trkpt lat="67.87701" lon="24.21017"/><trkpt lat="67.87627" lon="24.21109"/><trkpt lat="67.87554" lon="24.21186"/><trkpt lat="67.87554" lon="24.21186"/><trkpt lat="67.87493" lon="24.2125"/><trkpt lat="67.8745" lon="24.21276"/><trkpt lat="67.87414" lon="24.21323"/><trkpt lat="67.87402" lon="24.21381"/><trkpt lat="67.87395" lon="24.21387"/><trkpt lat="67.87395" lon="24.21387"/><trkpt lat="67.87302" lon="24.21474"/><trkpt lat="67.87159" lon="24.21601"/><trkpt lat="67.87124" lon="24.21589"/><trkpt lat="67.871" lon="24.21551"/><trkpt lat="67.87056" lon="24.21529"/><trkpt lat="67.87034" lon="24.21577"/><trkpt lat="67.8699" lon="24.21598"/><trkpt lat="67.8698" lon="24.2159"/><trkpt lat="67.8698" lon="24.2159"/><trkpt lat="67.86946" lon="24.21586"/><trkpt lat="67.86915" lon="24.21597"/><trkpt lat="67.86896" lon="24.21578"/><trkpt lat="67.86896" lon="24.21578"/><trkpt lat="67.86865" lon="24.21582"/><trkpt lat="67.86841" lon="24.21631"/><trkpt lat="67.86726" lon="24.21615"/><trkpt lat="67.86726" lon="24.21615"/><trkpt lat="67.86704" lon="24.21612"/><trkpt lat="67.86638" lon="24.21676"/><trkpt lat="67.86595" lon="24.21743"/><trkpt lat="67.86547" lon="24.21764"/><trkpt lat="67.86442" lon="24.21911"/><trkpt lat="67.86365" lon="24.22048"/><trkpt lat="67.86278" lon="24.22059"/><trkpt lat="67.86152" lon="24.22174"/><trkpt lat="67.86031" lon="24.22323"/><trkpt lat="67.85898" lon="24.22429"/><trkpt lat="67.85898" lon="24.22429"/><trkpt lat="67.85796" lon="24.22511"/><trkpt lat="67.8572" lon="24.22481"/><trkpt lat="67.85622" lon="24.22509"/><trkpt lat="67.85465" lon="24.22405"/><trkpt lat="67.85383" lon="24.22183"/><trkpt lat="67.85337" lon="24.2217"/><trkpt lat="67.852" lon="24.21923"/><trkpt lat="67.85144" lon="24.21898"/><trkpt lat="67.85126" lon="24.2191"/><trkpt lat="67.85094" lon="24.21909"/><trkpt lat="67.85081" lon="24.21887"/><trkpt lat="67.85074" lon="24.21883"/><trkpt lat="67.8507" lon="24.21877"/><trkpt lat="67.8507" lon="24.21877"/><trkpt lat="67.85061" lon="24.21863"/><trkpt lat="67.85054" lon="24.21873"/><trkpt lat="67.85044" lon="24.21872"/><trkpt lat="67.85015" lon="24.21895"/><trkpt lat="67.84989" lon="24.21896"/><trkpt lat="67.84931" lon="24.21926"/><trkpt lat="67.84885" lon="24.21915"/><trkpt lat="67.84855" lon="24.21918"/><trkpt lat="67.84836" lon="24.21941"/><trkpt lat="67.8482" lon="24.2193"/><trkpt lat="67.84791" lon="24.21941"/><trkpt lat="67.84777" lon="24.21932"/><trkpt lat="67.84758" lon="24.21936"/><trkpt lat="67.84739" lon="24.21917"/><trkpt lat="67.84724" lon="24.21917"/><trkpt lat="67.84707" lon="24.21907"/><trkpt lat="67.84693" lon="24.21895"/><trkpt lat="67.84663" lon="24.21888"/><trkpt lat="67.84646" lon="24.21868"/><trkpt lat="67.84628" lon="24.21873"/><trkpt lat="67.84614" lon="24.2184"/><trkpt lat="67.84306" lon="24.21527"/><trkpt lat="67.84242" lon="24.2148"/><trkpt lat="67.84242" lon="24.2148"/><trkpt lat="67.84191" lon="24.21442"/><trkpt lat="67.84161" lon="24.21387"/><trkpt lat="67.84161" lon="24.21387"/><trkpt lat="67.84116" lon="24.21301"/><trkpt lat="67.8407" lon="24.21291"/><trkpt lat="67.84003" lon="24.21173"/><trkpt lat="67.83891" lon="24.21123"/><trkpt lat="67.83631" lon="24.2089"/><trkpt lat="67.83567" lon="24.20872"/><trkpt lat="67.83442" lon="24.20697"/><trkpt lat="67.83413" lon="24.2067"/><trkpt lat="67.83413" lon="24.2067"/><trkpt lat="67.83246" lon="24.20521"/><trkpt lat="67.83168" lon="24.20328"/><trkpt lat="67.83133" lon="24.20146"/><trkpt lat="67.83064" lon="24.20052"/><trkpt lat="67.83055" lon="24.19995"/><trkpt lat="67.83056" lon="24.19963"/><trkpt lat="67.83052" lon="24.19951"/><trkpt lat="67.8304" lon="24.19878"/><trkpt lat="67.83034" lon="24.19866"/><trkpt lat="67.83013" lon="24.19766"/><trkpt lat="67.82765" lon="24.19792"/><trkpt lat="67.82714" lon="24.19848"/><trkpt lat="67.82619" lon="24.19871"/><trkpt lat="67.82601" lon="24.19906"/><trkpt lat="67.82584" lon="24.20062"/><trkpt lat="67.82584" lon="24.20062"/><trkpt lat="67.82488" lon="24.20174"/><trkpt lat="67.82459" lon="24.2026"/><trkpt lat="67.8233" lon="24.20252"/><trkpt lat="67.82254" lon="24.20216"/><trkpt lat="67.82201" lon="24.20146"/><trkpt lat="67.82078" lon="24.20133"/><trkpt lat="67.82036" lon="24.20045"/><trkpt lat="67.81972" lon="24.19992"/><trkpt lat="67.81891" lon="24.19884"/><trkpt lat="67.81754" lon="24.19815"/><trkpt lat="67.81754" lon="24.19815"/><trkpt lat="67.81653" lon="24.19765"/><trkpt lat="67.8162" lon="24.19665"/><trkpt lat="67.81561" lon="24.19659"/><trkpt lat="67.81537" lon="24.196"/><trkpt lat="67.81522" lon="24.19581"/><trkpt lat="67.8151" lon="24.19586"/><trkpt lat="67.81496" lon="24.19582"/><trkpt lat="67.81489" lon="24.19595"/><trkpt lat="67.81479" lon="24.19599"/><trkpt lat="67.81469" lon="24.19607"/><trkpt lat="67.81457" lon="24.19605"/><trkpt lat="67.81431" lon="24.19617"/><trkpt lat="67.81421" lon="24.19628"/><trkpt lat="67.81412" lon="24.19624"/><trkpt lat="67.81405" lon="24.19612"/><trkpt lat="67.81399" lon="24.19588"/><trkpt lat="67.81382" lon="24.19576"/><trkpt lat="67.81375" lon="24.19564"/><trkpt lat="67.81363" lon="24.19553"/><trkpt lat="67.81357" lon="24.19541"/><trkpt lat="67.81349" lon="24.19532"/><trkpt lat="67.81339" lon="24.19508"/><trkpt lat="67.81329" lon="24.19491"/><trkpt lat="67.81318" lon="24.19477"/><trkpt lat="67.81314" lon="24.19463"/><trkpt lat="67.8131" lon="24.19458"/><trkpt lat="67.81298" lon="24.19457"/><trkpt lat="67.81283" lon="24.19448"/><trkpt lat="67.81283" lon="24.19448"/><trkpt lat="67.81279" lon="24.1944"/><trkpt lat="67.81274" lon="24.19437"/><trkpt lat="67.81264" lon="24.19439"/><trkpt lat="67.81264" lon="24.19439"/><trkpt lat="67.81248" lon="24.1946"/><trkpt lat="67.81222" lon="24.19457"/><trkpt lat="67.81211" lon="24.19437"/><trkpt lat="67.81204" lon="24.19405"/><trkpt lat="67.81198" lon="24.19393"/><trkpt lat="67.81198" lon="24.19393"/><trkpt lat="67.8119" lon="24.19382"/><trkpt lat="67.81139" lon="24.19347"/><trkpt lat="67.8113" lon="24.19336"/><trkpt lat="67.8113" lon="24.19336"/><trkpt lat="67.81114" lon="24.19334"/><trkpt lat="67.81103" lon="24.19326"/><trkpt lat="67.81089" lon="24.19327"/><trkpt lat="67.81073" lon="24.19317"/><trkpt lat="67.81045" lon="24.19311"/><trkpt lat="67.81009" lon="24.19258"/><trkpt lat="67.80974" lon="24.19248"/><trkpt lat="67.80956" lon="24.1925"/><trkpt lat="67.80924" lon="24.19226"/><trkpt lat="67.80924" lon="24.19226"/><trkpt lat="67.80911" lon="24.19223"/><trkpt lat="67.80872" lon="24.19189"/><trkpt lat="67.8087" lon="24.19188"/><trkpt lat="67.80801" lon="24.18942"/><trkpt lat="67.80717" lon="24.18798"/><trkpt lat="67.8063" lon="24.18845"/><trkpt lat="67.80535" lon="24.18979"/><trkpt lat="67.80467" lon="24.19069"/><trkpt lat="67.80442" lon="24.19189"/><trkpt lat="67.80442" lon="24.19189"/><trkpt lat="67.80407" lon="24.19288"/><trkpt lat="67.80344" lon="24.19344"/><trkpt lat="67.80223" lon="24.19568"/><trkpt lat="67.80223" lon="24.19568"/><trkpt lat="67.80222969001585" lon="24.195702938826347"/></trkseg></trk></gpx>