<?xml version="1.0"?>
<gpx xmlns="http://www.topografix.com/GPX/1/1" xmlns:gpxx="http://www.garmin.com/xmlschemas/GpxExtensions/v3" creator="CALTOPO" version="1.1"><metadata><name><![CDATA[nammalakuru-pallaksen-kota]]></name></metadata><trk><name>nammalakuru-pallaksen-kota</name><trkseg><trkpt lat="68.12963277620389" lon="24.05621653687109"/><trkpt lat="68.12962" lon="24.05629"/><trkpt lat="68.129620019252" lon="24.056287501604334"/><trkpt lat="68.12953" lon="24.05628"/><trkpt lat="68.12944" lon="24.05609"/><trkpt lat="68.12944" lon="24.05609"/><trkpt lat="68.12926" lon="24.05584"/><trkpt lat="68.12924" lon="24.05573"/><trkpt lat="68.12907" lon="24.05571"/><trkpt lat="68.12899" lon="24.05574"/><trkpt lat="68.12889" lon="24.05555"/><trkpt lat="68.12882" lon="24.05549"/><trkpt lat="68.12878" lon="24.05539"/><trkpt lat="68.12872" lon="24.05536"/><trkpt lat="68.12871937231212" lon="24.055346712774572"/><trkpt lat="68.12867357328898" lon="24.055360651607707"/><trkpt lat="68.12867357358124" lon="24.055360651607703"/><trkpt lat="68.12838" lon="24.05545"/><trkpt lat="68.12813" lon="24.05568"/><trkpt lat="68.12691" lon="24.05588"/><trkpt lat="68.12629" lon="24.05561"/><trkpt lat="68.12592" lon="24.05565"/><trkpt lat="68.12528" lon="24.0555"/><trkpt lat="68.12443" lon="24.0558"/><trkpt lat="68.12419" lon="24.05563"/><trkpt lat="68.12394" lon="24.05565"/><trkpt lat="68.1237" lon="24.05552"/><trkpt lat="68.12357" lon="24.05558"/><trkpt lat="68.12349" lon="24.05578"/><trkpt lat="68.12337" lon="24.05592"/><trkpt lat="68.12325" lon="24.05611"/><trkpt lat="68.12304" lon="24.05694"/><trkpt lat="68.12274" lon="24.05741"/><trkpt lat="68.12256" lon="24.05817"/><trkpt lat="68.12248" lon="24.05833"/><trkpt lat="68.12248" lon="24.05833"/><trkpt lat="68.12229" lon="24.05873"/><trkpt lat="68.12175" lon="24.05914"/><trkpt lat="68.12157" lon="24.05957"/><trkpt lat="68.12124" lon="24.06006"/><trkpt lat="68.12124" lon="24.06006"/><trkpt lat="68.12101" lon="24.0604"/><trkpt lat="68.12028" lon="24.06075"/><trkpt lat="68.11976" lon="24.06064"/><trkpt lat="68.11939" lon="24.06023"/><trkpt lat="68.11926" lon="24.06022"/><trkpt lat="68.11911" lon="24.06006"/><trkpt lat="68.11911" lon="24.06006"/><trkpt lat="68.11846" lon="24.05939"/><trkpt lat="68.11789" lon="24.05875"/><trkpt lat="68.1155" lon="24.05617"/><trkpt lat="68.11483" lon="24.05585"/><trkpt lat="68.11456" lon="24.05592"/><trkpt lat="68.11443" lon="24.05581"/><trkpt lat="68.11429" lon="24.05564"/><trkpt lat="68.11429" lon="24.05564"/><trkpt lat="68.11397" lon="24.05526"/><trkpt lat="68.11328" lon="24.05418"/><trkpt lat="68.11272" lon="24.05418"/><trkpt lat="68.11218" lon="24.05451"/><trkpt lat="68.11218" lon="24.05451"/><trkpt lat="68.11155" lon="24.05396"/><trkpt lat="68.11121" lon="24.05339"/><trkpt lat="68.11105" lon="24.05298"/><trkpt lat="68.11086" lon="24.05164"/><trkpt lat="68.11074" lon="24.05172"/><trkpt lat="68.1104" lon="24.05144"/><trkpt lat="68.11012" lon="24.05094"/><trkpt lat="68.11012" lon="24.05094"/><trkpt lat="68.10992" lon="24.0502"/><trkpt lat="68.10981" lon="24.05007"/><trkpt lat="68.1097" lon="24.05011"/><trkpt lat="68.10898" lon="24.04949"/><trkpt lat="68.10875" lon="24.04939"/><trkpt lat="68.1085124076746" lon="24.0496066282967"/><trkpt lat="68.10851240820301" lon="24.049606628296697"/><trkpt lat="68.10841" lon="24.0497"/><trkpt lat="68.10841" lon="24.0497"/><trkpt lat="68.10825" lon="24.04982"/><trkpt lat="68.10825" lon="24.04982"/><trkpt lat="68.10741" lon="24.05044"/><trkpt lat="68.10741" lon="24.05044"/><trkpt lat="68.1061" lon="24.05077"/><trkpt lat="68.1061" lon="24.05077"/><trkpt lat="68.10603" lon="24.05079"/><trkpt lat="68.10583" lon="24.05062"/><trkpt lat="68.10564" lon="24.05103"/><trkpt lat="68.10542" lon="24.05126"/><trkpt lat="68.10466" lon="24.05089"/><trkpt lat="68.10365" lon="24.04965"/><trkpt lat="68.10228" lon="24.04711"/><trkpt lat="68.10218" lon="24.04666"/><trkpt lat="68.10198" lon="24.04597"/><trkpt lat="68.10178" lon="24.04507"/><trkpt lat="68.10156" lon="24.04478"/><trkpt lat="68.10124" lon="24.04383"/><trkpt lat="68.1006" lon="24.04253"/><trkpt lat="68.09996" lon="24.04169"/><trkpt lat="68.09968" lon="24.04103"/><trkpt lat="68.09939" lon="24.04059"/><trkpt lat="68.09913" lon="24.03996"/><trkpt lat="68.09835" lon="24.03846"/><trkpt lat="68.09811" lon="24.03809"/><trkpt lat="68.09811" lon="24.03809"/><trkpt lat="68.09795" lon="24.03782"/><trkpt lat="68.09791" lon="24.03779"/><trkpt lat="68.09791" lon="24.03779"/><trkpt lat="68.09725" lon="24.03732"/><trkpt lat="68.09649" lon="24.03635"/><trkpt lat="68.09614" lon="24.03608"/><trkpt lat="68.09562" lon="24.03598"/><trkpt lat="68.09449" lon="24.03641"/><trkpt lat="68.09334" lon="24.0374"/><trkpt lat="68.09284" lon="24.03809"/><trkpt lat="68.09284" lon="24.03809"/><trkpt lat="68.09236" lon="24.03852"/><trkpt lat="68.09202" lon="24.03925"/><trkpt lat="68.09127" lon="24.04021"/><trkpt lat="68.09091" lon="24.04094"/><trkpt lat="68.09041" lon="24.0415"/><trkpt lat="68.09009" lon="24.04221"/><trkpt lat="68.08971" lon="24.04283"/><trkpt lat="68.08971" lon="24.04283"/><trkpt lat="68.08951" lon="24.04316"/><trkpt lat="68.08876" lon="24.04544"/><trkpt lat="68.08781" lon="24.04811"/><trkpt lat="68.08686" lon="24.05016"/><trkpt lat="68.08592" lon="24.05175"/><trkpt lat="68.08511" lon="24.05257"/><trkpt lat="68.08465" lon="24.05371"/><trkpt lat="68.08418" lon="24.05423"/><trkpt lat="68.08361" lon="24.05531"/><trkpt lat="68.08267" lon="24.05646"/><trkpt lat="68.08185" lon="24.05763"/><trkpt lat="68.08151" lon="24.05822"/><trkpt lat="68.08151" lon="24.05822"/><trkpt lat="68.08142" lon="24.05836"/><trkpt lat="68.08104" lon="24.05844"/><trkpt lat="68.08069" lon="24.05859"/><trkpt lat="68.08057" lon="24.05878"/><trkpt lat="68.08031" lon="24.05935"/><trkpt lat="68.07987" lon="24.06006"/><trkpt lat="68.07987" lon="24.06006"/><trkpt lat="68.07938" lon="24.06085"/><trkpt lat="68.07894" lon="24.06148"/><trkpt lat="68.07833" lon="24.06274"/><trkpt lat="68.07785" lon="24.06345"/><trkpt lat="68.07763" lon="24.06358"/><trkpt lat="68.07745" lon="24.06388"/><trkpt lat="68.0772" lon="24.064"/><trkpt lat="68.07671" lon="24.06467"/><trkpt lat="68.07598" lon="24.06533"/><trkpt lat="68.07566" lon="24.06576"/><trkpt lat="68.07448" lon="24.06679"/><trkpt lat="68.07368" lon="24.06709"/><trkpt lat="68.07338" lon="24.06699"/><trkpt lat="68.07338" lon="24.06699"/><trkpt lat="68.0733" lon="24.06697"/><trkpt lat="68.0733" lon="24.06697"/><trkpt lat="68.07311" lon="24.0669"/><trkpt lat="68.0729" lon="24.06673"/><trkpt lat="68.07267" lon="24.06658"/><trkpt lat="68.0723" lon="24.06654"/><trkpt lat="68.07199" lon="24.06609"/><trkpt lat="68.07175" lon="24.06599"/><trkpt lat="68.07143" lon="24.06598"/><trkpt lat="68.07096" lon="24.06621"/><trkpt lat="68.07075" lon="24.06612"/><trkpt lat="68.07028" lon="24.06607"/><trkpt lat="68.0701" lon="24.06588"/><trkpt lat="68.06981" lon="24.06599"/><trkpt lat="68.06907" lon="24.06572"/><trkpt lat="68.06852" lon="24.06519"/><trkpt lat="68.06827" lon="24.06475"/><trkpt lat="68.06806" lon="24.06461"/><trkpt lat="68.06728" lon="24.06349"/><trkpt lat="68.06698" lon="24.06319"/><trkpt lat="68.06649" lon="24.06252"/><trkpt lat="68.06622" lon="24.06224"/><trkpt lat="68.06612" lon="24.06204"/><trkpt lat="68.06578" lon="24.06151"/><trkpt lat="68.06565" lon="24.06139"/><trkpt lat="68.0651" lon="24.06027"/><trkpt lat="68.0651" lon="24.06027"/><trkpt lat="68.06499" lon="24.06006"/><trkpt lat="68.06499" lon="24.06006"/><trkpt lat="68.06471760866138" lon="24.05972135130875"/><trkpt lat="68.06471760923753" lon="24.059721351308745"/><trkpt lat="68.06462" lon="24.0596"/><trkpt lat="68.0641" lon="24.05859"/><trkpt lat="68.06357" lon="24.05837"/><trkpt lat="68.06344" lon="24.05806"/><trkpt lat="68.06329" lon="24.05795"/><trkpt lat="68.06304" lon="24.0579"/><trkpt lat="68.06245" lon="24.05804"/><trkpt lat="68.06159" lon="24.05854"/><trkpt lat="68.06146" lon="24.05846"/><trkpt lat="68.0612" lon="24.05842"/><trkpt lat="68.06105" lon="24.05844"/><trkpt lat="68.0609" lon="24.0587"/><trkpt lat="68.06077" lon="24.05879"/><trkpt lat="68.06069" lon="24.0587"/><trkpt lat="68.06044" lon="24.05884"/><trkpt lat="68.06039" lon="24.05885"/><trkpt lat="68.06028" lon="24.0588"/><trkpt lat="68.05996" lon="24.05918"/><trkpt lat="68.05987" lon="24.05925"/><trkpt lat="68.05974" lon="24.05915"/><trkpt lat="68.0596" lon="24.05916"/><trkpt lat="68.05945" lon="24.05927"/><trkpt lat="68.05922" lon="24.05935"/><trkpt lat="68.05906" lon="24.0593"/><trkpt lat="68.0589" lon="24.05951"/><trkpt lat="68.05881" lon="24.05952"/><trkpt lat="68.05872" lon="24.05939"/><trkpt lat="68.05826" lon="24.05957"/><trkpt lat="68.0578" lon="24.0595"/><trkpt lat="68.0578" lon="24.0595"/><trkpt lat="68.05755" lon="24.0599"/><trkpt lat="68.05733" lon="24.06006"/><trkpt lat="68.05733" lon="24.06006"/><trkpt lat="68.05718" lon="24.06017"/><trkpt lat="68.05689" lon="24.06026"/><trkpt lat="68.05689" lon="24.06026"/><trkpt lat="68.05637" lon="24.06043"/><trkpt lat="68.05616" lon="24.06058"/><trkpt lat="68.05588" lon="24.06073"/><trkpt lat="68.05572" lon="24.06077"/><trkpt lat="68.05559" lon="24.06068"/><trkpt lat="68.05509" lon="24.06064"/><trkpt lat="68.05488" lon="24.0606"/><trkpt lat="68.05474" lon="24.06065"/><trkpt lat="68.05474" lon="24.06065"/><trkpt lat="68.0547" lon="24.06066"/><trkpt lat="68.05459" lon="24.06061"/><trkpt lat="68.05459" lon="24.06061"/><trkpt lat="68.05459" lon="24.06061"/><trkpt lat="68.05446" lon="24.06074"/><trkpt lat="68.05432" lon="24.06094"/><trkpt lat="68.05418" lon="24.06121"/><trkpt lat="68.05408" lon="24.06145"/><trkpt lat="68.05401" lon="24.06155"/><trkpt lat="68.05374" lon="24.06176"/><trkpt lat="68.05374" lon="24.06176"/><trkpt lat="68.05377" lon="24.06227"/><trkpt lat="68.05375" lon="24.06335"/><trkpt lat="68.05375" lon="24.06335"/><trkpt lat="68.0537" lon="24.0641"/><trkpt lat="68.05362" lon="24.06472"/><trkpt lat="68.05353" lon="24.06525"/><trkpt lat="68.05344" lon="24.06557"/><trkpt lat="68.05321" lon="24.06629"/><trkpt lat="68.053" lon="24.06679"/><trkpt lat="68.05284" lon="24.06706"/><trkpt lat="68.0525" lon="24.06745"/><trkpt lat="68.0525" lon="24.06745"/><trkpt lat="68.0525" lon="24.06745"/><trkpt lat="68.0522" lon="24.06761"/><trkpt lat="68.04868" lon="24.06786"/><trkpt lat="68.04868" lon="24.06786"/><trkpt lat="68.04842" lon="24.06784"/><trkpt lat="68.04741" lon="24.06792"/><trkpt lat="68.04741" lon="24.06792"/><trkpt lat="68.04504" lon="24.0681"/><trkpt lat="68.04498" lon="24.06803"/><trkpt lat="68.04494" lon="24.06793"/><trkpt lat="68.04494" lon="24.06793"/><trkpt lat="68.04494" lon="24.06793"/><trkpt lat="68.04479" lon="24.06813"/><trkpt lat="68.04479" lon="24.06813"/><trkpt lat="68.04481" lon="24.06826"/><trkpt lat="68.04481" lon="24.06846"/><trkpt lat="68.04479" lon="24.06901"/><trkpt lat="68.04472" lon="24.06968"/><trkpt lat="68.04458" lon="24.07077"/><trkpt lat="68.04432" lon="24.0725"/><trkpt lat="68.0442" lon="24.07348"/><trkpt lat="68.0439" lon="24.07512"/><trkpt lat="68.04376" lon="24.07625"/><trkpt lat="68.0437" lon="24.07661"/><trkpt lat="68.04366750704638" lon="24.076866334431962"/><trkpt lat="68.04366750704638" lon="24.076866334431962"/><trkpt lat="68.04361" lon="24.07732"/><trkpt lat="68.04349" lon="24.078"/><trkpt lat="68.0434" lon="24.07878"/><trkpt lat="68.04335" lon="24.07903"/><trkpt lat="68.04335" lon="24.07903"/><trkpt lat="68.04331" lon="24.07912"/><trkpt lat="68.0432" lon="24.07917"/><trkpt lat="68.04305" lon="24.07918"/><trkpt lat="68.04283" lon="24.07915"/><trkpt lat="68.04272" lon="24.07922"/><trkpt lat="68.04262" lon="24.07922"/><trkpt lat="68.04250978147603" lon="24.07916299041863"/><trkpt lat="68.04250978147603" lon="24.07916299041863"/><trkpt lat="68.04233" lon="24.07907"/><trkpt lat="68.04225" lon="24.07898"/><trkpt lat="68.04225" lon="24.07898"/><trkpt lat="68.04221632281858" lon="24.07891745666307"/></trkseg></trk></gpx>