<?xml version="1.0"?>
<gpx xmlns="http://www.topografix.com/GPX/1/1" xmlns:gpxx="http://www.garmin.com/xmlschemas/GpxExtensions/v3" creator="CALTOPO" version="1.1"><metadata><name><![CDATA[pahtavuoma-saivon-kota]]></name></metadata><trk><name>pahtavuoma-saivon-kota</name><trkseg><trkpt lat="67.80222938488023" lon="24.195725518873108"/><trkpt lat="67.80222" lon="24.19642"/><trkpt lat="67.80212" lon="24.19874"/><trkpt lat="67.80208" lon="24.20014"/><trkpt lat="67.80186" lon="24.20244"/><trkpt lat="67.80182" lon="24.20926"/><trkpt lat="67.802" lon="24.21042"/><trkpt lat="67.80191" lon="24.21112"/><trkpt lat="67.80162" lon="24.21218"/><trkpt lat="67.80126" lon="24.2129"/><trkpt lat="67.80111" lon="24.21298"/><trkpt lat="67.80111" lon="24.21298"/><trkpt lat="67.80094" lon="24.21296"/><trkpt lat="67.80094" lon="24.21296"/><trkpt lat="67.8008" lon="24.21297"/><trkpt lat="67.80066" lon="24.21293"/><trkpt lat="67.80053" lon="24.21277"/><trkpt lat="67.80041" lon="24.2128"/><trkpt lat="67.80013" lon="24.21261"/><trkpt lat="67.79996" lon="24.2127"/><trkpt lat="67.79967" lon="24.21319"/><trkpt lat="67.79948" lon="24.21356"/><trkpt lat="67.79939" lon="24.21387"/><trkpt lat="67.79939" lon="24.21387"/><trkpt lat="67.79935" lon="24.214"/><trkpt lat="67.79914" lon="24.21432"/><trkpt lat="67.79885" lon="24.21511"/><trkpt lat="67.79872" lon="24.21523"/><trkpt lat="67.79852" lon="24.21506"/><trkpt lat="67.79852" lon="24.21506"/><trkpt lat="67.79822" lon="24.21468"/><trkpt lat="67.79778" lon="24.21402"/><trkpt lat="67.79644" lon="24.2139"/><trkpt lat="67.79638" lon="24.21387"/><trkpt lat="67.79638" lon="24.21387"/><trkpt lat="67.79561" lon="24.21345"/><trkpt lat="67.79455" lon="24.21261"/><trkpt lat="67.79435731460205" lon="24.212197617232437"/><trkpt lat="67.79435731821583" lon="24.212197617232437"/><trkpt lat="67.79348" lon="24.21032"/><trkpt lat="67.79348" lon="24.21032"/><trkpt lat="67.79316" lon="24.21044"/><trkpt lat="67.79286" lon="24.20995"/><trkpt lat="67.79264" lon="24.20919"/><trkpt lat="67.79264" lon="24.20919"/><trkpt lat="67.79245" lon="24.20851"/><trkpt lat="67.79171" lon="24.20908"/><trkpt lat="67.79123" lon="24.20773"/><trkpt lat="67.79031" lon="24.2078"/><trkpt lat="67.78979" lon="24.20725"/><trkpt lat="67.78932" lon="24.20635"/><trkpt lat="67.78921" lon="24.20589"/><trkpt lat="67.78915" lon="24.20586"/><trkpt lat="67.78909" lon="24.2059"/><trkpt lat="67.78909" lon="24.2059"/><trkpt lat="67.78886" lon="24.20605"/><trkpt lat="67.78886" lon="24.20605"/><trkpt lat="67.78861" lon="24.20603"/><trkpt lat="67.7882" lon="24.20311"/><trkpt lat="67.78767" lon="24.20217"/><trkpt lat="67.78689" lon="24.20182"/><trkpt lat="67.78656" lon="24.20022"/><trkpt lat="67.78619" lon="24.19976"/><trkpt lat="67.7852" lon="24.20097"/><trkpt lat="67.7852" lon="24.20097"/><trkpt lat="67.78466" lon="24.20273"/><trkpt lat="67.78433" lon="24.2031"/><trkpt lat="67.78433" lon="24.2031"/><trkpt lat="67.78414" lon="24.20333"/><trkpt lat="67.78365" lon="24.2029"/><trkpt lat="67.78256" lon="24.20298"/><trkpt lat="67.7823" lon="24.20337"/><trkpt lat="67.78092" lon="24.20327"/><trkpt lat="67.77977" lon="24.20232"/><trkpt lat="67.77923" lon="24.20062"/><trkpt lat="67.77781" lon="24.2006"/><trkpt lat="67.77754" lon="24.20035"/><trkpt lat="67.77728" lon="24.20045"/><trkpt lat="67.7771" lon="24.20047"/><trkpt lat="67.77699" lon="24.20069"/><trkpt lat="67.77694" lon="24.20074"/><trkpt lat="67.77688" lon="24.20065"/><trkpt lat="67.7768" lon="24.20039"/><trkpt lat="67.77673" lon="24.20024"/><trkpt lat="67.77645" lon="24.20012"/><trkpt lat="67.7763" lon="24.19993"/><trkpt lat="67.77618" lon="24.19972"/><trkpt lat="67.77603" lon="24.19957"/><trkpt lat="67.77603" lon="24.19957"/><trkpt lat="67.77563" lon="24.1996"/><trkpt lat="67.77516" lon="24.19931"/><trkpt lat="67.77504" lon="24.19906"/><trkpt lat="67.77491" lon="24.19892"/><trkpt lat="67.77468" lon="24.1985"/><trkpt lat="67.7745" lon="24.1984"/><trkpt lat="67.77443" lon="24.1981"/><trkpt lat="67.77411" lon="24.19774"/><trkpt lat="67.77391" lon="24.19763"/><trkpt lat="67.77391" lon="24.19763"/><trkpt lat="67.77381" lon="24.19783"/><trkpt lat="67.77356" lon="24.19803"/><trkpt lat="67.77338" lon="24.19803"/><trkpt lat="67.77311" lon="24.19768"/><trkpt lat="67.77285" lon="24.19744"/><trkpt lat="67.77267" lon="24.19738"/><trkpt lat="67.7725" lon="24.19702"/><trkpt lat="67.77228" lon="24.19678"/><trkpt lat="67.77187" lon="24.19567"/><trkpt lat="67.7718" lon="24.19537"/><trkpt lat="67.7718" lon="24.19537"/><trkpt lat="67.77171" lon="24.19517"/><trkpt lat="67.77154" lon="24.19512"/><trkpt lat="67.77126" lon="24.1951"/><trkpt lat="67.77117" lon="24.19495"/><trkpt lat="67.77101" lon="24.19495"/><trkpt lat="67.77075" lon="24.19478"/><trkpt lat="67.77075" lon="24.19478"/><trkpt lat="67.7706" lon="24.19464"/><trkpt lat="67.77051" lon="24.19466"/><trkpt lat="67.77039" lon="24.19446"/><trkpt lat="67.77025" lon="24.19436"/><trkpt lat="67.76995" lon="24.19391"/><trkpt lat="67.76986" lon="24.19367"/><trkpt lat="67.76976" lon="24.19327"/><trkpt lat="67.76961" lon="24.19297"/><trkpt lat="67.7695" lon="24.19261"/><trkpt lat="67.76936" lon="24.19236"/><trkpt lat="67.76927" lon="24.19204"/><trkpt lat="67.76926" lon="24.19189"/><trkpt lat="67.76926" lon="24.19189"/><trkpt lat="67.76921" lon="24.19149"/><trkpt lat="67.76909" lon="24.19114"/><trkpt lat="67.76891" lon="24.19027"/><trkpt lat="67.76876" lon="24.18995"/><trkpt lat="67.76865" lon="24.18957"/><trkpt lat="67.76844" lon="24.18934"/><trkpt lat="67.76803" lon="24.18849"/><trkpt lat="67.76784" lon="24.18777"/><trkpt lat="67.7678" lon="24.18726"/><trkpt lat="67.76771" lon="24.187"/><trkpt lat="67.76771" lon="24.187"/><trkpt lat="67.76766" lon="24.18685"/><trkpt lat="67.76748" lon="24.18652"/><trkpt lat="67.7674" lon="24.18607"/><trkpt lat="67.76724" lon="24.1857"/><trkpt lat="67.76712" lon="24.18557"/><trkpt lat="67.76695" lon="24.18527"/><trkpt lat="67.7668" lon="24.18488"/><trkpt lat="67.76668" lon="24.18433"/><trkpt lat="67.76654" lon="24.18391"/><trkpt lat="67.76649" lon="24.1836"/><trkpt lat="67.76635" lon="24.18317"/><trkpt lat="67.76615" lon="24.1828"/><trkpt lat="67.766" lon="24.18231"/><trkpt lat="67.76594" lon="24.18188"/><trkpt lat="67.76574" lon="24.18114"/><trkpt lat="67.76545" lon="24.1805"/><trkpt lat="67.76476" lon="24.1791"/><trkpt lat="67.76454" lon="24.17854"/><trkpt lat="67.76431" lon="24.17817"/><trkpt lat="67.76362" lon="24.17674"/><trkpt lat="67.76302" lon="24.1756"/><trkpt lat="67.76275" lon="24.17523"/><trkpt lat="67.76258" lon="24.1748"/><trkpt lat="67.76208" lon="24.17391"/><trkpt lat="67.76149" lon="24.1732"/><trkpt lat="67.76149" lon="24.1732"/><trkpt lat="67.76103" lon="24.17291"/><trkpt lat="67.76089" lon="24.17266"/><trkpt lat="67.76044" lon="24.17218"/><trkpt lat="67.76028" lon="24.17217"/><trkpt lat="67.76012" lon="24.17208"/><trkpt lat="67.75947" lon="24.17219"/><trkpt lat="67.75947" lon="24.17219"/><trkpt lat="67.7594" lon="24.17214"/><trkpt lat="67.7594" lon="24.17214"/><trkpt lat="67.75863" lon="24.17166"/><trkpt lat="67.75848" lon="24.1717"/><trkpt lat="67.7583" lon="24.17154"/><trkpt lat="67.7582" lon="24.17103"/><trkpt lat="67.758" lon="24.17073"/><trkpt lat="67.75791" lon="24.17065"/><trkpt lat="67.75775" lon="24.17035"/><trkpt lat="67.75764" lon="24.17024"/><trkpt lat="67.75757" lon="24.17003"/><trkpt lat="67.75757" lon="24.17003"/><trkpt lat="67.75754" lon="24.16992"/><trkpt lat="67.75754" lon="24.16992"/><trkpt lat="67.7575" lon="24.16973"/><trkpt lat="67.7575" lon="24.16973"/><trkpt lat="67.7575" lon="24.16973"/><trkpt lat="67.75734" lon="24.16941"/><trkpt lat="67.7572" lon="24.16928"/><trkpt lat="67.7572" lon="24.16928"/><trkpt lat="67.75696" lon="24.16906"/><trkpt lat="67.75675" lon="24.16878"/><trkpt lat="67.75655" lon="24.16863"/><trkpt lat="67.75622" lon="24.16806"/><trkpt lat="67.75622" lon="24.16806"/><trkpt lat="67.75609" lon="24.16774"/><trkpt lat="67.75601" lon="24.16769"/><trkpt lat="67.75584" lon="24.16788"/><trkpt lat="67.75554" lon="24.1678"/><trkpt lat="67.75517" lon="24.16715"/><trkpt lat="67.75504" lon="24.1673"/><trkpt lat="67.75452" lon="24.16726"/><trkpt lat="67.75419" lon="24.16694"/><trkpt lat="67.75381" lon="24.16671"/><trkpt lat="67.75344" lon="24.16643"/><trkpt lat="67.75328" lon="24.16602"/><trkpt lat="67.75313" lon="24.16538"/><trkpt lat="67.75289" lon="24.16472"/><trkpt lat="67.75289" lon="24.16472"/><trkpt lat="67.75252" lon="24.16416"/><trkpt lat="67.75215" lon="24.1634"/><trkpt lat="67.75172" lon="24.16301"/><trkpt lat="67.75151" lon="24.16312"/><trkpt lat="67.75108" lon="24.16377"/><trkpt lat="67.75108" lon="24.16377"/><trkpt lat="67.75075" lon="24.16385"/><trkpt lat="67.74987" lon="24.16432"/><trkpt lat="67.74962" lon="24.16457"/><trkpt lat="67.74962" lon="24.16457"/><trkpt lat="67.74937" lon="24.16457"/><trkpt lat="67.74907" lon="24.16477"/><trkpt lat="67.74889" lon="24.16475"/><trkpt lat="67.74844" lon="24.16481"/><trkpt lat="67.74794" lon="24.16514"/><trkpt lat="67.7476" lon="24.16528"/><trkpt lat="67.74739" lon="24.16527"/><trkpt lat="67.74715" lon="24.1652"/><trkpt lat="67.74687" lon="24.16527"/><trkpt lat="67.74653" lon="24.16509"/><trkpt lat="67.74612" lon="24.16526"/><trkpt lat="67.74579" lon="24.16546"/><trkpt lat="67.74546" lon="24.16551"/><trkpt lat="67.7451" lon="24.16569"/><trkpt lat="67.74469" lon="24.16575"/><trkpt lat="67.74442" lon="24.166"/><trkpt lat="67.74419" lon="24.16627"/><trkpt lat="67.74388" lon="24.16653"/><trkpt lat="67.74362" lon="24.16655"/><trkpt lat="67.74312" lon="24.16669"/><trkpt lat="67.74276" lon="24.16664"/><trkpt lat="67.74276" lon="24.16664"/><trkpt lat="67.74234" lon="24.16659"/><trkpt lat="67.74234" lon="24.16659"/><trkpt lat="67.74214" lon="24.16646"/><trkpt lat="67.742" lon="24.16645"/><trkpt lat="67.74172" lon="24.16655"/><trkpt lat="67.74154" lon="24.16655"/><trkpt lat="67.74137" lon="24.1664"/><trkpt lat="67.74113" lon="24.16652"/><trkpt lat="67.74046" lon="24.16639"/><trkpt lat="67.74018" lon="24.16647"/><trkpt lat="67.73984" lon="24.16648"/><trkpt lat="67.73913" lon="24.16684"/><trkpt lat="67.73882" lon="24.16722"/><trkpt lat="67.73788" lon="24.16769"/><trkpt lat="67.73724" lon="24.16795"/><trkpt lat="67.73695" lon="24.16798"/><trkpt lat="67.73667" lon="24.16813"/><trkpt lat="67.73639" lon="24.16815"/><trkpt lat="67.73568" lon="24.1686"/><trkpt lat="67.73548" lon="24.16861"/><trkpt lat="67.7352" lon="24.16845"/><trkpt lat="67.73504" lon="24.16853"/><trkpt lat="67.73489" lon="24.16848"/><trkpt lat="67.73472" lon="24.1686"/><trkpt lat="67.73458" lon="24.16866"/><trkpt lat="67.73444" lon="24.16887"/><trkpt lat="67.73444" lon="24.16887"/><trkpt lat="67.73435" lon="24.169"/><trkpt lat="67.7342" lon="24.16914"/><trkpt lat="67.73373" lon="24.16911"/><trkpt lat="67.73355" lon="24.16917"/><trkpt lat="67.73339" lon="24.16915"/><trkpt lat="67.73321" lon="24.16905"/><trkpt lat="67.73293" lon="24.16924"/><trkpt lat="67.73276" lon="24.16919"/><trkpt lat="67.73251" lon="24.16897"/><trkpt lat="67.73213" lon="24.1689"/><trkpt lat="67.73192" lon="24.16868"/><trkpt lat="67.73161" lon="24.1688"/><trkpt lat="67.73151" lon="24.16889"/><trkpt lat="67.7314" lon="24.16885"/><trkpt lat="67.7312" lon="24.16894"/><trkpt lat="67.73105" lon="24.16892"/><trkpt lat="67.73079" lon="24.16902"/><trkpt lat="67.73061" lon="24.16885"/><trkpt lat="67.73016" lon="24.16894"/><trkpt lat="67.72978" lon="24.16934"/><trkpt lat="67.72973" lon="24.16948"/><trkpt lat="67.7294" lon="24.16965"/><trkpt lat="67.72925" lon="24.16987"/><trkpt lat="67.72908" lon="24.16992"/><trkpt lat="67.72908" lon="24.16992"/><trkpt lat="67.72889" lon="24.16998"/><trkpt lat="67.72873" lon="24.17022"/><trkpt lat="67.72843" lon="24.17053"/><trkpt lat="67.72809" lon="24.17068"/><trkpt lat="67.728" lon="24.17063"/><trkpt lat="67.72789" lon="24.17071"/><trkpt lat="67.72777" lon="24.17063"/><trkpt lat="67.72742" lon="24.17084"/><trkpt lat="67.72742" lon="24.17084"/><trkpt lat="67.72685" lon="24.17082"/><trkpt lat="67.72661" lon="24.17038"/><trkpt lat="67.72611" lon="24.1709"/><trkpt lat="67.72611" lon="24.1709"/><trkpt lat="67.726" lon="24.171"/><trkpt lat="67.72589" lon="24.17096"/><trkpt lat="67.7258" lon="24.17107"/><trkpt lat="67.72557" lon="24.1712"/><trkpt lat="67.72532" lon="24.17121"/><trkpt lat="67.72483" lon="24.17156"/><trkpt lat="67.72468" lon="24.17151"/><trkpt lat="67.72432" lon="24.17149"/><trkpt lat="67.72411" lon="24.17162"/><trkpt lat="67.72378" lon="24.17157"/><trkpt lat="67.72341" lon="24.17193"/><trkpt lat="67.72329" lon="24.17195"/><trkpt lat="67.72318" lon="24.17202"/><trkpt lat="67.72307" lon="24.17203"/><trkpt lat="67.72296" lon="24.17211"/><trkpt lat="67.72285" lon="24.17211"/><trkpt lat="67.72264" lon="24.1722"/><trkpt lat="67.72237" lon="24.17266"/><trkpt lat="67.72226" lon="24.17274"/><trkpt lat="67.72214" lon="24.1729"/><trkpt lat="67.72202" lon="24.17295"/><trkpt lat="67.72183" lon="24.17285"/><trkpt lat="67.72141" lon="24.17245"/><trkpt lat="67.72119" lon="24.17232"/><trkpt lat="67.72089" lon="24.17245"/><trkpt lat="67.72077" lon="24.17235"/><trkpt lat="67.7204" lon="24.17265"/><trkpt lat="67.71995" lon="24.17269"/><trkpt lat="67.71965" lon="24.17292"/><trkpt lat="67.71941" lon="24.17303"/><trkpt lat="67.71915" lon="24.17326"/><trkpt lat="67.71867" lon="24.17332"/><trkpt lat="67.71837" lon="24.17294"/><trkpt lat="67.71818" lon="24.17285"/><trkpt lat="67.71818" lon="24.17285"/><trkpt lat="67.71805" lon="24.17269"/><trkpt lat="67.71791" lon="24.17258"/><trkpt lat="67.71778" lon="24.17234"/><trkpt lat="67.71778" lon="24.17234"/><trkpt lat="67.71763" lon="24.17165"/><trkpt lat="67.71738" lon="24.17112"/><trkpt lat="67.71726" lon="24.17093"/><trkpt lat="67.71702" lon="24.17071"/><trkpt lat="67.71694" lon="24.17045"/><trkpt lat="67.71668" lon="24.17"/><trkpt lat="67.71666" lon="24.16992"/><trkpt lat="67.71666" lon="24.16992"/><trkpt lat="67.71658" lon="24.16972"/><trkpt lat="67.71655" lon="24.16946"/><trkpt lat="67.71647" lon="24.1693"/><trkpt lat="67.71643" lon="24.169"/><trkpt lat="67.71628" lon="24.1684"/><trkpt lat="67.71623" lon="24.1683"/><trkpt lat="67.71618" lon="24.16795"/><trkpt lat="67.71609" lon="24.16778"/><trkpt lat="67.71607" lon="24.16749"/><trkpt lat="67.716" lon="24.16724"/><trkpt lat="67.71597" lon="24.16673"/><trkpt lat="67.71597" lon="24.16673"/><trkpt lat="67.71604" lon="24.16655"/><trkpt lat="67.71584" lon="24.16589"/><trkpt lat="67.71563" lon="24.16549"/><trkpt lat="67.71538" lon="24.16531"/><trkpt lat="67.71538" lon="24.16531"/><trkpt lat="67.71439" lon="24.16485"/><trkpt lat="67.71439" lon="24.16485"/><trkpt lat="67.71439" lon="24.16485"/><trkpt lat="67.71398" lon="24.16453"/><trkpt lat="67.71398" lon="24.16453"/><trkpt lat="67.71366" lon="24.1643"/><trkpt lat="67.71366" lon="24.1643"/><trkpt lat="67.71272" lon="24.16351"/><trkpt lat="67.71224" lon="24.16329"/><trkpt lat="67.71168" lon="24.16293"/><trkpt lat="67.71168" lon="24.16293"/><trkpt lat="67.7112" lon="24.16237"/><trkpt lat="67.7112" lon="24.16237"/><trkpt lat="67.71118" lon="24.16208"/><trkpt lat="67.71118" lon="24.16208"/><trkpt lat="67.711" lon="24.16149"/><trkpt lat="67.71086" lon="24.16111"/><trkpt lat="67.71086" lon="24.16111"/><trkpt lat="67.71063" lon="24.16014"/><trkpt lat="67.71033" lon="24.1598"/><trkpt lat="67.71016" lon="24.15954"/><trkpt lat="67.71005" lon="24.15968"/><trkpt lat="67.71005" lon="24.15968"/><trkpt lat="67.71003" lon="24.16002"/><trkpt lat="67.71" lon="24.16016"/><trkpt lat="67.71" lon="24.16016"/><trkpt lat="67.70976" lon="24.16026"/><trkpt lat="67.70976" lon="24.16026"/><trkpt lat="67.70973" lon="24.16083"/><trkpt lat="67.70968" lon="24.16129"/><trkpt lat="67.70968" lon="24.16129"/><trkpt lat="67.70962" lon="24.16166"/><trkpt lat="67.70962" lon="24.16166"/><trkpt lat="67.70945" lon="24.1616"/><trkpt lat="67.70945" lon="24.1616"/><trkpt lat="67.70911" lon="24.16114"/><trkpt lat="67.70904" lon="24.16096"/><trkpt lat="67.70878" lon="24.16061"/><trkpt lat="67.70855" lon="24.16011"/><trkpt lat="67.70835" lon="24.15982"/><trkpt lat="67.70815" lon="24.15963"/><trkpt lat="67.70815" lon="24.15963"/><trkpt lat="67.70785" lon="24.15911"/><trkpt lat="67.70758" lon="24.15875"/><trkpt lat="67.70733" lon="24.15827"/><trkpt lat="67.7072" lon="24.15785"/><trkpt lat="67.70642" lon="24.15648"/><trkpt lat="67.70602" lon="24.15592"/><trkpt lat="67.70523" lon="24.15414"/><trkpt lat="67.705130025287" lon="24.153979746375175"/><trkpt lat="67.705130025287" lon="24.153979746375175"/><trkpt lat="67.70455" lon="24.15305"/><trkpt lat="67.70246" lon="24.14825"/><trkpt lat="67.70227" lon="24.14801"/><trkpt lat="67.70219" lon="24.14802"/><trkpt lat="67.70211" lon="24.14807"/><trkpt lat="67.70193" lon="24.14832"/><trkpt lat="67.70183" lon="24.14837"/><trkpt lat="67.70139" lon="24.14795"/><trkpt lat="67.70139" lon="24.14795"/><trkpt lat="67.70111" lon="24.14759"/><trkpt lat="67.70111" lon="24.14759"/><trkpt lat="67.70093" lon="24.14734"/><trkpt lat="67.70024" lon="24.14579"/><trkpt lat="67.69998" lon="24.14541"/><trkpt lat="67.69982" lon="24.14522"/><trkpt lat="67.69965" lon="24.14517"/><trkpt lat="67.6993" lon="24.14534"/><trkpt lat="67.6993" lon="24.14534"/><trkpt lat="67.69926" lon="24.14425"/><trkpt lat="67.69915" lon="24.14334"/><trkpt lat="67.6991" lon="24.14273"/><trkpt lat="67.69899" lon="24.1421"/><trkpt lat="67.69856" lon="24.14136"/><trkpt lat="67.69804" lon="24.14067"/><trkpt lat="67.69804" lon="24.14067"/><trkpt lat="67.69802669566639" lon="24.140696608667223"/></trkseg></trk></gpx>