<?xml version="1.0"?>
<gpx xmlns="http://www.topografix.com/GPX/1/1" xmlns:gpxx="http://www.garmin.com/xmlschemas/GpxExtensions/v3" creator="CALTOPO" version="1.1"><metadata><name><![CDATA[pallaksen-kota-keimiojarvi]]></name></metadata><trk><name>pallaksen-kota-keimiojarvi</name><trkseg><trkpt lat="68.04200000000002" lon="24.07903"/><trkpt lat="68.04172" lon="24.07955"/><trkpt lat="68.04165" lon="24.07962"/><trkpt lat="68.04157" lon="24.07958"/><trkpt lat="68.04134" lon="24.07923"/><trkpt lat="68.04124" lon="24.07902"/><trkpt lat="68.04115" lon="24.07892"/><trkpt lat="68.04091" lon="24.07878"/><trkpt lat="68.04052" lon="24.07873"/><trkpt lat="68.04046" lon="24.07877"/><trkpt lat="68.04046" lon="24.07877"/><trkpt lat="68.04021" lon="24.07887"/><trkpt lat="68.04011" lon="24.07886"/><trkpt lat="68.04002" lon="24.0788"/><trkpt lat="68.03978" lon="24.07838"/><trkpt lat="68.03937" lon="24.07818"/><trkpt lat="68.03937" lon="24.07818"/><trkpt lat="68.03928" lon="24.07814"/><trkpt lat="68.03915" lon="24.07825"/><trkpt lat="68.03876" lon="24.07834"/><trkpt lat="68.03864" lon="24.0783"/><trkpt lat="68.03854" lon="24.07837"/><trkpt lat="68.03843" lon="24.07839"/><trkpt lat="68.03833" lon="24.07846"/><trkpt lat="68.0381" lon="24.07872"/><trkpt lat="68.03794" lon="24.07899"/><trkpt lat="68.03785" lon="24.07904"/><trkpt lat="68.03777" lon="24.07921"/><trkpt lat="68.03766" lon="24.07938"/><trkpt lat="68.03766" lon="24.07963"/><trkpt lat="68.03759" lon="24.07988"/><trkpt lat="68.03751" lon="24.08006"/><trkpt lat="68.0374" lon="24.08019"/><trkpt lat="68.03729" lon="24.08046"/><trkpt lat="68.03723" lon="24.0807"/><trkpt lat="68.03708" lon="24.08117"/><trkpt lat="68.03698" lon="24.08123"/><trkpt lat="68.03687" lon="24.08135"/><trkpt lat="68.03677" lon="24.08153"/><trkpt lat="68.03666" lon="24.08182"/><trkpt lat="68.03655" lon="24.08203"/><trkpt lat="68.03655" lon="24.08203"/><trkpt lat="68.03647" lon="24.08219"/><trkpt lat="68.03634" lon="24.08217"/><trkpt lat="68.03627" lon="24.08236"/><trkpt lat="68.03604" lon="24.0826"/><trkpt lat="68.03591" lon="24.08268"/><trkpt lat="68.03568" lon="24.0827"/><trkpt lat="68.03556" lon="24.08291"/><trkpt lat="68.0354" lon="24.08351"/><trkpt lat="68.03531" lon="24.08373"/><trkpt lat="68.035" lon="24.08442"/><trkpt lat="68.03491" lon="24.08456"/><trkpt lat="68.03475" lon="24.08469"/><trkpt lat="68.03465" lon="24.08472"/><trkpt lat="68.03453" lon="24.0848"/><trkpt lat="68.03447" lon="24.08504"/><trkpt lat="68.03439" lon="24.08527"/><trkpt lat="68.03418" lon="24.08548"/><trkpt lat="68.03401" lon="24.08612"/><trkpt lat="68.03395" lon="24.08638"/><trkpt lat="68.03382" lon="24.08679"/><trkpt lat="68.03373" lon="24.08693"/><trkpt lat="68.03343" lon="24.08784"/><trkpt lat="68.03336" lon="24.08809"/><trkpt lat="68.03313" lon="24.08847"/><trkpt lat="68.03297" lon="24.089"/><trkpt lat="68.03297" lon="24.089"/><trkpt lat="68.03261" lon="24.09081"/><trkpt lat="68.03244" lon="24.09224"/><trkpt lat="68.03251" lon="24.09246"/><trkpt lat="68.03244" lon="24.09303"/><trkpt lat="68.03224" lon="24.0934"/><trkpt lat="68.03224" lon="24.0934"/><trkpt lat="68.0322" lon="24.09374"/><trkpt lat="68.03183" lon="24.09499"/><trkpt lat="68.03179" lon="24.09584"/><trkpt lat="68.03156" lon="24.0975"/><trkpt lat="68.03143" lon="24.09811"/><trkpt lat="68.03126" lon="24.09855"/><trkpt lat="68.03081" lon="24.09865"/><trkpt lat="68.03042" lon="24.09919"/><trkpt lat="68.03012" lon="24.09926"/><trkpt lat="68.02991" lon="24.10001"/><trkpt lat="68.02965" lon="24.10054"/><trkpt lat="68.02963" lon="24.1008"/><trkpt lat="68.02941" lon="24.10159"/><trkpt lat="68.0291" lon="24.10217"/><trkpt lat="68.02886" lon="24.10371"/><trkpt lat="68.02875" lon="24.104"/><trkpt lat="68.02875" lon="24.104"/><trkpt lat="68.02855" lon="24.10456"/><trkpt lat="68.02842" lon="24.10576"/><trkpt lat="68.02822" lon="24.10581"/><trkpt lat="68.02805" lon="24.10616"/><trkpt lat="68.02757" lon="24.1068"/><trkpt lat="68.02728" lon="24.10815"/><trkpt lat="68.02713" lon="24.10853"/><trkpt lat="68.02703" lon="24.10857"/><trkpt lat="68.02688" lon="24.10901"/><trkpt lat="68.02678" lon="24.10905"/><trkpt lat="68.02675" lon="24.10928"/><trkpt lat="68.0264" lon="24.11002"/><trkpt lat="68.02619" lon="24.11092"/><trkpt lat="68.02613" lon="24.11143"/><trkpt lat="68.02625" lon="24.11291"/><trkpt lat="68.02612" lon="24.11367"/><trkpt lat="68.02599" lon="24.11404"/><trkpt lat="68.02591" lon="24.11474"/><trkpt lat="68.02591" lon="24.11558"/><trkpt lat="68.02581" lon="24.1162"/><trkpt lat="68.02569" lon="24.1167"/><trkpt lat="68.02534" lon="24.11743"/><trkpt lat="68.02528" lon="24.11792"/><trkpt lat="68.0251" lon="24.11821"/><trkpt lat="68.02481" lon="24.11988"/><trkpt lat="68.02461" lon="24.12054"/><trkpt lat="68.02443" lon="24.12145"/><trkpt lat="68.02441" lon="24.12255"/><trkpt lat="68.02444" lon="24.12284"/><trkpt lat="68.02458" lon="24.12368"/><trkpt lat="68.02481" lon="24.12396"/><trkpt lat="68.02494" lon="24.12438"/><trkpt lat="68.02501" lon="24.12573"/><trkpt lat="68.025" lon="24.12598"/><trkpt lat="68.025" lon="24.12598"/><trkpt lat="68.02499" lon="24.12625"/><trkpt lat="68.02481" lon="24.12778"/><trkpt lat="68.02483" lon="24.12808"/><trkpt lat="68.02475" lon="24.12926"/><trkpt lat="68.02474" lon="24.12959"/><trkpt lat="68.0248" lon="24.1303"/><trkpt lat="68.0248" lon="24.1303"/><trkpt lat="68.0246" lon="24.13014"/><trkpt lat="68.02402" lon="24.12937"/><trkpt lat="68.02402" lon="24.12937"/><trkpt lat="68.02374" lon="24.12897"/><trkpt lat="68.02357" lon="24.1286"/><trkpt lat="68.02356" lon="24.12782"/><trkpt lat="68.02344" lon="24.12704"/><trkpt lat="68.02316" lon="24.12636"/><trkpt lat="68.02298" lon="24.12598"/><trkpt lat="68.02298" lon="24.12598"/><trkpt lat="68.02282" lon="24.12563"/><trkpt lat="68.02271" lon="24.12555"/><trkpt lat="68.02255" lon="24.12525"/><trkpt lat="68.02234" lon="24.12522"/><trkpt lat="68.02208" lon="24.12579"/><trkpt lat="68.02202" lon="24.12598"/><trkpt lat="68.02202" lon="24.12598"/><trkpt lat="68.02189" lon="24.12646"/><trkpt lat="68.02176" lon="24.12701"/><trkpt lat="68.02176" lon="24.12701"/><trkpt lat="68.02176" lon="24.12701"/><trkpt lat="68.02175" lon="24.12746"/><trkpt lat="68.02172" lon="24.12757"/><trkpt lat="68.02172" lon="24.12757"/><trkpt lat="68.02163" lon="24.12763"/><trkpt lat="68.02163" lon="24.12763"/><trkpt lat="68.02153" lon="24.12785"/><trkpt lat="68.02142" lon="24.12853"/><trkpt lat="68.0212" lon="24.12884"/><trkpt lat="68.02111" lon="24.12966"/><trkpt lat="68.0211" lon="24.12984"/><trkpt lat="68.0211" lon="24.12984"/><trkpt lat="68.02083" lon="24.12902"/><trkpt lat="68.02064" lon="24.12828"/><trkpt lat="68.02027" lon="24.12767"/><trkpt lat="68.02014" lon="24.12721"/><trkpt lat="68.01974" lon="24.12694"/><trkpt lat="68.01971331953746" lon="24.126896468718996"/><trkpt lat="68.01971331963165" lon="24.126896468719"/><trkpt lat="68.01955" lon="24.12663"/><trkpt lat="68.01938" lon="24.12598"/><trkpt lat="68.01938" lon="24.12598"/><trkpt lat="68.01931" lon="24.1257"/><trkpt lat="68.01921" lon="24.12449"/><trkpt lat="68.01885" lon="24.12392"/><trkpt lat="68.01878" lon="24.1235"/><trkpt lat="68.01806" lon="24.12266"/><trkpt lat="68.01727" lon="24.12295"/><trkpt lat="68.01705" lon="24.12331"/><trkpt lat="68.01683" lon="24.12405"/><trkpt lat="68.01688" lon="24.12441"/><trkpt lat="68.0168" lon="24.12494"/><trkpt lat="68.01652" lon="24.12555"/><trkpt lat="68.01645" lon="24.12598"/><trkpt lat="68.01645" lon="24.12598"/><trkpt lat="68.01643" lon="24.12616"/><trkpt lat="68.0158" lon="24.12618"/><trkpt lat="68.0158" lon="24.12618"/><trkpt lat="68.01553" lon="24.12598"/><trkpt lat="68.01553" lon="24.12598"/><trkpt lat="68.0155" lon="24.12595"/><trkpt lat="68.01541" lon="24.12598"/><trkpt lat="68.01541" lon="24.12598"/><trkpt lat="68.0149" lon="24.12613"/><trkpt lat="68.01464" lon="24.12598"/><trkpt lat="68.01464" lon="24.12598"/><trkpt lat="68.014" lon="24.12561"/><trkpt lat="68.01375" lon="24.12598"/><trkpt lat="68.01375" lon="24.12598"/><trkpt lat="68.01351" lon="24.12631"/><trkpt lat="68.01343" lon="24.12689"/><trkpt lat="68.01278" lon="24.12725"/><trkpt lat="68.01233" lon="24.12831"/><trkpt lat="68.01211" lon="24.12855"/><trkpt lat="68.01205" lon="24.1289"/><trkpt lat="68.01146" lon="24.12925"/><trkpt lat="68.01113" lon="24.12921"/><trkpt lat="68.01056" lon="24.13022"/><trkpt lat="68.01034" lon="24.13082"/><trkpt lat="68.00994" lon="24.13123"/><trkpt lat="68.0092" lon="24.1309"/><trkpt lat="68.00818" lon="24.13189"/><trkpt lat="68.00761" lon="24.13122"/><trkpt lat="68.00757" lon="24.1312"/><trkpt lat="68.00757" lon="24.1312"/><trkpt lat="68.00719" lon="24.13102"/><trkpt lat="68.00649" lon="24.13135"/><trkpt lat="68.00649" lon="24.13135"/><trkpt lat="68.00642038249103" lon="24.131390951220098"/><trkpt lat="68.00642038249103" lon="24.131390951220098"/><trkpt lat="68.00632" lon="24.13145"/><trkpt lat="68.00632" lon="24.13145"/><trkpt lat="68.00574" lon="24.13283"/><trkpt lat="68.00567" lon="24.13539"/><trkpt lat="68.00549" lon="24.13759"/><trkpt lat="68.00488" lon="24.14002"/><trkpt lat="68.00382" lon="24.14091"/><trkpt lat="68.00382" lon="24.14091"/><trkpt lat="68.00316" lon="24.14165"/><trkpt lat="68.00315166739816" lon="24.141677171527704"/><trkpt lat="68.00315166743806" lon="24.1416771715277"/><trkpt lat="68.00293" lon="24.1424"/><trkpt lat="68.00293" lon="24.1424"/><trkpt lat="68.00293" lon="24.1424"/><trkpt lat="68.00278" lon="24.14248"/><trkpt lat="68.00225" lon="24.14297"/><trkpt lat="68.00182" lon="24.14342"/><trkpt lat="68.00126" lon="24.14409"/><trkpt lat="68.00002" lon="24.14513"/><trkpt lat="67.99972" lon="24.14531"/><trkpt lat="67.99934" lon="24.14536"/><trkpt lat="67.99934" lon="24.14536"/><trkpt lat="67.9993" lon="24.14536"/><trkpt lat="67.99896" lon="24.14587"/><trkpt lat="67.99858" lon="24.14692"/><trkpt lat="67.99851" lon="24.14795"/><trkpt lat="67.99851" lon="24.14795"/><trkpt lat="67.9985" lon="24.14803"/><trkpt lat="67.99847" lon="24.14814"/><trkpt lat="67.99847" lon="24.14814"/><trkpt lat="67.99847" lon="24.14814"/><trkpt lat="67.99808" lon="24.14871"/><trkpt lat="67.99738" lon="24.14881"/><trkpt lat="67.99504" lon="24.15166"/><trkpt lat="67.99452" lon="24.15249"/><trkpt lat="67.99425" lon="24.1525"/><trkpt lat="67.99411" lon="24.15229"/><trkpt lat="67.99376" lon="24.15225"/><trkpt lat="67.99331" lon="24.15266"/><trkpt lat="67.99301" lon="24.15248"/><trkpt lat="67.9926" lon="24.15285"/><trkpt lat="67.9922" lon="24.15309"/><trkpt lat="67.99173" lon="24.15401"/><trkpt lat="67.99163" lon="24.15526"/><trkpt lat="67.99111" lon="24.15589"/><trkpt lat="67.99111" lon="24.15589"/><trkpt lat="67.99082" lon="24.15623"/><trkpt lat="67.98993" lon="24.15686"/><trkpt lat="67.98962" lon="24.15867"/><trkpt lat="67.98962" lon="24.15867"/><trkpt lat="67.9887" lon="24.15969"/><trkpt lat="67.98746" lon="24.16114"/><trkpt lat="67.98621" lon="24.16331"/><trkpt lat="67.98398" lon="24.16621"/><trkpt lat="67.98385" lon="24.16714"/><trkpt lat="67.98386" lon="24.16847"/><trkpt lat="67.98365" lon="24.16885"/><trkpt lat="67.98348" lon="24.16948"/><trkpt lat="67.98287" lon="24.16921"/><trkpt lat="67.98287" lon="24.16921"/><trkpt lat="67.98249" lon="24.16904"/><trkpt lat="67.9822" lon="24.16848"/><trkpt lat="67.98168" lon="24.16851"/><trkpt lat="67.98086" lon="24.16937"/><trkpt lat="67.98062" lon="24.16979"/><trkpt lat="67.98059" lon="24.16992"/><trkpt lat="67.98059" lon="24.16992"/><trkpt lat="67.98053" lon="24.17018"/><trkpt lat="67.97994" lon="24.17108"/><trkpt lat="67.97956" lon="24.17164"/><trkpt lat="67.97895" lon="24.17246"/><trkpt lat="67.97866" lon="24.17319"/><trkpt lat="67.97776" lon="24.1748"/><trkpt lat="67.9776" lon="24.17542"/><trkpt lat="67.97625" lon="24.17857"/><trkpt lat="67.97601" lon="24.17939"/><trkpt lat="67.97547" lon="24.18052"/><trkpt lat="67.97522" lon="24.18207"/><trkpt lat="67.97505" lon="24.18249"/><trkpt lat="67.97463" lon="24.18269"/><trkpt lat="67.97463" lon="24.18269"/><trkpt lat="67.97391" lon="24.18315"/><trkpt lat="67.97299" lon="24.18367"/><trkpt lat="67.97277" lon="24.18376"/><trkpt lat="67.97251" lon="24.18415"/><trkpt lat="67.97241" lon="24.18421"/><trkpt lat="67.97213" lon="24.18545"/><trkpt lat="67.97185" lon="24.18569"/><trkpt lat="67.97161" lon="24.18606"/><trkpt lat="67.97143" lon="24.18651"/><trkpt lat="67.97101" lon="24.18691"/><trkpt lat="67.97041" lon="24.18732"/><trkpt lat="67.9702" lon="24.18723"/><trkpt lat="67.96982" lon="24.18731"/><trkpt lat="67.9696" lon="24.18746"/><trkpt lat="67.96945" lon="24.18768"/><trkpt lat="67.96927" lon="24.18809"/><trkpt lat="67.9690751319338" lon="24.18840958362858"/><trkpt lat="67.96907513216546" lon="24.18840958362858"/><trkpt lat="67.96902" lon="24.1885"/><trkpt lat="67.96876" lon="24.18874"/><trkpt lat="67.96853" lon="24.18878"/><trkpt lat="67.96853" lon="24.18878"/><trkpt lat="67.96823" lon="24.18904"/><trkpt lat="67.968" lon="24.18912"/><trkpt lat="67.96758" lon="24.18903"/><trkpt lat="67.96742" lon="24.18875"/><trkpt lat="67.96723" lon="24.18819"/><trkpt lat="67.96701" lon="24.18802"/><trkpt lat="67.96639" lon="24.18675"/><trkpt lat="67.96639" lon="24.18675"/><trkpt lat="67.96606" lon="24.18605"/><trkpt lat="67.96586" lon="24.18509"/><trkpt lat="67.96524" lon="24.18463"/><trkpt lat="67.9634" lon="24.18454"/><trkpt lat="67.96305" lon="24.18424"/><trkpt lat="67.96177" lon="24.18458"/><trkpt lat="67.9592" lon="24.18779"/><trkpt lat="67.95815" lon="24.18816"/><trkpt lat="67.95815" lon="24.18816"/><trkpt lat="67.95786" lon="24.18826"/><trkpt lat="67.95697" lon="24.18913"/><trkpt lat="67.9558" lon="24.18901"/><trkpt lat="67.95472" lon="24.18929"/><trkpt lat="67.95374" lon="24.18939"/><trkpt lat="67.95269" lon="24.19029"/><trkpt lat="67.95212" lon="24.19068"/><trkpt lat="67.95182" lon="24.1905"/><trkpt lat="67.95182" lon="24.1905"/><trkpt lat="67.9517" lon="24.18963"/><trkpt lat="67.95174" lon="24.18836"/><trkpt lat="67.95189" lon="24.18812"/><trkpt lat="67.95204" lon="24.18722"/><trkpt lat="67.95212" lon="24.18647"/><trkpt lat="67.9521" lon="24.18593"/><trkpt lat="67.95185" lon="24.18473"/><trkpt lat="67.95153" lon="24.1829"/><trkpt lat="67.95142" lon="24.181"/><trkpt lat="67.9514007443912" lon="24.180867961539647"/><trkpt lat="67.95140074444127" lon="24.180867961539647"/><trkpt lat="67.95128" lon="24.18004"/><trkpt lat="67.95095" lon="24.17876"/><trkpt lat="67.9508" lon="24.1779"/><trkpt lat="67.95080717422174" lon="24.17217497105578"/><trkpt lat="67.95080717422216" lon="24.172174971055785"/><trkpt lat="67.95081" lon="24.16992"/><trkpt lat="67.95081" lon="24.16992"/><trkpt lat="67.95083" lon="24.16482"/><trkpt lat="67.95083" lon="24.16482"/><trkpt lat="67.95084" lon="24.16347"/><trkpt lat="67.9508370974754" lon="24.163446779803195"/></trkseg></trk></gpx>