<?xml version="1.0"?>
<gpx xmlns="http://www.topografix.com/GPX/1/1" xmlns:gpxx="http://www.garmin.com/xmlschemas/GpxExtensions/v3" creator="CALTOPO" version="1.1"><metadata><name><![CDATA[saivon-kota-akaslompolo]]></name></metadata><trk><name>saivon-kota-akaslompolo</name><trkseg><trkpt lat="67.69801801167273" lon="24.140713976671357"/><trkpt lat="67.69804" lon="24.14067"/><trkpt lat="67.69804" lon="24.14067"/><trkpt lat="67.69856" lon="24.14136"/><trkpt lat="67.69899" lon="24.1421"/><trkpt lat="67.6991" lon="24.14273"/><trkpt lat="67.69915" lon="24.14334"/><trkpt lat="67.69926" lon="24.14425"/><trkpt lat="67.6993" lon="24.14534"/><trkpt lat="67.6993" lon="24.14534"/><trkpt lat="67.69914" lon="24.14557"/><trkpt lat="67.69873" lon="24.14584"/><trkpt lat="67.69851" lon="24.1459"/><trkpt lat="67.69825" lon="24.14582"/><trkpt lat="67.69784" lon="24.14604"/><trkpt lat="67.69753" lon="24.14634"/><trkpt lat="67.69724" lon="24.14643"/><trkpt lat="67.69672" lon="24.14696"/><trkpt lat="67.6965" lon="24.14739"/><trkpt lat="67.69626" lon="24.14795"/><trkpt lat="67.69626" lon="24.14795"/><trkpt lat="67.69626" lon="24.14795"/><trkpt lat="67.69622" lon="24.14806"/><trkpt lat="67.69561" lon="24.14883"/><trkpt lat="67.69543" lon="24.1489"/><trkpt lat="67.69527" lon="24.14928"/><trkpt lat="67.69505" lon="24.14938"/><trkpt lat="67.69448" lon="24.15021"/><trkpt lat="67.69425" lon="24.15091"/><trkpt lat="67.694" lon="24.15141"/><trkpt lat="67.69338" lon="24.15232"/><trkpt lat="67.69316" lon="24.15273"/><trkpt lat="67.69306" lon="24.1531"/><trkpt lat="67.69277" lon="24.15367"/><trkpt lat="67.69277" lon="24.15367"/><trkpt lat="67.69274" lon="24.15374"/><trkpt lat="67.69244" lon="24.1541"/><trkpt lat="67.69231" lon="24.15446"/><trkpt lat="67.69207" lon="24.15464"/><trkpt lat="67.69184" lon="24.15501"/><trkpt lat="67.69158" lon="24.15517"/><trkpt lat="67.69139" lon="24.15544"/><trkpt lat="67.69107" lon="24.1555"/><trkpt lat="67.68984" lon="24.15608"/><trkpt lat="67.68914" lon="24.15684"/><trkpt lat="67.68889" lon="24.15689"/><trkpt lat="67.68817" lon="24.1577"/><trkpt lat="67.68731" lon="24.1595"/><trkpt lat="67.68685" lon="24.16028"/><trkpt lat="67.68668" lon="24.16085"/><trkpt lat="67.68625" lon="24.16157"/><trkpt lat="67.68619079018535" lon="24.161730712354043"/><trkpt lat="67.68619079063957" lon="24.161730712354046"/><trkpt lat="67.68583" lon="24.16271"/><trkpt lat="67.6854" lon="24.16352"/><trkpt lat="67.68499" lon="24.16416"/><trkpt lat="67.68457" lon="24.16466"/><trkpt lat="67.68443" lon="24.16495"/><trkpt lat="67.68443" lon="24.16495"/><trkpt lat="67.6843" lon="24.16521"/><trkpt lat="67.68392" lon="24.16578"/><trkpt lat="67.68351" lon="24.16672"/><trkpt lat="67.68338" lon="24.1669"/><trkpt lat="67.68307" lon="24.16762"/><trkpt lat="67.68259" lon="24.16853"/><trkpt lat="67.68226" lon="24.16901"/><trkpt lat="67.68192" lon="24.1693"/><trkpt lat="67.68155" lon="24.16992"/><trkpt lat="67.68155" lon="24.16992"/><trkpt lat="67.68114" lon="24.17061"/><trkpt lat="67.68045" lon="24.17184"/><trkpt lat="67.68032" lon="24.17193"/><trkpt lat="67.68032" lon="24.17193"/><trkpt lat="67.68027" lon="24.17313"/><trkpt lat="67.68001" lon="24.17454"/><trkpt lat="67.67987" lon="24.1754"/><trkpt lat="67.67987" lon="24.1754"/><trkpt lat="67.67987" lon="24.1754"/><trkpt lat="67.67974" lon="24.17582"/><trkpt lat="67.67907" lon="24.17754"/><trkpt lat="67.67899" lon="24.17779"/><trkpt lat="67.67892" lon="24.17811"/><trkpt lat="67.67879" lon="24.17936"/><trkpt lat="67.67863" lon="24.18041"/><trkpt lat="67.67817" lon="24.182"/><trkpt lat="67.67803" lon="24.18274"/><trkpt lat="67.67798" lon="24.18344"/><trkpt lat="67.67789" lon="24.18359"/><trkpt lat="67.67772" lon="24.18377"/><trkpt lat="67.67734" lon="24.1839"/><trkpt lat="67.67734" lon="24.1839"/><trkpt lat="67.67708" lon="24.18398"/><trkpt lat="67.67683" lon="24.18398"/><trkpt lat="67.67658" lon="24.1841"/><trkpt lat="67.67645" lon="24.18433"/><trkpt lat="67.67631" lon="24.18471"/><trkpt lat="67.67608" lon="24.18521"/><trkpt lat="67.67608" lon="24.18521"/><trkpt lat="67.67597" lon="24.18564"/><trkpt lat="67.67576" lon="24.18602"/><trkpt lat="67.67561" lon="24.18694"/><trkpt lat="67.67553" lon="24.18783"/><trkpt lat="67.6755" lon="24.18878"/><trkpt lat="67.67544" lon="24.18939"/><trkpt lat="67.67536" lon="24.18973"/><trkpt lat="67.67522" lon="24.19007"/><trkpt lat="67.67516" lon="24.19029"/><trkpt lat="67.67508" lon="24.19077"/><trkpt lat="67.67508" lon="24.19129"/><trkpt lat="67.67503" lon="24.19169"/><trkpt lat="67.67498" lon="24.19189"/><trkpt lat="67.67498" lon="24.19189"/><trkpt lat="67.67497" lon="24.19195"/><trkpt lat="67.67497" lon="24.19195"/><trkpt lat="67.67537" lon="24.19257"/><trkpt lat="67.67608" lon="24.19321"/><trkpt lat="67.67608" lon="24.19321"/><trkpt lat="67.67645" lon="24.19353"/><trkpt lat="67.67645" lon="24.19353"/><trkpt lat="67.67688" lon="24.19382"/><trkpt lat="67.67731" lon="24.1944"/><trkpt lat="67.67777" lon="24.1951"/><trkpt lat="67.67851" lon="24.19684"/><trkpt lat="67.67871" lon="24.19743"/><trkpt lat="67.67891" lon="24.19832"/><trkpt lat="67.67894" lon="24.19861"/><trkpt lat="67.6789" lon="24.19899"/><trkpt lat="67.67881" lon="24.19937"/><trkpt lat="67.67877" lon="24.19967"/><trkpt lat="67.67872" lon="24.20049"/><trkpt lat="67.6787" lon="24.20107"/><trkpt lat="67.6787" lon="24.20335"/><trkpt lat="67.67877" lon="24.20376"/><trkpt lat="67.67877" lon="24.20422"/><trkpt lat="67.67875" lon="24.20482"/><trkpt lat="67.6785" lon="24.20572"/><trkpt lat="67.67844" lon="24.20609"/><trkpt lat="67.67838" lon="24.20702"/><trkpt lat="67.67838" lon="24.20702"/><trkpt lat="67.67815" lon="24.20714"/><trkpt lat="67.67792" lon="24.20748"/><trkpt lat="67.67759" lon="24.20779"/><trkpt lat="67.6773" lon="24.2083"/><trkpt lat="67.67692" lon="24.20884"/><trkpt lat="67.67664" lon="24.21021"/><trkpt lat="67.67644" lon="24.21085"/><trkpt lat="67.6764" lon="24.21141"/><trkpt lat="67.6762" lon="24.2122"/><trkpt lat="67.67608" lon="24.21228"/><trkpt lat="67.67608" lon="24.21228"/><trkpt lat="67.67556" lon="24.21263"/><trkpt lat="67.67501" lon="24.2131"/><trkpt lat="67.67476" lon="24.21356"/><trkpt lat="67.67476" lon="24.21356"/><trkpt lat="67.67474" lon="24.21361"/><trkpt lat="67.67474" lon="24.21361"/><trkpt lat="67.67474" lon="24.21361"/><trkpt lat="67.67433" lon="24.21387"/><trkpt lat="67.67433" lon="24.21387"/><trkpt lat="67.67413" lon="24.21465"/><trkpt lat="67.67413" lon="24.21465"/><trkpt lat="67.674" lon="24.21515"/><trkpt lat="67.674" lon="24.21515"/><trkpt lat="67.67392" lon="24.21548"/><trkpt lat="67.67379" lon="24.21628"/><trkpt lat="67.67379" lon="24.21628"/><trkpt lat="67.67367" lon="24.21713"/><trkpt lat="67.67367" lon="24.21713"/><trkpt lat="67.6735" lon="24.21799"/><trkpt lat="67.67196" lon="24.22032"/><trkpt lat="67.67148" lon="24.22052"/><trkpt lat="67.67125" lon="24.22092"/><trkpt lat="67.67049" lon="24.22308"/><trkpt lat="67.66976" lon="24.22633"/><trkpt lat="67.66944" lon="24.22696"/><trkpt lat="67.66774" lon="24.22755"/><trkpt lat="67.66774" lon="24.22755"/><trkpt lat="67.6652" lon="24.22843"/><trkpt lat="67.66517284117396" lon="24.228496716246575"/><trkpt lat="67.66517284142364" lon="24.22849671624658"/><trkpt lat="67.66474" lon="24.22956"/><trkpt lat="67.66444" lon="24.23048"/><trkpt lat="67.66422" lon="24.23152"/><trkpt lat="67.6641" lon="24.2323"/><trkpt lat="67.6641" lon="24.2323"/><trkpt lat="67.66391" lon="24.23403"/><trkpt lat="67.66385" lon="24.23538"/><trkpt lat="67.66379" lon="24.23584"/><trkpt lat="67.66379" lon="24.23584"/><trkpt lat="67.66371" lon="24.23653"/><trkpt lat="67.66349" lon="24.23741"/><trkpt lat="67.66346" lon="24.23787"/><trkpt lat="67.66332" lon="24.23811"/><trkpt lat="67.66307" lon="24.23897"/><trkpt lat="67.6629" lon="24.23933"/><trkpt lat="67.66275" lon="24.23975"/><trkpt lat="67.66252" lon="24.24023"/><trkpt lat="67.66243" lon="24.2409"/><trkpt lat="67.66246" lon="24.24161"/><trkpt lat="67.66241" lon="24.24186"/><trkpt lat="67.66241" lon="24.24186"/><trkpt lat="67.66241" lon="24.24186"/><trkpt lat="67.66231" lon="24.2422"/><trkpt lat="67.66231" lon="24.2422"/><trkpt lat="67.66225" lon="24.2427"/><trkpt lat="67.66212" lon="24.24329"/><trkpt lat="67.66197" lon="24.2439"/><trkpt lat="67.66192" lon="24.24415"/><trkpt lat="67.66192" lon="24.24415"/><trkpt lat="67.66195" lon="24.24464"/><trkpt lat="67.6617" lon="24.24624"/><trkpt lat="67.66145" lon="24.24686"/><trkpt lat="67.66059" lon="24.24868"/><trkpt lat="67.66059" lon="24.24868"/><trkpt lat="67.66025" lon="24.24916"/><trkpt lat="67.65993" lon="24.24965"/><trkpt lat="67.65944" lon="24.24991"/><trkpt lat="67.65939" lon="24.24997"/><trkpt lat="67.65939" lon="24.24997"/><trkpt lat="67.65919" lon="24.25017"/><trkpt lat="67.65919" lon="24.25017"/><trkpt lat="67.65919" lon="24.25017"/><trkpt lat="67.65886" lon="24.25111"/><trkpt lat="67.65886" lon="24.25111"/><trkpt lat="67.65875" lon="24.25095"/><trkpt lat="67.65834" lon="24.2502"/><trkpt lat="67.65817" lon="24.24998"/><trkpt lat="67.65807" lon="24.25"/><trkpt lat="67.65796" lon="24.25008"/><trkpt lat="67.65796" lon="24.25008"/><trkpt lat="67.65767" lon="24.25061"/><trkpt lat="67.65745" lon="24.25073"/><trkpt lat="67.6573" lon="24.25099"/><trkpt lat="67.6572" lon="24.25124"/><trkpt lat="67.6572" lon="24.25124"/><trkpt lat="67.6572" lon="24.25067"/><trkpt lat="67.65724" lon="24.25028"/><trkpt lat="67.65722" lon="24.24928"/><trkpt lat="67.65722" lon="24.24882"/><trkpt lat="67.65726" lon="24.24837"/><trkpt lat="67.65734" lon="24.24793"/><trkpt lat="67.65738" lon="24.24756"/><trkpt lat="67.65742" lon="24.24644"/><trkpt lat="67.65742" lon="24.2459"/><trkpt lat="67.65739" lon="24.24537"/><trkpt lat="67.65726" lon="24.24457"/><trkpt lat="67.65726" lon="24.24457"/><trkpt lat="67.65719" lon="24.24425"/><trkpt lat="67.65718" lon="24.244"/><trkpt lat="67.65718" lon="24.244"/><trkpt lat="67.65716" lon="24.24309"/><trkpt lat="67.65711" lon="24.24234"/><trkpt lat="67.65705" lon="24.24197"/><trkpt lat="67.65703" lon="24.24178"/><trkpt lat="67.65703" lon="24.24166"/><trkpt lat="67.65709" lon="24.24141"/><trkpt lat="67.65709" lon="24.24133"/><trkpt lat="67.65697" lon="24.24042"/><trkpt lat="67.65695" lon="24.24019"/><trkpt lat="67.65689" lon="24.23912"/><trkpt lat="67.65685" lon="24.23891"/><trkpt lat="67.65673" lon="24.23855"/><trkpt lat="67.65671" lon="24.23839"/><trkpt lat="67.65666" lon="24.23795"/><trkpt lat="67.65665" lon="24.23775"/><trkpt lat="67.6566" lon="24.2372"/><trkpt lat="67.65649" lon="24.23584"/><trkpt lat="67.65649" lon="24.23584"/><trkpt lat="67.65643" lon="24.23527"/><trkpt lat="67.65643" lon="24.23504"/><trkpt lat="67.65645" lon="24.23479"/><trkpt lat="67.65643" lon="24.23449"/><trkpt lat="67.65644" lon="24.23407"/><trkpt lat="67.65644" lon="24.23407"/><trkpt lat="67.65641" lon="24.23353"/><trkpt lat="67.65637" lon="24.23314"/><trkpt lat="67.65638" lon="24.23283"/><trkpt lat="67.65637" lon="24.2325"/><trkpt lat="67.65637" lon="24.2325"/><trkpt lat="67.65637" lon="24.23192"/><trkpt lat="67.65634" lon="24.23175"/><trkpt lat="67.65625" lon="24.23152"/><trkpt lat="67.65618" lon="24.23078"/><trkpt lat="67.65618" lon="24.23058"/><trkpt lat="67.65613" lon="24.22978"/><trkpt lat="67.65614" lon="24.22943"/><trkpt lat="67.65613" lon="24.22903"/><trkpt lat="67.65618" lon="24.22804"/><trkpt lat="67.65622" lon="24.22775"/><trkpt lat="67.6563" lon="24.22742"/><trkpt lat="67.65633" lon="24.22716"/><trkpt lat="67.65638" lon="24.22646"/><trkpt lat="67.65643" lon="24.22621"/><trkpt lat="67.65645" lon="24.22602"/><trkpt lat="67.65656" lon="24.22566"/><trkpt lat="67.65658" lon="24.22539"/><trkpt lat="67.65666" lon="24.22502"/><trkpt lat="67.65669" lon="24.22476"/><trkpt lat="67.65671" lon="24.22454"/><trkpt lat="67.65677" lon="24.22422"/><trkpt lat="67.65678" lon="24.22411"/><trkpt lat="67.65676" lon="24.22386"/><trkpt lat="67.65669" lon="24.2235"/><trkpt lat="67.65668" lon="24.22327"/><trkpt lat="67.65662" lon="24.22272"/><trkpt lat="67.65662" lon="24.22272"/><trkpt lat="67.65658" lon="24.22249"/><trkpt lat="67.65643" lon="24.22195"/><trkpt lat="67.6563" lon="24.22163"/><trkpt lat="67.65607" lon="24.22131"/><trkpt lat="67.65592" lon="24.2209"/><trkpt lat="67.65551" lon="24.2201"/><trkpt lat="67.65519" lon="24.21974"/><trkpt lat="67.65497" lon="24.21908"/><trkpt lat="67.65457" lon="24.21872"/><trkpt lat="67.65449" lon="24.21851"/><trkpt lat="67.6543" lon="24.21823"/><trkpt lat="67.65421" lon="24.21803"/><trkpt lat="67.65375" lon="24.21769"/><trkpt lat="67.65355" lon="24.21748"/><trkpt lat="67.6535194032714" lon="24.217469801090466"/><trkpt lat="67.65351940332948" lon="24.217469801090466"/><trkpt lat="67.65343" lon="24.21744"/><trkpt lat="67.65338878026644" lon="24.21736443048846"/><trkpt lat="67.65339" lon="24.21736"/><trkpt lat="67.65323" lon="24.21728"/><trkpt lat="67.65306" lon="24.21724"/><trkpt lat="67.65294" lon="24.21713"/><trkpt lat="67.65271" lon="24.21708"/><trkpt lat="67.65262" lon="24.21698"/><trkpt lat="67.65246" lon="24.21703"/><trkpt lat="67.65224" lon="24.21715"/><trkpt lat="67.6521" lon="24.21727"/><trkpt lat="67.65201" lon="24.21731"/><trkpt lat="67.65138" lon="24.21728"/><trkpt lat="67.65103" lon="24.21718"/><trkpt lat="67.65103" lon="24.21718"/><trkpt lat="67.65054" lon="24.21704"/><trkpt lat="67.65027" lon="24.2168"/><trkpt lat="67.65007" lon="24.21683"/><trkpt lat="67.64982" lon="24.21665"/><trkpt lat="67.64938" lon="24.21733"/><trkpt lat="67.64912" lon="24.21731"/><trkpt lat="67.64859" lon="24.21783"/><trkpt lat="67.64843" lon="24.21778"/><trkpt lat="67.64813" lon="24.21805"/><trkpt lat="67.64772" lon="24.21807"/><trkpt lat="67.64738" lon="24.21817"/><trkpt lat="67.6468" lon="24.21799"/><trkpt lat="67.6468" lon="24.21799"/><trkpt lat="67.64627" lon="24.21809"/><trkpt lat="67.64576" lon="24.21802"/><trkpt lat="67.64576" lon="24.21802"/><trkpt lat="67.64538" lon="24.21791"/><trkpt lat="67.64516" lon="24.2178"/><trkpt lat="67.64491" lon="24.21776"/><trkpt lat="67.64472" lon="24.21765"/><trkpt lat="67.64441" lon="24.21753"/><trkpt lat="67.64426" lon="24.21743"/><trkpt lat="67.64403" lon="24.21734"/><trkpt lat="67.64326" lon="24.21679"/><trkpt lat="67.64301" lon="24.21651"/><trkpt lat="67.64268" lon="24.21601"/><trkpt lat="67.64268" lon="24.21601"/><trkpt lat="67.64248" lon="24.21561"/><trkpt lat="67.64235" lon="24.21496"/><trkpt lat="67.6421" lon="24.21407"/><trkpt lat="67.642" lon="24.21387"/><trkpt lat="67.642" lon="24.21387"/><trkpt lat="67.64185" lon="24.21331"/><trkpt lat="67.64185" lon="24.21331"/><trkpt lat="67.64176" lon="24.21299"/><trkpt lat="67.64149" lon="24.21235"/><trkpt lat="67.64085" lon="24.21121"/><trkpt lat="67.64009" lon="24.20962"/><trkpt lat="67.63973" lon="24.20902"/><trkpt lat="67.63924" lon="24.20853"/><trkpt lat="67.63887" lon="24.20806"/><trkpt lat="67.63873" lon="24.20783"/><trkpt lat="67.63846" lon="24.20776"/><trkpt lat="67.63821" lon="24.20775"/><trkpt lat="67.63797" lon="24.20763"/><trkpt lat="67.63775" lon="24.20757"/><trkpt lat="67.63742" lon="24.20735"/><trkpt lat="67.63718" lon="24.2073"/><trkpt lat="67.63689" lon="24.20716"/><trkpt lat="67.63646" lon="24.20717"/><trkpt lat="67.63609" lon="24.20695"/><trkpt lat="67.63582" lon="24.20694"/><trkpt lat="67.63561" lon="24.20684"/><trkpt lat="67.63531" lon="24.2068"/><trkpt lat="67.63432" lon="24.20706"/><trkpt lat="67.63432" lon="24.20706"/><trkpt lat="67.63397" lon="24.20703"/><trkpt lat="67.63397" lon="24.20703"/><trkpt lat="67.63376" lon="24.20688"/><trkpt lat="67.63325" lon="24.207"/><trkpt lat="67.63244" lon="24.20683"/><trkpt lat="67.63197" lon="24.20661"/><trkpt lat="67.63169" lon="24.20636"/><trkpt lat="67.6315" lon="24.20625"/><trkpt lat="67.63116" lon="24.20583"/><trkpt lat="67.63071" lon="24.20534"/><trkpt lat="67.63051" lon="24.20522"/><trkpt lat="67.63008" lon="24.20525"/><trkpt lat="67.62979" lon="24.20516"/><trkpt lat="67.62943" lon="24.20486"/><trkpt lat="67.62917" lon="24.20485"/><trkpt lat="67.62817" lon="24.20416"/><trkpt lat="67.6278" lon="24.20402"/><trkpt lat="67.6278" lon="24.20402"/><trkpt lat="67.6277" lon="24.20395"/><trkpt lat="67.62755" lon="24.20359"/><trkpt lat="67.62713" lon="24.20168"/><trkpt lat="67.6267" lon="24.20005"/><trkpt lat="67.62653" lon="24.1995"/><trkpt lat="67.62642" lon="24.199"/><trkpt lat="67.62631" lon="24.19812"/><trkpt lat="67.62614" lon="24.19654"/><trkpt lat="67.62602" lon="24.19515"/><trkpt lat="67.62601" lon="24.19393"/><trkpt lat="67.62598" lon="24.19344"/><trkpt lat="67.62595" lon="24.19313"/><trkpt lat="67.62595" lon="24.19313"/><trkpt lat="67.62588" lon="24.19224"/><trkpt lat="67.62586" lon="24.19189"/><trkpt lat="67.62586" lon="24.19189"/><trkpt lat="67.62583" lon="24.19101"/><trkpt lat="67.62577" lon="24.19028"/><trkpt lat="67.62561074996319" lon="24.189469901986662"/><trkpt lat="67.62561075020203" lon="24.189469901986662"/><trkpt lat="67.62554" lon="24.18911"/><trkpt lat="67.62536" lon="24.18767"/><trkpt lat="67.6253" lon="24.1873"/><trkpt lat="67.62505" lon="24.18633"/><trkpt lat="67.62488" lon="24.18519"/><trkpt lat="67.62468" lon="24.18409"/><trkpt lat="67.62461" lon="24.18364"/><trkpt lat="67.62461" lon="24.18364"/><trkpt lat="67.62456" lon="24.18332"/><trkpt lat="67.62457" lon="24.18289"/><trkpt lat="67.62451" lon="24.18249"/><trkpt lat="67.62451" lon="24.18249"/><trkpt lat="67.62434" lon="24.18263"/><trkpt lat="67.6243" lon="24.18263"/><trkpt lat="67.6243" lon="24.18263"/><trkpt lat="67.62422" lon="24.18265"/><trkpt lat="67.62422" lon="24.18265"/><trkpt lat="67.62418" lon="24.18265"/><trkpt lat="67.62418" lon="24.18265"/><trkpt lat="67.62394" lon="24.18271"/><trkpt lat="67.62366" lon="24.18271"/><trkpt lat="67.62345" lon="24.18259"/><trkpt lat="67.62313" lon="24.18233"/><trkpt lat="67.62234" lon="24.18118"/><trkpt lat="67.6221" lon="24.18094"/><trkpt lat="67.62186" lon="24.18077"/><trkpt lat="67.62186" lon="24.18077"/><trkpt lat="67.62161" lon="24.18079"/><trkpt lat="67.62144" lon="24.18084"/><trkpt lat="67.62129" lon="24.18097"/><trkpt lat="67.62085" lon="24.18145"/><trkpt lat="67.62038" lon="24.18174"/><trkpt lat="67.62038" lon="24.18174"/><trkpt lat="67.62001" lon="24.18192"/><trkpt lat="67.61978" lon="24.18218"/><trkpt lat="67.61953" lon="24.18268"/><trkpt lat="67.61927" lon="24.18343"/><trkpt lat="67.61914" lon="24.18365"/><trkpt lat="67.61867" lon="24.18399"/><trkpt lat="67.61858" lon="24.18409"/><trkpt lat="67.61847" lon="24.18414"/><trkpt lat="67.61829" lon="24.18405"/><trkpt lat="67.61808" lon="24.18408"/><trkpt lat="67.61759" lon="24.18379"/><trkpt lat="67.61759" lon="24.18379"/><trkpt lat="67.61665" lon="24.18293"/><trkpt lat="67.61622" lon="24.18215"/><trkpt lat="67.61608" lon="24.18182"/><trkpt lat="67.6159" lon="24.18153"/><trkpt lat="67.61577681259548" lon="24.18137529908022"/><trkpt lat="67.61577681259548" lon="24.18137529908022"/><trkpt lat="67.61547" lon="24.18099"/><trkpt lat="67.61524" lon="24.18086"/><trkpt lat="67.61497" lon="24.18076"/><trkpt lat="67.61471" lon="24.18073"/><trkpt lat="67.61447" lon="24.18056"/><trkpt lat="67.61447" lon="24.18056"/><trkpt lat="67.61416" lon="24.18029"/><trkpt lat="67.61416" lon="24.18029"/><trkpt lat="67.61398" lon="24.18013"/><trkpt lat="67.61374" lon="24.17984"/><trkpt lat="67.61345" lon="24.17959"/><trkpt lat="67.61336" lon="24.17942"/><trkpt lat="67.61326" lon="24.17931"/><trkpt lat="67.61326" lon="24.17931"/><trkpt lat="67.61292" lon="24.179"/><trkpt lat="67.61292" lon="24.179"/><trkpt lat="67.61292" lon="24.179"/><trkpt lat="67.61271" lon="24.17868"/><trkpt lat="67.61242" lon="24.17849"/><trkpt lat="67.61215" lon="24.17843"/><trkpt lat="67.61215" lon="24.17843"/><trkpt lat="67.61170000733352" lon="24.17857016165021"/><trkpt lat="67.61170000733352" lon="24.17857016165021"/><trkpt lat="67.61154" lon="24.17862"/><trkpt lat="67.61115992230066" lon="24.178798860093814"/><trkpt lat="67.61115992230066" lon="24.178798860093814"/><trkpt lat="67.61082962451655" lon="24.178954294345157"/><trkpt lat="67.61082962451655" lon="24.178954294345157"/><trkpt lat="67.61069983143553" lon="24.17901537344211"/><trkpt lat="67.61068058208602" lon="24.17901806101771"/><trkpt lat="67.61035" lon="24.17895"/><trkpt lat="67.61035" lon="24.17895"/><trkpt lat="67.61024" lon="24.17893"/><trkpt lat="67.60979" lon="24.17893"/><trkpt lat="67.60979" lon="24.17893"/><trkpt lat="67.60979" lon="24.17893"/><trkpt lat="67.60942" lon="24.17909"/><trkpt lat="67.60922" lon="24.17944"/><trkpt lat="67.60922" lon="24.17944"/><trkpt lat="67.60917587790978" lon="24.179502653368104"/><trkpt lat="67.60917587790978" lon="24.179502653368104"/><trkpt lat="67.60895827225043" lon="24.17981165340439"/><trkpt lat="67.60895827225043" lon="24.17981165340439"/><trkpt lat="67.6088788310933" lon="24.179924459847502"/><trkpt lat="67.6088788310933" lon="24.179924459847502"/><trkpt lat="67.6085595552097" lon="24.180377831602243"/><trkpt lat="67.60856" lon="24.18038"/><trkpt lat="67.60848" lon="24.17972"/><trkpt lat="67.60848" lon="24.17972"/><trkpt lat="67.60822" lon="24.17959"/><trkpt lat="67.60782" lon="24.17928"/><trkpt lat="67.60766000000146" lon="24.17898000004277"/><trkpt lat="67.60766000000146" lon="24.17898000004277"/><trkpt lat="67.60766" lon="24.17898"/><trkpt lat="67.60756" lon="24.17867"/><trkpt lat="67.60755945897687" lon="24.178658094061156"/><trkpt lat="67.6075" lon="24.17868"/><trkpt lat="67.6075" lon="24.17868"/><trkpt lat="67.6075" lon="24.17868"/><trkpt lat="67.60742" lon="24.17839"/><trkpt lat="67.60742" lon="24.17839"/><trkpt lat="67.60742" lon="24.17839"/><trkpt lat="67.60724000061651" lon="24.177940001541284"/><trkpt lat="67.60724000061651" lon="24.177940001541284"/><trkpt lat="67.6069" lon="24.17709"/><trkpt lat="67.60655" lon="24.17638"/><trkpt lat="67.60653" lon="24.17621"/><trkpt lat="67.60653" lon="24.17621"/><trkpt lat="67.60647184218048" lon="24.176247632094874"/><trkpt lat="67.60647184218048" lon="24.176247632094874"/><trkpt lat="67.60636" lon="24.17632"/><trkpt lat="67.60636" lon="24.17632"/><trkpt lat="67.60629" lon="24.17637"/><trkpt lat="67.60629" lon="24.17637"/><trkpt lat="67.60621" lon="24.17644"/><trkpt lat="67.60621" lon="24.17644"/><trkpt lat="67.60597" lon="24.17716"/><trkpt lat="67.60597" lon="24.17716"/><trkpt lat="67.60579868827378" lon="24.177372100232475"/><trkpt lat="67.60579868827378" lon="24.177372100232475"/><trkpt lat="67.60576" lon="24.17742"/><trkpt lat="67.60543974125648" lon="24.177491168609677"/><trkpt lat="67.60543974125648" lon="24.177491168609677"/><trkpt lat="67.60531" lon="24.17752"/><trkpt lat="67.60531" lon="24.17752"/><trkpt lat="67.60531" lon="24.17752"/><trkpt lat="67.60515037521739" lon="24.17747113527063"/><trkpt lat="67.60515037521739" lon="24.17747113527063"/><trkpt lat="67.60482" lon="24.17737"/><trkpt lat="67.60471" lon="24.1773"/><trkpt lat="67.60457" lon="24.17707"/><trkpt lat="67.60455901337164" lon="24.177042533429116"/><trkpt lat="67.60455901337164" lon="24.177042533429116"/><trkpt lat="67.60451" lon="24.17692"/><trkpt lat="67.60449279590576" lon="24.17687194718503"/><trkpt lat="67.60449279590576" lon="24.17687194718503"/><trkpt lat="67.60423247341967" lon="24.176144839551487"/><trkpt lat="67.60423" lon="24.17615"/><trkpt lat="67.60421845079088" lon="24.17610678286077"/><trkpt lat="67.60421845079088" lon="24.17610678286077"/><trkpt lat="67.60402971149506" lon="24.175400533336358"/><trkpt lat="67.60402971149506" lon="24.175400533336358"/><trkpt lat="67.60392" lon="24.17499"/><trkpt lat="67.60392" lon="24.17499"/><trkpt lat="67.60385" lon="24.17466"/><trkpt lat="67.60378" lon="24.17416"/><trkpt lat="67.60379" lon="24.17376"/><trkpt lat="67.60379" lon="24.17376"/><trkpt lat="67.60374" lon="24.1737"/><trkpt lat="67.60369" lon="24.17357"/><trkpt lat="67.60369" lon="24.17357"/><trkpt lat="67.6037" lon="24.17328"/><trkpt lat="67.60369" lon="24.17277"/><trkpt lat="67.60369" lon="24.17277"/><trkpt lat="67.60369" lon="24.17277"/><trkpt lat="67.60366" lon="24.17172"/><trkpt lat="67.60366" lon="24.17172"/><trkpt lat="67.60365" lon="24.171"/><trkpt lat="67.60365" lon="24.171"/><trkpt lat="67.60366110846202" lon="24.170400143050916"/><trkpt lat="67.60366110846202" lon="24.170400143050916"/><trkpt lat="67.60367" lon="24.16992"/><trkpt lat="67.60367" lon="24.16992"/><trkpt lat="67.60369351965088" lon="24.16950135021429"/><trkpt lat="67.60369351965088" lon="24.16950135021429"/><trkpt lat="67.60371098914923" lon="24.169190393143552"/><trkpt lat="67.60371098914923" lon="24.169190393143552"/><trkpt lat="67.60372" lon="24.16903"/><trkpt lat="67.6037" lon="24.16851"/><trkpt lat="67.60367" lon="24.1682"/><trkpt lat="67.60359" lon="24.16775"/><trkpt lat="67.60354" lon="24.1676"/><trkpt lat="67.60354" lon="24.1676"/><trkpt lat="67.60354" lon="24.1676"/><trkpt lat="67.60355855224329" lon="24.167470129910534"/><trkpt lat="67.60355469519631" lon="24.167455252752422"/><trkpt lat="67.60355108602324" lon="24.167441331677885"/><trkpt lat="67.60355108602324" lon="24.167441331677885"/><trkpt lat="67.60353" lon="24.16736"/><trkpt lat="67.60353" lon="24.16736"/><trkpt lat="67.60352" lon="24.16702"/><trkpt lat="67.60355474007966" lon="24.16667756285277"/><trkpt lat="67.60355474007966" lon="24.16667756285277"/><trkpt lat="67.60348" lon="24.16663"/><trkpt lat="67.60348112158006" lon="24.166631027359486"/><trkpt lat="67.60349" lon="24.16656"/><trkpt lat="67.60349760803508" lon="24.16647821362284"/><trkpt lat="67.60349760803508" lon="24.16647821362284"/><trkpt lat="67.60366073099716" lon="24.16472464178055"/><trkpt lat="67.60366432415007" lon="24.164686015386646"/><trkpt lat="67.60377" lon="24.16355"/><trkpt lat="67.60377" lon="24.16355"/><trkpt lat="67.60377" lon="24.16355"/><trkpt lat="67.60382602336136" lon="24.162877719663705"/><trkpt lat="67.60382602336136" lon="24.162877719663705"/><trkpt lat="67.60384841022439" lon="24.16260907730736"/><trkpt lat="67.60384841022439" lon="24.16260907730736"/><trkpt lat="67.60388" lon="24.16223"/><trkpt lat="67.60402" lon="24.1604"/><trkpt lat="67.60403000000629" lon="24.160149999842908"/><trkpt lat="67.60403000000629" lon="24.160149999842908"/><trkpt lat="67.60406" lon="24.1594"/><trkpt lat="67.60405" lon="24.15873"/><trkpt lat="67.60403" lon="24.15793"/><trkpt lat="67.60397972207717" lon="24.156740089159747"/><trkpt lat="67.60397972207717" lon="24.156740089159747"/><trkpt lat="67.60397837305017" lon="24.15670816218724"/><trkpt lat="67.60397680207683" lon="24.156670982484904"/><trkpt lat="67.60397" lon="24.15651"/><trkpt lat="67.60396998050471" lon="24.156508465793678"/><trkpt lat="67.60396998050471" lon="24.156508465793678"/><trkpt lat="67.60395" lon="24.15493"/><trkpt lat="67.60395" lon="24.15452"/><trkpt lat="67.60395" lon="24.15452"/><trkpt lat="67.60395" lon="24.15452"/><trkpt lat="67.60399" lon="24.15362"/><trkpt lat="67.60403" lon="24.15301"/><trkpt lat="67.60403" lon="24.15301"/><trkpt lat="67.60403" lon="24.15301"/><trkpt lat="67.60421" lon="24.15145"/><trkpt lat="67.60441" lon="24.15027"/><trkpt lat="67.60441" lon="24.15027"/><trkpt lat="67.60441" lon="24.15027"/><trkpt lat="67.60445141211854" lon="24.15009284815961"/></trkseg></trk></gpx>