<?xml version="1.0"?>
<gpx xmlns="http://www.topografix.com/GPX/1/1" xmlns:gpxx="http://www.garmin.com/xmlschemas/GpxExtensions/v3" creator="CALTOPO" version="1.1"><metadata><name><![CDATA[sioskuru-suaskuru]]></name></metadata><trk><name>sioskuru-suaskuru</name><trkseg><trkpt lat="68.29777633209508" lon="23.8170801228451"/><trkpt lat="68.29769" lon="23.81719"/><trkpt lat="68.29769" lon="23.81719"/><trkpt lat="68.29753" lon="23.81736"/><trkpt lat="68.29753" lon="23.81736"/><trkpt lat="68.29751" lon="23.81739"/><trkpt lat="68.29751" lon="23.81739"/><trkpt lat="68.29741" lon="23.81745"/><trkpt lat="68.29731" lon="23.81743"/><trkpt lat="68.29713" lon="23.81732"/><trkpt lat="68.2971" lon="23.81733"/><trkpt lat="68.29706" lon="23.8174"/><trkpt lat="68.29706" lon="23.8174"/><trkpt lat="68.29698" lon="23.81756"/><trkpt lat="68.29698" lon="23.81756"/><trkpt lat="68.29695" lon="23.81764"/><trkpt lat="68.29683" lon="23.81777"/><trkpt lat="68.29679" lon="23.81797"/><trkpt lat="68.29667" lon="23.81819"/><trkpt lat="68.29652" lon="23.81828"/><trkpt lat="68.29639" lon="23.81828"/><trkpt lat="68.29632" lon="23.81836"/><trkpt lat="68.29632" lon="23.81836"/><trkpt lat="68.29627" lon="23.81845"/><trkpt lat="68.29614" lon="23.81855"/><trkpt lat="68.2960473157579" lon="23.818678727511827"/><trkpt lat="68.2960473157579" lon="23.818678727511827"/><trkpt lat="68.29596" lon="23.8188"/><trkpt lat="68.29581" lon="23.81889"/><trkpt lat="68.29581" lon="23.81889"/><trkpt lat="68.29581" lon="23.81889"/><trkpt lat="68.29564120379057" lon="23.81912631469322"/><trkpt lat="68.29564120379057" lon="23.81912631469322"/><trkpt lat="68.29541" lon="23.81945"/><trkpt lat="68.29535948415877" lon="23.819506743821663"/><trkpt lat="68.29535948415877" lon="23.819506743821663"/><trkpt lat="68.29468" lon="23.82027"/><trkpt lat="68.29468" lon="23.82027"/><trkpt lat="68.29428" lon="23.8208"/><trkpt lat="68.29403" lon="23.82104"/><trkpt lat="68.29399" lon="23.82112"/><trkpt lat="68.29399" lon="23.82112"/><trkpt lat="68.29399" lon="23.82112"/><trkpt lat="68.29396" lon="23.82118"/><trkpt lat="68.29378" lon="23.82141"/><trkpt lat="68.29378" lon="23.82141"/><trkpt lat="68.29361" lon="23.82164"/><trkpt lat="68.29348" lon="23.82173"/><trkpt lat="68.29348" lon="23.82173"/><trkpt lat="68.29294" lon="23.82217"/><trkpt lat="68.29278823544054" lon="23.822524117305413"/><trkpt lat="68.29278823544054" lon="23.822524117305413"/><trkpt lat="68.29276" lon="23.82259"/><trkpt lat="68.29265" lon="23.82278"/><trkpt lat="68.29245" lon="23.82294"/><trkpt lat="68.29214" lon="23.82334"/><trkpt lat="68.29176" lon="23.82379"/><trkpt lat="68.29116" lon="23.82476"/><trkpt lat="68.29093" lon="23.82498"/><trkpt lat="68.29008" lon="23.8264"/><trkpt lat="68.2897" lon="23.82677"/><trkpt lat="68.28947" lon="23.82712"/><trkpt lat="68.28928" lon="23.82752"/><trkpt lat="68.28881" lon="23.8284"/><trkpt lat="68.28852" lon="23.8291"/><trkpt lat="68.28829" lon="23.82958"/><trkpt lat="68.28789" lon="23.83033"/><trkpt lat="68.28774" lon="23.83055"/><trkpt lat="68.28738" lon="23.83121"/><trkpt lat="68.28711" lon="23.83184"/><trkpt lat="68.28692" lon="23.83201"/><trkpt lat="68.2865" lon="23.83376"/><trkpt lat="68.28565" lon="23.83553"/><trkpt lat="68.28565" lon="23.83553"/><trkpt lat="68.28522" lon="23.83637"/><trkpt lat="68.28493" lon="23.83654"/><trkpt lat="68.28478" lon="23.83675"/><trkpt lat="68.284" lon="23.83839"/><trkpt lat="68.28362" lon="23.83895"/><trkpt lat="68.28338" lon="23.83957"/><trkpt lat="68.28316" lon="23.83981"/><trkpt lat="68.28274" lon="23.84033"/><trkpt lat="68.28274" lon="23.84033"/><trkpt lat="68.28253" lon="23.84059"/><trkpt lat="68.28184" lon="23.84169"/><trkpt lat="68.28184" lon="23.84169"/><trkpt lat="68.2814" lon="23.84239"/><trkpt lat="68.28128" lon="23.8427"/><trkpt lat="68.28092" lon="23.84286"/><trkpt lat="68.28036" lon="23.84368"/><trkpt lat="68.2797" lon="23.84508"/><trkpt lat="68.27935" lon="23.84565"/><trkpt lat="68.27891" lon="23.84619"/><trkpt lat="68.27843" lon="23.84654"/><trkpt lat="68.27814" lon="23.84697"/><trkpt lat="68.27788" lon="23.84724"/><trkpt lat="68.27782" lon="23.84725"/><trkpt lat="68.2778" lon="23.84733"/><trkpt lat="68.27768" lon="23.84744"/><trkpt lat="68.27752" lon="23.8473"/><trkpt lat="68.27752" lon="23.8473"/><trkpt lat="68.27713" lon="23.84696"/><trkpt lat="68.27665" lon="23.84716"/><trkpt lat="68.27646" lon="23.84743"/><trkpt lat="68.27628" lon="23.84791"/><trkpt lat="68.27628" lon="23.84791"/><trkpt lat="68.27624" lon="23.84802"/><trkpt lat="68.27624" lon="23.84802"/><trkpt lat="68.27606" lon="23.84849"/><trkpt lat="68.27512" lon="23.84996"/><trkpt lat="68.27505" lon="23.85021"/><trkpt lat="68.27501" lon="23.8506"/><trkpt lat="68.27497" lon="23.85087"/><trkpt lat="68.27497" lon="23.85087"/><trkpt lat="68.27486" lon="23.85138"/><trkpt lat="68.27481" lon="23.85174"/><trkpt lat="68.27479" lon="23.85207"/><trkpt lat="68.27474" lon="23.85223"/><trkpt lat="68.27474" lon="23.85223"/><trkpt lat="68.27423" lon="23.85321"/><trkpt lat="68.27423" lon="23.85321"/><trkpt lat="68.27396" lon="23.85386"/><trkpt lat="68.27366" lon="23.85451"/><trkpt lat="68.27366" lon="23.85451"/><trkpt lat="68.27356" lon="23.85491"/><trkpt lat="68.2734" lon="23.85527"/><trkpt lat="68.27267" lon="23.85669"/><trkpt lat="68.27244" lon="23.85697"/><trkpt lat="68.27208" lon="23.85751"/><trkpt lat="68.27208" lon="23.85751"/><trkpt lat="68.27174" lon="23.85831"/><trkpt lat="68.27165" lon="23.85843"/><trkpt lat="68.27129" lon="23.85938"/><trkpt lat="68.27108" lon="23.85979"/><trkpt lat="68.27108" lon="23.85979"/><trkpt lat="68.27082" lon="23.86053"/><trkpt lat="68.27044" lon="23.86126"/><trkpt lat="68.27037" lon="23.86164"/><trkpt lat="68.27003" lon="23.8623"/><trkpt lat="68.27003" lon="23.8623"/><trkpt lat="68.26951" lon="23.86351"/><trkpt lat="68.26939" lon="23.86371"/><trkpt lat="68.26939" lon="23.86371"/><trkpt lat="68.26914" lon="23.86413"/><trkpt lat="68.26849" lon="23.86581"/><trkpt lat="68.26849" lon="23.86581"/><trkpt lat="68.26849" lon="23.86581"/><trkpt lat="68.2682" lon="23.86647"/><trkpt lat="68.26794" lon="23.86721"/><trkpt lat="68.26746" lon="23.86803"/><trkpt lat="68.267" lon="23.86918"/><trkpt lat="68.2669" lon="23.86953"/><trkpt lat="68.26632" lon="23.87101"/><trkpt lat="68.26577" lon="23.87232"/><trkpt lat="68.26559" lon="23.87277"/><trkpt lat="68.26508" lon="23.87377"/><trkpt lat="68.26492" lon="23.87411"/><trkpt lat="68.26484" lon="23.87437"/><trkpt lat="68.26472" lon="23.87456"/><trkpt lat="68.26466" lon="23.8747"/><trkpt lat="68.26466" lon="23.8747"/><trkpt lat="68.26461" lon="23.87476"/><trkpt lat="68.26452" lon="23.87498"/><trkpt lat="68.26439" lon="23.87521"/><trkpt lat="68.26429" lon="23.8755"/><trkpt lat="68.26415" lon="23.87574"/><trkpt lat="68.26412" lon="23.8759"/><trkpt lat="68.2641" lon="23.87607"/><trkpt lat="68.26405" lon="23.87622"/><trkpt lat="68.26373" lon="23.87664"/><trkpt lat="68.26363" lon="23.87684"/><trkpt lat="68.26352" lon="23.87715"/><trkpt lat="68.26333" lon="23.87736"/><trkpt lat="68.26308" lon="23.87776"/><trkpt lat="68.26293" lon="23.8781"/><trkpt lat="68.26257" lon="23.87857"/><trkpt lat="68.26243" lon="23.87882"/><trkpt lat="68.26231" lon="23.8791"/><trkpt lat="68.26211" lon="23.87937"/><trkpt lat="68.26194" lon="23.87969"/><trkpt lat="68.26162" lon="23.88009"/><trkpt lat="68.26138" lon="23.88054"/><trkpt lat="68.26125" lon="23.88066"/><trkpt lat="68.26125" lon="23.88066"/><trkpt lat="68.26115" lon="23.88087"/><trkpt lat="68.261" lon="23.88103"/><trkpt lat="68.26095727662566" lon="23.881158170122994"/><trkpt lat="68.26095727666052" lon="23.881158170122994"/><trkpt lat="68.26092" lon="23.88127"/><trkpt lat="68.26076" lon="23.88154"/><trkpt lat="68.26055" lon="23.88166"/><trkpt lat="68.26006" lon="23.88237"/><trkpt lat="68.25972" lon="23.88262"/><trkpt lat="68.25961" lon="23.88287"/><trkpt lat="68.25898" lon="23.88369"/><trkpt lat="68.25822" lon="23.8838"/><trkpt lat="68.25788" lon="23.88395"/><trkpt lat="68.2576" lon="23.88402"/><trkpt lat="68.25729" lon="23.8842"/><trkpt lat="68.25675" lon="23.88418"/><trkpt lat="68.25639" lon="23.88409"/><trkpt lat="68.25611" lon="23.88416"/><trkpt lat="68.25553" lon="23.88406"/><trkpt lat="68.25543" lon="23.88415"/><trkpt lat="68.25517" lon="23.88421"/><trkpt lat="68.25509" lon="23.88428"/><trkpt lat="68.25509" lon="23.88428"/><trkpt lat="68.25497" lon="23.88437"/><trkpt lat="68.25466" lon="23.88438"/><trkpt lat="68.25446" lon="23.88428"/><trkpt lat="68.25446" lon="23.88428"/><trkpt lat="68.25311" lon="23.88361"/><trkpt lat="68.25311" lon="23.88361"/><trkpt lat="68.25272" lon="23.88341"/><trkpt lat="68.25209" lon="23.88289"/><trkpt lat="68.25118" lon="23.88262"/><trkpt lat="68.25073" lon="23.88254"/><trkpt lat="68.2505" lon="23.88242"/><trkpt lat="68.25027" lon="23.88235"/><trkpt lat="68.24972" lon="23.88207"/><trkpt lat="68.24934" lon="23.88194"/><trkpt lat="68.2491" lon="23.88179"/><trkpt lat="68.24878" lon="23.88179"/><trkpt lat="68.24828" lon="23.88194"/><trkpt lat="68.2475" lon="23.88196"/><trkpt lat="68.24733" lon="23.88201"/><trkpt lat="68.24619" lon="23.88222"/><trkpt lat="68.24595" lon="23.88207"/><trkpt lat="68.24583" lon="23.88221"/><trkpt lat="68.24572" lon="23.88218"/><trkpt lat="68.24531" lon="23.88195"/><trkpt lat="68.24497" lon="23.88195"/><trkpt lat="68.24497" lon="23.88195"/><trkpt lat="68.2446" lon="23.88216"/><trkpt lat="68.24422" lon="23.88219"/><trkpt lat="68.24407" lon="23.88247"/><trkpt lat="68.24396" lon="23.88251"/><trkpt lat="68.2439" lon="23.8824"/><trkpt lat="68.24384" lon="23.88235"/><trkpt lat="68.24338" lon="23.88246"/><trkpt lat="68.24338" lon="23.88246"/><trkpt lat="68.24326" lon="23.88254"/><trkpt lat="68.24312" lon="23.88238"/><trkpt lat="68.24307" lon="23.88237"/><trkpt lat="68.24294" lon="23.88243"/><trkpt lat="68.24284" lon="23.88253"/><trkpt lat="68.24281" lon="23.88253"/><trkpt lat="68.24259" lon="23.88235"/><trkpt lat="68.24252" lon="23.88234"/><trkpt lat="68.24242" lon="23.88236"/><trkpt lat="68.24236" lon="23.88231"/><trkpt lat="68.24208" lon="23.88226"/><trkpt lat="68.24191" lon="23.88227"/><trkpt lat="68.24172" lon="23.88251"/><trkpt lat="68.24155" lon="23.88264"/><trkpt lat="68.24136" lon="23.88272"/><trkpt lat="68.24115" lon="23.88266"/><trkpt lat="68.24105" lon="23.88273"/><trkpt lat="68.24097" lon="23.88264"/><trkpt lat="68.24092" lon="23.88264"/><trkpt lat="68.24069" lon="23.88278"/><trkpt lat="68.23995" lon="23.88291"/><trkpt lat="68.23983" lon="23.88302"/><trkpt lat="68.23973" lon="23.88323"/><trkpt lat="68.23963" lon="23.88329"/><trkpt lat="68.23954" lon="23.8835"/><trkpt lat="68.23937" lon="23.8837"/><trkpt lat="68.23918" lon="23.88407"/><trkpt lat="68.23899" lon="23.88428"/><trkpt lat="68.23899" lon="23.88428"/><trkpt lat="68.23879" lon="23.88448"/><trkpt lat="68.2386" lon="23.88465"/><trkpt lat="68.2386" lon="23.88465"/><trkpt lat="68.23856" lon="23.88467"/><trkpt lat="68.23814" lon="23.88528"/><trkpt lat="68.23792" lon="23.88548"/><trkpt lat="68.23778" lon="23.88578"/><trkpt lat="68.23714" lon="23.88648"/><trkpt lat="68.23682" lon="23.88691"/><trkpt lat="68.23682" lon="23.88691"/><trkpt lat="68.23632" lon="23.88755"/><trkpt lat="68.23542" lon="23.88852"/><trkpt lat="68.23505" lon="23.88897"/><trkpt lat="68.23482" lon="23.88939"/><trkpt lat="68.23462" lon="23.8899"/><trkpt lat="68.23387" lon="23.89161"/><trkpt lat="68.23361" lon="23.89239"/><trkpt lat="68.23346" lon="23.89269"/><trkpt lat="68.23331" lon="23.89318"/><trkpt lat="68.2327" lon="23.89475"/><trkpt lat="68.23259" lon="23.89514"/><trkpt lat="68.23215" lon="23.89648"/><trkpt lat="68.23189" lon="23.89755"/><trkpt lat="68.23145" lon="23.89882"/><trkpt lat="68.2309" lon="23.90055"/><trkpt lat="68.23012" lon="23.90238"/><trkpt lat="68.22918" lon="23.9042"/><trkpt lat="68.22867" lon="23.90506"/><trkpt lat="68.22867" lon="23.90506"/><trkpt lat="68.22839" lon="23.90554"/><trkpt lat="68.22812" lon="23.90625"/><trkpt lat="68.22812" lon="23.90625"/><trkpt lat="68.22788" lon="23.9069"/><trkpt lat="68.22724" lon="23.90811"/><trkpt lat="68.22684" lon="23.90949"/><trkpt lat="68.22666" lon="23.9102"/><trkpt lat="68.22633" lon="23.91164"/><trkpt lat="68.22587" lon="23.91428"/><trkpt lat="68.2257" lon="23.91532"/><trkpt lat="68.22556" lon="23.91605"/><trkpt lat="68.22543" lon="23.91687"/><trkpt lat="68.22543" lon="23.91687"/><trkpt lat="68.22534" lon="23.91751"/><trkpt lat="68.22529" lon="23.91808"/><trkpt lat="68.22526230936197" lon="23.918557663506284"/><trkpt lat="68.2252623093694" lon="23.918557663506284"/><trkpt lat="68.22525" lon="23.91877"/><trkpt lat="68.22525" lon="23.91877"/><trkpt lat="68.22518" lon="23.91908"/><trkpt lat="68.22518" lon="23.91908"/><trkpt lat="68.2253" lon="23.9195"/><trkpt lat="68.2253" lon="23.9195"/><trkpt lat="68.22532" lon="23.91968"/><trkpt lat="68.22539" lon="23.92006"/><trkpt lat="68.22543" lon="23.92056"/><trkpt lat="68.22548" lon="23.92096"/><trkpt lat="68.22549" lon="23.92124"/><trkpt lat="68.22548" lon="23.92164"/><trkpt lat="68.22551" lon="23.92211"/><trkpt lat="68.22556" lon="23.92224"/><trkpt lat="68.22559" lon="23.92251"/><trkpt lat="68.2256" lon="23.9229"/><trkpt lat="68.22565" lon="23.92337"/><trkpt lat="68.22567" lon="23.92384"/><trkpt lat="68.22554" lon="23.92475"/><trkpt lat="68.22537" lon="23.92633"/><trkpt lat="68.22499" lon="23.92738"/><trkpt lat="68.2249" lon="23.92822"/><trkpt lat="68.2249" lon="23.92822"/><trkpt lat="68.22488" lon="23.92836"/><trkpt lat="68.22433" lon="23.92982"/><trkpt lat="68.22416" lon="23.9312"/><trkpt lat="68.22416" lon="23.93188"/><trkpt lat="68.22414" lon="23.93216"/><trkpt lat="68.22414" lon="23.93216"/><trkpt lat="68.22406" lon="23.93271"/><trkpt lat="68.22405" lon="23.9331"/><trkpt lat="68.22392" lon="23.93396"/><trkpt lat="68.22392" lon="23.93396"/><trkpt lat="68.22377" lon="23.93464"/><trkpt lat="68.22356" lon="23.93542"/><trkpt lat="68.22336" lon="23.93566"/><trkpt lat="68.22316" lon="23.93595"/><trkpt lat="68.22313" lon="23.93607"/><trkpt lat="68.22297" lon="23.93636"/><trkpt lat="68.22268" lon="23.93662"/><trkpt lat="68.2223" lon="23.93723"/><trkpt lat="68.22218" lon="23.93731"/><trkpt lat="68.22206" lon="23.93746"/><trkpt lat="68.22198" lon="23.93748"/><trkpt lat="68.22185" lon="23.93761"/><trkpt lat="68.22172" lon="23.93768"/><trkpt lat="68.22154" lon="23.93799"/><trkpt lat="68.22136" lon="23.93798"/><trkpt lat="68.22127" lon="23.93804"/><trkpt lat="68.22106040137564" lon="23.938361883601683"/><trkpt lat="68.22106040137564" lon="23.938361883601683"/><trkpt lat="68.22099" lon="23.93847"/><trkpt lat="68.22052" lon="23.93897"/><trkpt lat="68.22052" lon="23.93897"/><trkpt lat="68.22045" lon="23.93905"/><trkpt lat="68.22022" lon="23.93964"/><trkpt lat="68.22022" lon="23.93964"/><trkpt lat="68.22022" lon="23.93964"/><trkpt lat="68.22011" lon="23.93999"/><trkpt lat="68.21994" lon="23.94039"/><trkpt lat="68.21921" lon="23.94151"/><trkpt lat="68.21912" lon="23.94171"/><trkpt lat="68.21882" lon="23.9426"/><trkpt lat="68.21875" lon="23.9429"/><trkpt lat="68.21848" lon="23.94361"/><trkpt lat="68.21848" lon="23.94361"/><trkpt lat="68.21846044230121" lon="23.943680896658105"/><trkpt lat="68.21846044230121" lon="23.943680896658105"/><trkpt lat="68.2184" lon="23.9439"/><trkpt lat="68.21829446711851" lon="23.944216598644445"/><trkpt lat="68.21828972663809" lon="23.944230820085693"/><trkpt lat="68.21828358090576" lon="23.944249257282667"/><trkpt lat="68.21828358090576" lon="23.944249257282667"/><trkpt lat="68.21819" lon="23.94453"/><trkpt lat="68.218" lon="23.94535"/><trkpt lat="68.21766" lon="23.94697"/><trkpt lat="68.21763" lon="23.94735"/><trkpt lat="68.21766" lon="23.9478"/><trkpt lat="68.21766" lon="23.9478"/><trkpt lat="68.2176540190622" lon="23.948009332823467"/><trkpt lat="68.21765401906268" lon="23.948009332823464"/><trkpt lat="68.21765" lon="23.94815"/><trkpt lat="68.21755" lon="23.94836"/><trkpt lat="68.21753" lon="23.9489"/><trkpt lat="68.21729" lon="23.94961"/><trkpt lat="68.21722" lon="23.9499"/><trkpt lat="68.21707" lon="23.94991"/><trkpt lat="68.2169" lon="23.94988"/><trkpt lat="68.2168" lon="23.94976"/><trkpt lat="68.21668" lon="23.94943"/><trkpt lat="68.21658" lon="23.94933"/><trkpt lat="68.21652" lon="23.94935"/><trkpt lat="68.21652" lon="23.94935"/><trkpt lat="68.21647" lon="23.94941"/><trkpt lat="68.21647" lon="23.94941"/><trkpt lat="68.21632" lon="23.94983"/><trkpt lat="68.21625" lon="23.9502"/><trkpt lat="68.21625" lon="23.9502"/><trkpt lat="68.21624" lon="23.95025"/><trkpt lat="68.21605" lon="23.95054"/><trkpt lat="68.21596" lon="23.95104"/><trkpt lat="68.21585" lon="23.9514"/><trkpt lat="68.21578" lon="23.95206"/><trkpt lat="68.21562" lon="23.95227"/><trkpt lat="68.21554" lon="23.95256"/><trkpt lat="68.21541" lon="23.95278"/><trkpt lat="68.21531" lon="23.95356"/><trkpt lat="68.2148" lon="23.95478"/><trkpt lat="68.2146" lon="23.95484"/><trkpt lat="68.21447" lon="23.95505"/><trkpt lat="68.21428" lon="23.95491"/><trkpt lat="68.21422" lon="23.95501"/><trkpt lat="68.21407" lon="23.95574"/><trkpt lat="68.21407" lon="23.95574"/><trkpt lat="68.21407" lon="23.95574"/><trkpt lat="68.21426" lon="23.95791"/><trkpt lat="68.21412" lon="23.95864"/><trkpt lat="68.21412" lon="23.95894"/><trkpt lat="68.21397" lon="23.96062"/><trkpt lat="68.21416" lon="23.96145"/><trkpt lat="68.2147" lon="23.96264"/><trkpt lat="68.2147" lon="23.96264"/><trkpt lat="68.21474" lon="23.96291"/><trkpt lat="68.21474" lon="23.96291"/><trkpt lat="68.2148" lon="23.96352"/><trkpt lat="68.2148" lon="23.96383"/><trkpt lat="68.21474" lon="23.96411"/><trkpt lat="68.21474" lon="23.96411"/><trkpt lat="68.21475" lon="23.9644"/><trkpt lat="68.21469" lon="23.96481"/><trkpt lat="68.21469" lon="23.96481"/><trkpt lat="68.21469" lon="23.96532"/><trkpt lat="68.21472" lon="23.96589"/><trkpt lat="68.21468" lon="23.96616"/><trkpt lat="68.21468" lon="23.96616"/><trkpt lat="68.21468" lon="23.96644"/><trkpt lat="68.21465" lon="23.96653"/><trkpt lat="68.21465" lon="23.96665"/><trkpt lat="68.21471" lon="23.96687"/><trkpt lat="68.21472" lon="23.96712"/><trkpt lat="68.21477" lon="23.9677"/><trkpt lat="68.21481" lon="23.96783"/><trkpt lat="68.21483" lon="23.96809"/><trkpt lat="68.21487" lon="23.96822"/><trkpt lat="68.21489" lon="23.96846"/><trkpt lat="68.21494" lon="23.96864"/><trkpt lat="68.21497" lon="23.96914"/><trkpt lat="68.215" lon="23.96931"/><trkpt lat="68.215" lon="23.96956"/><trkpt lat="68.21503" lon="23.97004"/><trkpt lat="68.21508" lon="23.97022"/><trkpt lat="68.2151" lon="23.97041"/><trkpt lat="68.2151" lon="23.97076"/><trkpt lat="68.21514" lon="23.97136"/><trkpt lat="68.21518" lon="23.97171"/><trkpt lat="68.21519" lon="23.97193"/><trkpt lat="68.21516" lon="23.97217"/><trkpt lat="68.21516" lon="23.97217"/><trkpt lat="68.21516" lon="23.97259"/><trkpt lat="68.2152" lon="23.97301"/><trkpt lat="68.21516" lon="23.97333"/><trkpt lat="68.21522" lon="23.97355"/><trkpt lat="68.21523" lon="23.97371"/><trkpt lat="68.21523" lon="23.97388"/><trkpt lat="68.21521" lon="23.97411"/><trkpt lat="68.21519" lon="23.97447"/><trkpt lat="68.21513" lon="23.97459"/><trkpt lat="68.21495" lon="23.97478"/><trkpt lat="68.21489" lon="23.97492"/><trkpt lat="68.21476" lon="23.97498"/><trkpt lat="68.21468" lon="23.97513"/><trkpt lat="68.21464" lon="23.97531"/><trkpt lat="68.21453" lon="23.97559"/><trkpt lat="68.21448" lon="23.97566"/><trkpt lat="68.21436" lon="23.97571"/><trkpt lat="68.21431" lon="23.97578"/><trkpt lat="68.21427" lon="23.97591"/><trkpt lat="68.21421" lon="23.97619"/><trkpt lat="68.21417" lon="23.97629"/><trkpt lat="68.21403" lon="23.97639"/><trkpt lat="68.21398" lon="23.97652"/><trkpt lat="68.21394" lon="23.97673"/><trkpt lat="68.2139" lon="23.97687"/><trkpt lat="68.21381" lon="23.97712"/><trkpt lat="68.21367" lon="23.97724"/><trkpt lat="68.21358" lon="23.97752"/><trkpt lat="68.2135" lon="23.97787"/><trkpt lat="68.21334" lon="23.97891"/><trkpt lat="68.21279" lon="23.97987"/><trkpt lat="68.21237" lon="23.98096"/><trkpt lat="68.21237" lon="23.98096"/><trkpt lat="68.21234" lon="23.98104"/><trkpt lat="68.21188" lon="23.98301"/><trkpt lat="68.21119165038274" lon="23.984386699234495"/><trkpt lat="68.21119165867248" lon="23.984386699234495"/><trkpt lat="68.21064" lon="23.98549"/><trkpt lat="68.20967" lon="23.98707"/><trkpt lat="68.20789" lon="23.99046"/><trkpt lat="68.20711" lon="23.99117"/><trkpt lat="68.20654" lon="23.99127"/><trkpt lat="68.20506" lon="23.99057"/><trkpt lat="68.20506" lon="23.99057"/><trkpt lat="68.20506" lon="23.99057"/><trkpt lat="68.20435" lon="23.99143"/><trkpt lat="68.20421" lon="23.99182"/><trkpt lat="68.20421" lon="23.99182"/><trkpt lat="68.20417" lon="23.99193"/><trkpt lat="68.2038" lon="23.9924"/><trkpt lat="68.20327" lon="23.99296"/><trkpt lat="68.202" lon="23.99401"/><trkpt lat="68.2017" lon="23.99414"/><trkpt lat="68.2017" lon="23.99414"/><trkpt lat="68.20165" lon="23.99416"/><trkpt lat="68.19928" lon="23.99648"/><trkpt lat="68.19698" lon="23.99928"/><trkpt lat="68.1965" lon="24.00013"/><trkpt lat="68.19605" lon="24.0004"/><trkpt lat="68.19605" lon="24.0004"/><trkpt lat="68.19577" lon="24.00057"/><trkpt lat="68.19577" lon="24.00057"/><trkpt lat="68.19468" lon="24.00126"/><trkpt lat="68.19395" lon="24.00111"/><trkpt lat="68.19354" lon="24.00047"/><trkpt lat="68.19314" lon="24.00057"/><trkpt lat="68.19275" lon="24.00078"/><trkpt lat="68.19175" lon="24.00091"/><trkpt lat="68.19141" lon="24.00151"/><trkpt lat="68.19141" lon="24.00151"/><trkpt lat="68.19126" lon="24.00157"/><trkpt lat="68.19103" lon="24.00135"/><trkpt lat="68.19085" lon="24.00099"/><trkpt lat="68.19069" lon="24.00085"/><trkpt lat="68.19056" lon="24.0009"/><trkpt lat="68.1902" lon="24.00127"/><trkpt lat="68.1892" lon="24.00108"/><trkpt lat="68.18876" lon="24.0006"/><trkpt lat="68.18829" lon="23.99947"/><trkpt lat="68.18798" lon="23.99904"/><trkpt lat="68.18789" lon="23.99871"/><trkpt lat="68.18789" lon="23.99871"/><trkpt lat="68.18783" lon="23.9985"/><trkpt lat="68.18775" lon="23.99796"/><trkpt lat="68.18775" lon="23.99796"/><trkpt lat="68.18766" lon="23.99742"/><trkpt lat="68.18715" lon="23.99661"/><trkpt lat="68.18682" lon="23.99603"/><trkpt lat="68.18674" lon="23.99582"/><trkpt lat="68.18674" lon="23.99582"/><trkpt lat="68.18636" lon="23.99483"/><trkpt lat="68.18636" lon="23.99483"/><trkpt lat="68.18625" lon="23.9946"/><trkpt lat="68.18611" lon="23.99441"/><trkpt lat="68.18611" lon="23.99441"/><trkpt lat="68.18602" lon="23.99431"/><trkpt lat="68.18598" lon="23.99414"/><trkpt lat="68.18598" lon="23.99414"/><trkpt lat="68.18597" lon="23.9941"/><trkpt lat="68.18595" lon="23.99407"/><trkpt lat="68.18587" lon="23.99405"/><trkpt lat="68.18586559802344" lon="23.99405220098828"/></trkseg></trk></gpx>