<?xml version="1.0"?>
<gpx xmlns="http://www.topografix.com/GPX/1/1" xmlns:gpxx="http://www.garmin.com/xmlschemas/GpxExtensions/v3" creator="CALTOPO" version="1.1"><metadata><name><![CDATA[suaskuru-nammalakuru]]></name></metadata><trk><name>suaskuru-nammalakuru</name><trkseg><trkpt lat="68.18584037476722" lon="23.994076251983646"/><trkpt lat="68.18583961132296" lon="23.994065194348334"/><trkpt lat="68.18581" lon="23.99408"/><trkpt lat="68.18576" lon="23.99414"/><trkpt lat="68.18576" lon="23.99414"/><trkpt lat="68.18571" lon="23.99422"/><trkpt lat="68.18571" lon="23.99422"/><trkpt lat="68.18556" lon="23.99443"/><trkpt lat="68.18538" lon="23.99518"/><trkpt lat="68.18538" lon="23.99518"/><trkpt lat="68.18517" lon="23.99523"/><trkpt lat="68.18517" lon="23.99523"/><trkpt lat="68.18494" lon="23.99528"/><trkpt lat="68.18479" lon="23.99549"/><trkpt lat="68.18467" lon="23.99592"/><trkpt lat="68.18456" lon="23.99678"/><trkpt lat="68.18439" lon="23.99724"/><trkpt lat="68.18418" lon="23.99754"/><trkpt lat="68.18388" lon="23.99771"/><trkpt lat="68.18388" lon="23.99771"/><trkpt lat="68.18365" lon="23.9981"/><trkpt lat="68.18343" lon="23.9982"/><trkpt lat="68.18336" lon="23.99836"/><trkpt lat="68.18316" lon="23.9984"/><trkpt lat="68.18297" lon="23.99913"/><trkpt lat="68.18288" lon="23.99929"/><trkpt lat="68.18269" lon="23.99999"/><trkpt lat="68.18256" lon="24.00072"/><trkpt lat="68.18241" lon="24.0011"/><trkpt lat="68.18214" lon="24.00241"/><trkpt lat="68.18201" lon="24.00282"/><trkpt lat="68.18201" lon="24.00282"/><trkpt lat="68.18197" lon="24.00294"/><trkpt lat="68.18197" lon="24.00294"/><trkpt lat="68.18193" lon="24.00309"/><trkpt lat="68.18184" lon="24.00414"/><trkpt lat="68.18149" lon="24.00526"/><trkpt lat="68.18118" lon="24.00614"/><trkpt lat="68.181" lon="24.00691"/><trkpt lat="68.18071" lon="24.00943"/><trkpt lat="68.18018" lon="24.01164"/><trkpt lat="68.18006" lon="24.01268"/><trkpt lat="68.17972" lon="24.01406"/><trkpt lat="68.17972" lon="24.01406"/><trkpt lat="68.17954" lon="24.01481"/><trkpt lat="68.17933" lon="24.0155"/><trkpt lat="68.17925" lon="24.01594"/><trkpt lat="68.17925" lon="24.01594"/><trkpt lat="68.17913" lon="24.016"/><trkpt lat="68.17906" lon="24.01611"/><trkpt lat="68.17906" lon="24.01611"/><trkpt lat="68.17839" lon="24.0167"/><trkpt lat="68.17756" lon="24.01725"/><trkpt lat="68.1766" lon="24.01822"/><trkpt lat="68.17558" lon="24.01869"/><trkpt lat="68.1752" lon="24.01916"/><trkpt lat="68.17493" lon="24.01926"/><trkpt lat="68.17417" lon="24.02026"/><trkpt lat="68.17358" lon="24.02039"/><trkpt lat="68.17156" lon="24.02197"/><trkpt lat="68.17156" lon="24.02197"/><trkpt lat="68.17083" lon="24.02261"/><trkpt lat="68.17062" lon="24.02268"/><trkpt lat="68.17062" lon="24.02268"/><trkpt lat="68.17029" lon="24.02257"/><trkpt lat="68.1688" lon="24.02276"/><trkpt lat="68.16855" lon="24.02254"/><trkpt lat="68.16789" lon="24.02243"/><trkpt lat="68.16777" lon="24.02265"/><trkpt lat="68.16737" lon="24.02265"/><trkpt lat="68.16657" lon="24.0225"/><trkpt lat="68.16611" lon="24.0228"/><trkpt lat="68.16611" lon="24.0228"/><trkpt lat="68.16565" lon="24.02337"/><trkpt lat="68.16535" lon="24.02388"/><trkpt lat="68.16523" lon="24.02414"/><trkpt lat="68.16523" lon="24.02414"/><trkpt lat="68.16338" lon="24.02799"/><trkpt lat="68.16338" lon="24.02799"/><trkpt lat="68.16322" lon="24.02829"/><trkpt lat="68.16322" lon="24.02829"/><trkpt lat="68.16294" lon="24.02988"/><trkpt lat="68.16283" lon="24.03028"/><trkpt lat="68.16271" lon="24.03089"/><trkpt lat="68.16255" lon="24.03123"/><trkpt lat="68.16223" lon="24.03206"/><trkpt lat="68.16209" lon="24.03234"/><trkpt lat="68.16188" lon="24.03258"/><trkpt lat="68.16161" lon="24.03272"/><trkpt lat="68.1613" lon="24.03271"/><trkpt lat="68.16077" lon="24.03258"/><trkpt lat="68.16027" lon="24.03201"/><trkpt lat="68.16017" lon="24.03196"/><trkpt lat="68.16017" lon="24.03196"/><trkpt lat="68.15903" lon="24.03288"/><trkpt lat="68.15883" lon="24.03321"/><trkpt lat="68.15837" lon="24.03315"/><trkpt lat="68.15767" lon="24.03329"/><trkpt lat="68.15655" lon="24.03302"/><trkpt lat="68.15614" lon="24.03265"/><trkpt lat="68.15521" lon="24.03132"/><trkpt lat="68.15521" lon="24.03132"/><trkpt lat="68.15502" lon="24.03105"/><trkpt lat="68.15446" lon="24.02971"/><trkpt lat="68.154" lon="24.02912"/><trkpt lat="68.15337" lon="24.02807"/><trkpt lat="68.15241" lon="24.02699"/><trkpt lat="68.15184" lon="24.02682"/><trkpt lat="68.15122" lon="24.0264"/><trkpt lat="68.15083" lon="24.02649"/><trkpt lat="68.15083" lon="24.02649"/><trkpt lat="68.15056" lon="24.02642"/><trkpt lat="68.15046" lon="24.02625"/><trkpt lat="68.15013" lon="24.02636"/><trkpt lat="68.14987" lon="24.02664"/><trkpt lat="68.14949" lon="24.02718"/><trkpt lat="68.14937" lon="24.02718"/><trkpt lat="68.14911" lon="24.02756"/><trkpt lat="68.14859" lon="24.02739"/><trkpt lat="68.1483" lon="24.02786"/><trkpt lat="68.14726" lon="24.02924"/><trkpt lat="68.14703" lon="24.02947"/><trkpt lat="68.14703" lon="24.02947"/><trkpt lat="68.14672" lon="24.02979"/><trkpt lat="68.14527" lon="24.03075"/><trkpt lat="68.1435" lon="24.03152"/><trkpt lat="68.14312" lon="24.03196"/><trkpt lat="68.14312" lon="24.03196"/><trkpt lat="68.14253" lon="24.03341"/><trkpt lat="68.14209" lon="24.03466"/><trkpt lat="68.14201" lon="24.03484"/><trkpt lat="68.14188" lon="24.035"/><trkpt lat="68.1418800002296" lon="24.034999998859945"/><trkpt lat="68.14188" lon="24.035"/><trkpt lat="68.14186132394926" lon="24.035044355620535"/><trkpt lat="68.14186132394926" lon="24.035044355620535"/><trkpt lat="68.14159333333218" lon="24.03568083366733"/><trkpt lat="68.14161" lon="24.03569"/><trkpt lat="68.14157" lon="24.03588"/><trkpt lat="68.1414" lon="24.0362"/><trkpt lat="68.14124" lon="24.03627"/><trkpt lat="68.14114" lon="24.03636"/><trkpt lat="68.14101977523107" lon="24.03641610489216"/><trkpt lat="68.14102" lon="24.03642"/><trkpt lat="68.14093" lon="24.03657"/><trkpt lat="68.14068" lon="24.03688"/><trkpt lat="68.14055" lon="24.03703"/><trkpt lat="68.14044" lon="24.03706"/><trkpt lat="68.14026" lon="24.03731"/><trkpt lat="68.1402" lon="24.03749"/><trkpt lat="68.13992" lon="24.03785"/><trkpt lat="68.13986" lon="24.03809"/><trkpt lat="68.13986" lon="24.03809"/><trkpt lat="68.13973" lon="24.0383"/><trkpt lat="68.13958" lon="24.03851"/><trkpt lat="68.13945" lon="24.03862"/><trkpt lat="68.13944768128333" lon="24.038613564920006"/><trkpt lat="68.13937" lon="24.0388"/><trkpt lat="68.13927" lon="24.03899"/><trkpt lat="68.13914" lon="24.03907"/><trkpt lat="68.13898" lon="24.03927"/><trkpt lat="68.13885" lon="24.03966"/><trkpt lat="68.13885" lon="24.03966"/><trkpt lat="68.1388" lon="24.0398"/><trkpt lat="68.13853" lon="24.04041"/><trkpt lat="68.13851746079978" lon="24.04047687573454"/><trkpt lat="68.13851746079978" lon="24.04047687573454"/><trkpt lat="68.13847" lon="24.04073"/><trkpt lat="68.13847" lon="24.04073"/><trkpt lat="68.13829" lon="24.0409"/><trkpt lat="68.13821" lon="24.04103"/><trkpt lat="68.13792" lon="24.04128"/><trkpt lat="68.1379" lon="24.0413"/><trkpt lat="68.13781" lon="24.0414"/><trkpt lat="68.13775538817337" lon="24.041548544168418"/><trkpt lat="68.13774120016873" lon="24.041557398228143"/><trkpt lat="68.13774" lon="24.04157"/><trkpt lat="68.13774373022247" lon="24.04158025379489"/><trkpt lat="68.13756" lon="24.04208"/><trkpt lat="68.13693" lon="24.04335"/><trkpt lat="68.13672" lon="24.04394"/><trkpt lat="68.13632" lon="24.04461"/><trkpt lat="68.13588" lon="24.04548"/><trkpt lat="68.13531" lon="24.04712"/><trkpt lat="68.13492" lon="24.04802"/><trkpt lat="68.13478" lon="24.04821"/><trkpt lat="68.13468" lon="24.04855"/><trkpt lat="68.13459" lon="24.04891"/><trkpt lat="68.13437" lon="24.04924"/><trkpt lat="68.1342" lon="24.04936"/><trkpt lat="68.13417" lon="24.04949"/><trkpt lat="68.13415" lon="24.0499"/><trkpt lat="68.13404" lon="24.05026"/><trkpt lat="68.13401103372772" lon="24.050391664874017"/><trkpt lat="68.13401" lon="24.05039"/><trkpt lat="68.13385" lon="24.05054"/><trkpt lat="68.13375" lon="24.05071"/><trkpt lat="68.13363" lon="24.05105"/><trkpt lat="68.13345" lon="24.05133"/><trkpt lat="68.13296" lon="24.0517"/><trkpt lat="68.13278" lon="24.05188"/><trkpt lat="68.13258" lon="24.05201"/><trkpt lat="68.13245" lon="24.05215"/><trkpt lat="68.13227" lon="24.05237"/><trkpt lat="68.13201" lon="24.05294"/><trkpt lat="68.13196" lon="24.05301"/><trkpt lat="68.1319" lon="24.05302"/><trkpt lat="68.1319" lon="24.05302"/><trkpt lat="68.13182" lon="24.05326"/><trkpt lat="68.13176" lon="24.0534"/><trkpt lat="68.13170015792478" lon="24.053584968157672"/><trkpt lat="68.13170015792478" lon="24.053584968157672"/><trkpt lat="68.13165" lon="24.05374"/><trkpt lat="68.13154" lon="24.05392"/><trkpt lat="68.13151" lon="24.05404"/><trkpt lat="68.13150938149934" lon="24.05404394185212"/><trkpt lat="68.13149" lon="24.05402"/><trkpt lat="68.13142" lon="24.05402"/><trkpt lat="68.13128" lon="24.05409"/><trkpt lat="68.13126" lon="24.05417"/><trkpt lat="68.13121" lon="24.05464"/><trkpt lat="68.13121" lon="24.05464"/><trkpt lat="68.13112" lon="24.05469"/><trkpt lat="68.13111" lon="24.05485"/><trkpt lat="68.13105" lon="24.05502"/><trkpt lat="68.1309" lon="24.05525"/><trkpt lat="68.1309" lon="24.05525"/><trkpt lat="68.1308" lon="24.0553"/><trkpt lat="68.13071" lon="24.05543"/><trkpt lat="68.13067" lon="24.05545"/><trkpt lat="68.13067" lon="24.05545"/><trkpt lat="68.13039" lon="24.05538"/><trkpt lat="68.13025967094435" lon="24.055420447581948"/><trkpt lat="68.13025967094435" lon="24.055420447581948"/><trkpt lat="68.1301" lon="24.05547"/><trkpt lat="68.1301" lon="24.05547"/><trkpt lat="68.1301" lon="24.05547"/><trkpt lat="68.12985981570549" lon="24.05540508532581"/><trkpt lat="68.12985981570549" lon="24.05540508532581"/><trkpt lat="68.12973" lon="24.05537"/><trkpt lat="68.12972999924332" lon="24.055370000201346"/><trkpt lat="68.12973" lon="24.05537"/><trkpt lat="68.12970315962725" lon="24.055600826464403"/><trkpt lat="68.12970315962725" lon="24.055600826464403"/><trkpt lat="68.1296997357442" lon="24.055630271968337"/></trkseg></trk></gpx>