<?xml version="1.0" encoding="UTF-8" standalone="no"?><gpx xmlns="http://www.topografix.com/GPX/1/1" xmlns:gpxtpx="http://www.garmin.com/xmlschemas/TrackPointExtension/v1" xmlns:xsi="http://www.w3.org/2001/XMLSchema-instance" creator="Suunto app" version="1.1" xsi:schemaLocation="http://www.topografix.com/GPX/1/1 http://www.topografix.com/GPX/1/1/gpx.xsd http://www.garmin.com/xmlschemas/TrackPointExtension/v1 http://www.garmin.com/xmlschemas/TrackPointExtensionv1.xsd"><metadata><name>suuntoapp-Trekking-2023-06-25T05-43-27Z</name><desc/><author><name>Jouni L</name></author></metadata><trk><name>suuntoapp-Trekking-2023-06-25T05-43-27Z</name><trkseg><trkpt lat="61.164037" lon="26.835682"><ele>123.0</ele><time>2023-06-25T05:43:35Z</time></trkpt><trkpt lat="61.164127" lon="26.835615"><ele>123.0</ele><time>2023-06-25T05:43:53Z</time></trkpt><trkpt lat="61.16423" lon="26.835657"><ele>124.0</ele><time>2023-06-25T05:44:07Z</time></trkpt><trkpt lat="61.164315" lon="26.835752"><ele>127.0</ele><time>2023-06-25T05:44:30Z</time></trkpt><trkpt lat="61.16481" lon="26.836748"><ele>127.0</ele><time>2023-06-25T05:44:32Z</time></trkpt><trkpt lat="61.164883" lon="26.836798"><ele>129.0</ele><time>2023-06-25T05:44:37Z</time></trkpt><trkpt lat="61.16477" lon="26.836723"><ele>129.0</ele><time>2023-06-25T05:44:45Z</time></trkpt><trkpt lat="61.164692" lon="26.836595"><ele>131.0</ele><time>2023-06-25T05:44:47Z</time></trkpt><trkpt lat="61.164645" lon="26.83654"><ele>131.0</ele><time>2023-06-25T05:44:57Z</time></trkpt><trkpt lat="61.164662" lon="26.836562"><ele>131.0</ele><time>2023-06-25T05:44:58Z</time></trkpt><trkpt lat="61.16468" lon="26.836555"><ele>131.0</ele><time>2023-06-25T05:45:01Z</time></trkpt><trkpt lat="61.1647" lon="26.836555"><ele>131.0</ele><time>2023-06-25T05:45:05Z</time></trkpt><trkpt lat="61.164743" lon="26.836588"><ele>132.0</ele><time>2023-06-25T05:45:09Z</time></trkpt><trkpt lat="61.16476" lon="26.83661"><ele>132.0</ele><time>2023-06-25T05:45:10Z</time></trkpt><trkpt lat="61.164778" lon="26.836635"><ele>132.0</ele><time>2023-06-25T05:45:13Z</time></trkpt><trkpt lat="61.164803" lon="26.836617"><ele>133.0</ele><time>2023-06-25T05:45:16Z</time></trkpt><trkpt lat="61.164818" lon="26.836585"><ele>133.0</ele><time>2023-06-25T05:45:19Z</time></trkpt><trkpt lat="61.16482" lon="26.836535"><ele>133.0</ele><time>2023-06-25T05:45:22Z</time></trkpt><trkpt lat="61.164827" lon="26.83649"><ele>133.0</ele><time>2023-06-25T05:45:24Z</time></trkpt><trkpt lat="61.164838" lon="26.83645"><ele>133.0</ele><time>2023-06-25T05:45:26Z</time></trkpt><trkpt lat="61.16485" lon="26.83642"><ele>134.0</ele><time>2023-06-25T05:45:28Z</time></trkpt><trkpt lat="61.164845" lon="26.836377"><ele>135.0</ele><time>2023-06-25T05:45:41Z</time></trkpt><trkpt lat="61.164843" lon="26.836338"><ele>135.0</ele><time>2023-06-25T05:45:44Z</time></trkpt><trkpt lat="61.164858" lon="26.836308"><ele>135.0</ele><time>2023-06-25T05:45:50Z</time></trkpt><trkpt lat="61.164853" lon="26.83627"><ele>135.0</ele><time>2023-06-25T05:45:56Z</time></trkpt><trkpt lat="61.164835" lon="26.83624"><ele>135.0</ele><time>2023-06-25T05:45:59Z</time></trkpt><trkpt lat="61.164822" lon="26.836203"><ele>135.0</ele><time>2023-06-25T05:46:03Z</time></trkpt><trkpt lat="61.164808" lon="26.836167"><ele>135.0</ele><time>2023-06-25T05:46:06Z</time></trkpt><trkpt lat="61.1648" lon="26.83613"><ele>134.0</ele><time>2023-06-25T05:46:09Z</time></trkpt><trkpt lat="61.164783" lon="26.836097"><ele>134.0</ele><time>2023-06-25T05:46:12Z</time></trkpt><trkpt lat="61.164767" lon="26.836057"><ele>134.0</ele><time>2023-06-25T05:46:15Z</time></trkpt><trkpt lat="61.16475" lon="26.836023"><ele>134.0</ele><time>2023-06-25T05:46:18Z</time></trkpt><trkpt lat="61.16474" lon="26.835987"><ele>134.0</ele><time>2023-06-25T05:46:21Z</time></trkpt><trkpt lat="61.164728" lon="26.835945"><ele>134.0</ele><time>2023-06-25T05:46:24Z</time></trkpt><trkpt lat="61.164718" lon="26.835907"><ele>134.0</ele><time>2023-06-25T05:46:27Z</time></trkpt><trkpt lat="61.164712" lon="26.835862"><ele>134.0</ele><time>2023-06-25T05:46:30Z</time></trkpt><trkpt lat="61.164703" lon="26.835818"><ele>134.0</ele><time>2023-06-25T05:46:33Z</time></trkpt><trkpt lat="61.16475" lon="26.835138"><ele>132.0</ele><time>2023-06-25T05:48:07Z</time></trkpt><trkpt lat="61.164225" lon="26.835188"><ele>125.0</ele><time>2023-06-25T05:50:07Z</time></trkpt><trkpt lat="61.16389" lon="26.83481"><ele>123.0</ele><time>2023-06-25T05:51:06Z</time></trkpt><trkpt lat="61.163392" lon="26.834452"><ele>121.0</ele><time>2023-06-25T05:52:07Z</time></trkpt><trkpt lat="61.163103" lon="26.835255"><ele>120.0</ele><time>2023-06-25T05:53:07Z</time></trkpt><trkpt lat="61.162612" lon="26.835913"><ele>132.0</ele><time>2023-06-25T05:55:06Z</time></trkpt><trkpt lat="61.162252" lon="26.83596"><ele>132.0</ele><time>2023-06-25T05:56:07Z</time></trkpt><trkpt lat="61.161908" lon="26.83668"><ele>126.0</ele><time>2023-06-25T05:57:06Z</time></trkpt><trkpt lat="61.161317" lon="26.83665"><ele>125.0</ele><time>2023-06-25T05:58:07Z</time></trkpt><trkpt lat="61.160917" lon="26.83633"><ele>126.0</ele><time>2023-06-25T05:59:06Z</time></trkpt><trkpt lat="61.160917" lon="26.83633"><ele>127.0</ele><time>2023-06-25T05:59:24Z</time></trkpt></trkseg></trk></gpx>