<?xml version="1.0" encoding="UTF-8" standalone="no"?><gpx xmlns="http://www.topografix.com/GPX/1/1" xmlns:gpxtpx="http://www.garmin.com/xmlschemas/TrackPointExtension/v1" xmlns:xsi="http://www.w3.org/2001/XMLSchema-instance" creator="Suunto app" version="1.1" xsi:schemaLocation="http://www.topografix.com/GPX/1/1 http://www.topografix.com/GPX/1/1/gpx.xsd http://www.garmin.com/xmlschemas/TrackPointExtension/v1 http://www.garmin.com/xmlschemas/TrackPointExtensionv1.xsd"><metadata><name>suuntoapp-Trekking-2023-06-23T08-12-26Z</name><desc/><author><name>Jouni L</name></author></metadata><trk><name>suuntoapp-Trekking-2023-06-23T08-12-26Z</name><trkseg><trkpt lat="61.15824" lon="26.85965"><ele>124.0</ele><time>2023-06-23T08:16:34Z</time></trkpt><trkpt lat="61.158163" lon="26.859797"><ele>125.0</ele><time>2023-06-23T08:16:46Z</time></trkpt><trkpt lat="61.158252" lon="26.859893"><ele>125.0</ele><time>2023-06-23T08:17:03Z</time></trkpt><trkpt lat="61.158282" lon="26.86008"><ele>125.0</ele><time>2023-06-23T08:17:13Z</time></trkpt><trkpt lat="61.158318" lon="26.860265"><ele>125.0</ele><time>2023-06-23T08:17:24Z</time></trkpt><trkpt lat="61.15841" lon="26.860385"><ele>125.0</ele><time>2023-06-23T08:17:41Z</time></trkpt><trkpt lat="61.1585" lon="26.860445"><ele>125.0</ele><time>2023-06-23T08:17:54Z</time></trkpt><trkpt lat="61.158578" lon="26.860575"><ele>126.0</ele><time>2023-06-23T08:18:02Z</time></trkpt><trkpt lat="61.158655" lon="26.860683"><ele>125.0</ele><time>2023-06-23T08:18:11Z</time></trkpt><trkpt lat="61.158723" lon="26.860807"><ele>125.0</ele><time>2023-06-23T08:18:23Z</time></trkpt><trkpt lat="61.158795" lon="26.86097"><ele>125.0</ele><time>2023-06-23T08:18:34Z</time></trkpt><trkpt lat="61.158875" lon="26.861098"><ele>125.0</ele><time>2023-06-23T08:18:44Z</time></trkpt><trkpt lat="61.158953" lon="26.861215"><ele>124.0</ele><time>2023-06-23T08:18:53Z</time></trkpt><trkpt lat="61.159042" lon="26.861298"><ele>124.0</ele><time>2023-06-23T08:19:01Z</time></trkpt><trkpt lat="61.15911" lon="26.861428"><ele>124.0</ele><time>2023-06-23T08:19:15Z</time></trkpt><trkpt lat="61.159185" lon="26.86154"><ele>124.0</ele><time>2023-06-23T08:19:32Z</time></trkpt><trkpt lat="61.159713" lon="26.861968"><ele>130.0</ele><time>2023-06-23T08:21:07Z</time></trkpt><trkpt lat="61.160145" lon="26.862957"><ele>124.0</ele><time>2023-06-23T08:23:07Z</time></trkpt><trkpt lat="61.160588" lon="26.863392"><ele>122.0</ele><time>2023-06-23T08:25:08Z</time></trkpt><trkpt lat="61.160813" lon="26.86415"><ele>124.0</ele><time>2023-06-23T08:26:08Z</time></trkpt><trkpt lat="61.160678" lon="26.864763"><ele>124.0</ele><time>2023-06-23T08:28:08Z</time></trkpt><trkpt lat="61.160362" lon="26.865412"><ele>125.0</ele><time>2023-06-23T08:29:08Z</time></trkpt><trkpt lat="61.160103" lon="26.86519"><ele>130.0</ele><time>2023-06-23T08:30:07Z</time></trkpt><trkpt lat="61.159228" lon="26.86505"><ele>138.0</ele><time>2023-06-23T08:32:08Z</time></trkpt><trkpt lat="61.158898" lon="26.865083"><ele>139.0</ele><time>2023-06-23T08:33:07Z</time></trkpt><trkpt lat="61.15833" lon="26.865168"><ele>135.0</ele><time>2023-06-23T08:34:08Z</time></trkpt><trkpt lat="61.158032" lon="26.8652"><ele>136.0</ele><time>2023-06-23T08:35:07Z</time></trkpt><trkpt lat="61.15775" lon="26.865607"><ele>137.0</ele><time>2023-06-23T08:36:06Z</time></trkpt><trkpt lat="61.157268" lon="26.866542"><ele>133.0</ele><time>2023-06-23T08:37:07Z</time></trkpt><trkpt lat="61.157087" lon="26.867353"><ele>135.0</ele><time>2023-06-23T08:38:07Z</time></trkpt><trkpt lat="61.156912" lon="26.867942"><ele>134.0</ele><time>2023-06-23T08:39:06Z</time></trkpt><trkpt lat="61.157002" lon="26.868498"><ele>135.0</ele><time>2023-06-23T08:40:07Z</time></trkpt><trkpt lat="61.15725" lon="26.869007"><ele>138.0</ele><time>2023-06-23T08:41:07Z</time></trkpt><trkpt lat="61.15744" lon="26.86966"><ele>138.0</ele><time>2023-06-23T08:42:07Z</time></trkpt><trkpt lat="61.157572" lon="26.870332"><ele>138.0</ele><time>2023-06-23T08:43:07Z</time></trkpt><trkpt lat="61.157655" lon="26.870963"><ele>139.0</ele><time>2023-06-23T08:44:08Z</time></trkpt><trkpt lat="61.157728" lon="26.87223"><ele>139.0</ele><time>2023-06-23T08:45:08Z</time></trkpt><trkpt lat="61.157887" lon="26.873"><ele>140.0</ele><time>2023-06-23T08:46:07Z</time></trkpt><trkpt lat="61.15809" lon="26.873807"><ele>138.0</ele><time>2023-06-23T08:47:07Z</time></trkpt><trkpt lat="61.158233" lon="26.874298"><ele>138.0</ele><time>2023-06-23T08:48:08Z</time></trkpt><trkpt lat="61.158405" lon="26.875477"><ele>132.0</ele><time>2023-06-23T08:49:07Z</time></trkpt><trkpt lat="61.158532" lon="26.876255"><ele>127.0</ele><time>2023-06-23T08:50:07Z</time></trkpt><trkpt lat="61.15888" lon="26.8776"><ele>126.0</ele><time>2023-06-23T08:51:07Z</time></trkpt><trkpt lat="61.15888" lon="26.8776"><ele>125.0</ele><time>2023-06-23T08:51:53Z</time></trkpt><trkpt lat="61.15887" lon="26.878657"><ele>125.0</ele><time>2023-06-23T08:56:26Z</time></trkpt><trkpt lat="61.158248" lon="26.879527"><ele>130.0</ele><time>2023-06-23T08:58:08Z</time></trkpt><trkpt lat="61.15786" lon="26.880212"><ele>127.0</ele><time>2023-06-23T08:59:09Z</time></trkpt><trkpt lat="61.157402" lon="26.88099"><ele>129.0</ele><time>2023-06-23T09:00:09Z</time></trkpt><trkpt lat="61.157417" lon="26.881837"><ele>131.0</ele><time>2023-06-23T09:01:08Z</time></trkpt><trkpt lat="61.157345" lon="26.882542"><ele>135.0</ele><time>2023-06-23T09:02:08Z</time></trkpt><trkpt lat="61.15678" lon="26.883342"><ele>137.0</ele><time>2023-06-23T09:03:09Z</time></trkpt><trkpt lat="61.15669" lon="26.884018"><ele>129.0</ele><time>2023-06-23T09:04:08Z</time></trkpt><trkpt lat="61.156495" lon="26.884787"><ele>132.0</ele><time>2023-06-23T09:05:08Z</time></trkpt><trkpt lat="61.156295" lon="26.885747"><ele>136.0</ele><time>2023-06-23T09:06:08Z</time></trkpt><trkpt lat="61.15623" lon="26.886313"><ele>131.0</ele><time>2023-06-23T09:08:08Z</time></trkpt><trkpt lat="61.156575" lon="26.887168"><ele>125.0</ele><time>2023-06-23T09:09:09Z</time></trkpt><trkpt lat="61.15694" lon="26.88786"><ele>126.0</ele><time>2023-06-23T09:10:08Z</time></trkpt><trkpt lat="61.157213" lon="26.887845"><ele>129.0</ele><time>2023-06-23T09:12:06Z</time></trkpt><trkpt lat="61.157447" lon="26.887512"><ele>125.0</ele><time>2023-06-23T09:13:07Z</time></trkpt><trkpt lat="61.157778" lon="26.887498"><ele>125.0</ele><time>2023-06-23T09:15:10Z</time></trkpt><trkpt lat="61.158452" lon="26.88777"><ele>126.0</ele><time>2023-06-23T09:16:15Z</time></trkpt><trkpt lat="61.158797" lon="26.887947"><ele>125.0</ele><time>2023-06-23T09:17:12Z</time></trkpt><trkpt lat="61.158727" lon="26.888453"><ele>132.0</ele><time>2023-06-23T09:28:50Z</time></trkpt><trkpt lat="61.158858" lon="26.888135"><ele>128.0</ele><time>2023-06-23T09:31:08Z</time></trkpt><trkpt lat="61.159117" lon="26.887875"><ele>125.0</ele><time>2023-06-23T09:32:16Z</time></trkpt><trkpt lat="61.159458" lon="26.888003"><ele>126.0</ele><time>2023-06-23T09:34:08Z</time></trkpt><trkpt lat="61.15973" lon="26.887677"><ele>125.0</ele><time>2023-06-23T09:35:08Z</time></trkpt><trkpt lat="61.16018" lon="26.887752"><ele>132.0</ele><time>2023-06-23T09:37:08Z</time></trkpt><trkpt lat="61.16023" lon="26.888373"><ele>144.0</ele><time>2023-06-23T09:39:08Z</time></trkpt><trkpt lat="61.160233" lon="26.888997"><ele>160.0</ele><time>2023-06-23T09:41:09Z</time></trkpt><trkpt lat="61.160435" lon="26.88954"><ele>166.0</ele><time>2023-06-23T09:44:08Z</time></trkpt><trkpt lat="61.160722" lon="26.889145"><ele>158.0</ele><time>2023-06-23T09:46:08Z</time></trkpt><trkpt lat="61.161045" lon="26.887797"><ele>157.0</ele><time>2023-06-23T09:47:09Z</time></trkpt><trkpt lat="61.161305" lon="26.88713"><ele>158.0</ele><time>2023-06-23T09:50:09Z</time></trkpt><trkpt lat="61.162128" lon="26.88695"><ele>156.0</ele><time>2023-06-23T09:51:19Z</time></trkpt><trkpt lat="61.162417" lon="26.887412"><ele>152.0</ele><time>2023-06-23T09:53:08Z</time></trkpt><trkpt lat="61.162707" lon="26.888045"><ele>151.0</ele><time>2023-06-23T09:54:08Z</time></trkpt><trkpt lat="61.16303" lon="26.888178"><ele>150.0</ele><time>2023-06-23T09:55:08Z</time></trkpt><trkpt lat="61.163485" lon="26.887927"><ele>136.0</ele><time>2023-06-23T09:58:10Z</time></trkpt><trkpt lat="61.163585" lon="26.886997"><ele>136.0</ele><time>2023-06-23T09:59:08Z</time></trkpt><trkpt lat="61.163912" lon="26.887658"><ele>135.0</ele><time>2023-06-23T10:00:08Z</time></trkpt><trkpt lat="61.164248" lon="26.888038"><ele>132.0</ele><time>2023-06-23T10:01:09Z</time></trkpt><trkpt lat="61.164673" lon="26.88835"><ele>136.0</ele><time>2023-06-23T10:02:09Z</time></trkpt><trkpt lat="61.16507" lon="26.888975"><ele>133.0</ele><time>2023-06-23T10:03:09Z</time></trkpt><trkpt lat="61.165142" lon="26.889583"><ele>133.0</ele><time>2023-06-23T10:04:13Z</time></trkpt><trkpt lat="61.165223" lon="26.890277"><ele>134.0</ele><time>2023-06-23T10:05:11Z</time></trkpt><trkpt lat="61.165417" lon="26.893187"><ele>136.0</ele><time>2023-06-23T10:08:11Z</time></trkpt><trkpt lat="61.16684" lon="26.895223"><ele>133.0</ele><time>2023-06-23T10:11:10Z</time></trkpt><trkpt lat="61.167127" lon="26.895728"><ele>132.0</ele><time>2023-06-23T10:12:09Z</time></trkpt><trkpt lat="61.167773" lon="26.896483"><ele>129.0</ele><time>2023-06-23T10:13:15Z</time></trkpt><trkpt lat="61.168628" lon="26.896407"><ele>127.0</ele><time>2023-06-23T10:14:27Z</time></trkpt><trkpt lat="61.168902" lon="26.896665"><ele>131.0</ele><time>2023-06-23T10:16:09Z</time></trkpt><trkpt lat="61.177333" lon="26.895443"><ele>126.0</ele><time>2023-06-23T11:50:49Z</time></trkpt><trkpt lat="61.177578" lon="26.895625"><ele>127.0</ele><time>2023-06-23T11:51:38Z</time></trkpt><trkpt lat="61.177938" lon="26.89575"><ele>128.0</ele><time>2023-06-23T11:53:37Z</time></trkpt><trkpt lat="61.178185" lon="26.895508"><ele>128.0</ele><time>2023-06-23T11:54:38Z</time></trkpt><trkpt lat="61.17855" lon="26.895722"><ele>130.0</ele><time>2023-06-23T11:55:38Z</time></trkpt><trkpt lat="61.179155" lon="26.896947"><ele>126.0</ele><time>2023-06-23T11:56:38Z</time></trkpt><trkpt lat="61.179797" lon="26.896862"><ele>130.0</ele><time>2023-06-23T11:58:37Z</time></trkpt><trkpt lat="61.180473" lon="26.896015"><ele>137.0</ele><time>2023-06-23T11:59:38Z</time></trkpt><trkpt lat="61.180627" lon="26.895523"><ele>143.0</ele><time>2023-06-23T12:00:38Z</time></trkpt><trkpt lat="61.180715" lon="26.894863"><ele>148.0</ele><time>2023-06-23T12:01:38Z</time></trkpt><trkpt lat="61.180947" lon="26.893705"><ele>152.0</ele><time>2023-06-23T12:02:38Z</time></trkpt><trkpt lat="61.18096" lon="26.893145"><ele>159.0</ele><time>2023-06-23T12:03:38Z</time></trkpt><trkpt lat="61.180975" lon="26.892402"><ele>160.0</ele><time>2023-06-23T12:04:39Z</time></trkpt><trkpt lat="61.180995" lon="26.891097"><ele>167.0</ele><time>2023-06-23T12:05:38Z</time></trkpt><trkpt lat="61.181067" lon="26.890252"><ele>174.0</ele><time>2023-06-23T12:06:38Z</time></trkpt><trkpt lat="61.181193" lon="26.889475"><ele>175.0</ele><time>2023-06-23T12:07:37Z</time></trkpt><trkpt lat="61.181565" lon="26.888597"><ele>175.0</ele><time>2023-06-23T12:08:39Z</time></trkpt><trkpt lat="61.18191" lon="26.888027"><ele>175.0</ele><time>2023-06-23T12:09:39Z</time></trkpt><trkpt lat="61.182172" lon="26.88778"><ele>181.0</ele><time>2023-06-23T12:10:39Z</time></trkpt><trkpt lat="61.182173" lon="26.886998"><ele>181.0</ele><time>2023-06-23T12:11:38Z</time></trkpt><trkpt lat="61.182175" lon="26.885707"><ele>196.0</ele><time>2023-06-23T12:13:38Z</time></trkpt><trkpt lat="61.182073" lon="26.884838"><ele>193.0</ele><time>2023-06-23T12:14:37Z</time></trkpt><trkpt lat="61.182205" lon="26.88403"><ele>191.0</ele><time>2023-06-23T12:16:37Z</time></trkpt><trkpt lat="61.182428" lon="26.883235"><ele>186.0</ele><time>2023-06-23T12:17:37Z</time></trkpt><trkpt lat="61.182678" lon="26.882465"><ele>178.0</ele><time>2023-06-23T12:18:38Z</time></trkpt><trkpt lat="61.183038" lon="26.881933"><ele>166.0</ele><time>2023-06-23T12:20:38Z</time></trkpt><trkpt lat="61.182733" lon="26.881922"><ele>154.0</ele><time>2023-06-23T12:23:38Z</time></trkpt><trkpt lat="61.182975" lon="26.881128"><ele>161.0</ele><time>2023-06-23T12:27:38Z</time></trkpt><trkpt lat="61.18314" lon="26.880117"><ele>162.0</ele><time>2023-06-23T12:28:37Z</time></trkpt><trkpt lat="61.18357" lon="26.879503"><ele>166.0</ele><time>2023-06-23T12:30:38Z</time></trkpt><trkpt lat="61.18378" lon="26.878408"><ele>166.0</ele><time>2023-06-23T12:31:37Z</time></trkpt><trkpt lat="61.184102" lon="26.877345"><ele>165.0</ele><time>2023-06-23T12:32:37Z</time></trkpt><trkpt lat="61.184395" lon="26.876517"><ele>161.0</ele><time>2023-06-23T12:33:37Z</time></trkpt><trkpt lat="61.184707" lon="26.875717"><ele>160.0</ele><time>2023-06-23T12:34:39Z</time></trkpt><trkpt lat="61.185075" lon="26.87476"><ele>163.0</ele><time>2023-06-23T12:35:39Z</time></trkpt><trkpt lat="61.185627" lon="26.873495"><ele>172.0</ele><time>2023-06-23T12:37:38Z</time></trkpt><trkpt lat="61.18595" lon="26.873052"><ele>174.0</ele><time>2023-06-23T12:39:37Z</time></trkpt><trkpt lat="61.186467" lon="26.873453"><ele>171.0</ele><time>2023-06-23T12:41:37Z</time></trkpt><trkpt lat="61.186908" lon="26.873877"><ele>172.0</ele><time>2023-06-23T12:42:37Z</time></trkpt><trkpt lat="61.187498" lon="26.8748"><ele>171.0</ele><time>2023-06-23T12:43:38Z</time></trkpt><trkpt lat="61.188108" lon="26.875578"><ele>168.0</ele><time>2023-06-23T12:44:38Z</time></trkpt><trkpt lat="61.18833" lon="26.876698"><ele>170.0</ele><time>2023-06-23T12:45:38Z</time></trkpt><trkpt lat="61.188648" lon="26.877917"><ele>171.0</ele><time>2023-06-23T12:46:38Z</time></trkpt><trkpt lat="61.188453" lon="26.879085"><ele>172.0</ele><time>2023-06-23T12:47:38Z</time></trkpt><trkpt lat="61.188473" lon="26.880212"><ele>175.0</ele><time>2023-06-23T12:48:37Z</time></trkpt><trkpt lat="61.188455" lon="26.88146"><ele>176.0</ele><time>2023-06-23T12:49:38Z</time></trkpt><trkpt lat="61.188557" lon="26.882873"><ele>170.0</ele><time>2023-06-23T12:50:39Z</time></trkpt><trkpt lat="61.188813" lon="26.88372"><ele>169.0</ele><time>2023-06-23T12:51:38Z</time></trkpt><trkpt lat="61.189153" lon="26.884835"><ele>174.0</ele><time>2023-06-23T12:52:37Z</time></trkpt><trkpt lat="61.189072" lon="26.88568"><ele>176.0</ele><time>2023-06-23T12:53:38Z</time></trkpt><trkpt lat="61.189468" lon="26.885667"><ele>179.0</ele><time>2023-06-23T12:54:39Z</time></trkpt><trkpt lat="61.190023" lon="26.885557"><ele>182.0</ele><time>2023-06-23T12:55:39Z</time></trkpt><trkpt lat="61.190497" lon="26.884972"><ele>187.0</ele><time>2023-06-23T12:56:38Z</time></trkpt><trkpt lat="61.191112" lon="26.884912"><ele>187.0</ele><time>2023-06-23T12:57:38Z</time></trkpt><trkpt lat="61.19172" lon="26.884817"><ele>192.0</ele><time>2023-06-23T12:58:38Z</time></trkpt><trkpt lat="61.192293" lon="26.885005"><ele>188.0</ele><time>2023-06-23T12:59:38Z</time></trkpt><trkpt lat="61.192857" lon="26.884822"><ele>185.0</ele><time>2023-06-23T13:00:37Z</time></trkpt><trkpt lat="61.193278" lon="26.884375"><ele>181.0</ele><time>2023-06-23T13:01:38Z</time></trkpt><trkpt lat="61.193645" lon="26.883398"><ele>178.0</ele><time>2023-06-23T13:02:39Z</time></trkpt><trkpt lat="61.193912" lon="26.882787"><ele>175.0</ele><time>2023-06-23T13:03:37Z</time></trkpt><trkpt lat="61.194315" lon="26.881943"><ele>167.0</ele><time>2023-06-23T13:04:37Z</time></trkpt><trkpt lat="61.194697" lon="26.881473"><ele>161.0</ele><time>2023-06-23T13:05:38Z</time></trkpt><trkpt lat="61.194938" lon="26.881007"><ele>155.0</ele><time>2023-06-23T13:06:38Z</time></trkpt><trkpt lat="61.195295" lon="26.880085"><ele>150.0</ele><time>2023-06-23T13:07:39Z</time></trkpt><trkpt lat="61.195717" lon="26.879323"><ele>148.0</ele><time>2023-06-23T13:08:37Z</time></trkpt><trkpt lat="61.195717" lon="26.879323"><ele>149.0</ele><time>2023-06-23T13:09:30Z</time></trkpt><trkpt lat="61.196053" lon="26.879048"><ele>149.0</ele><time>2023-06-23T13:25:26Z</time></trkpt><trkpt lat="61.195945" lon="26.87817"><ele>149.0</ele><time>2023-06-23T13:26:38Z</time></trkpt><trkpt lat="61.195762" lon="26.877145"><ele>148.0</ele><time>2023-06-23T13:27:38Z</time></trkpt><trkpt lat="61.19554" lon="26.875882"><ele>143.0</ele><time>2023-06-23T13:28:38Z</time></trkpt><trkpt lat="61.195467" lon="26.87511"><ele>140.0</ele><time>2023-06-23T13:29:38Z</time></trkpt><trkpt lat="61.195692" lon="26.87416"><ele>140.0</ele><time>2023-06-23T13:31:37Z</time></trkpt><trkpt lat="61.195783" lon="26.873282"><ele>140.0</ele><time>2023-06-23T13:32:38Z</time></trkpt><trkpt lat="61.195893" lon="26.872432"><ele>141.0</ele><time>2023-06-23T13:33:39Z</time></trkpt><trkpt lat="61.196062" lon="26.871743"><ele>141.0</ele><time>2023-06-23T13:34:38Z</time></trkpt><trkpt lat="61.19614" lon="26.871007"><ele>141.0</ele><time>2023-06-23T13:35:39Z</time></trkpt><trkpt lat="61.196225" lon="26.870042"><ele>139.0</ele><time>2023-06-23T13:36:38Z</time></trkpt><trkpt lat="61.196315" lon="26.869"><ele>141.0</ele><time>2023-06-23T13:37:38Z</time></trkpt><trkpt lat="61.196275" lon="26.86824"><ele>140.0</ele><time>2023-06-23T13:38:39Z</time></trkpt><trkpt lat="61.196107" lon="26.867352"><ele>139.0</ele><time>2023-06-23T13:40:38Z</time></trkpt><trkpt lat="61.195998" lon="26.866822"><ele>143.0</ele><time>2023-06-23T13:41:39Z</time></trkpt><trkpt lat="61.195725" lon="26.866925"><ele>161.0</ele><time>2023-06-23T13:44:38Z</time></trkpt><trkpt lat="61.195313" lon="26.866792"><ele>162.0</ele><time>2023-06-23T13:46:37Z</time></trkpt><trkpt lat="61.194687" lon="26.866207"><ele>167.0</ele><time>2023-06-23T13:47:38Z</time></trkpt><trkpt lat="61.194425" lon="26.865637"><ele>169.0</ele><time>2023-06-23T13:48:37Z</time></trkpt><trkpt lat="61.19389" lon="26.865162"><ele>153.0</ele><time>2023-06-23T13:50:38Z</time></trkpt><trkpt lat="61.193595" lon="26.864768"><ele>144.0</ele><time>2023-06-23T13:51:38Z</time></trkpt><trkpt lat="61.193218" lon="26.864738"><ele>139.0</ele><time>2023-06-23T13:52:39Z</time></trkpt><trkpt lat="61.192825" lon="26.864672"><ele>137.0</ele><time>2023-06-23T13:54:37Z</time></trkpt><trkpt lat="61.192825" lon="26.864672"><ele>137.0</ele><time>2023-06-23T13:55:09Z</time></trkpt></trkseg></trk></gpx>