<?xml version="1.0" encoding="UTF-8" standalone="no"?><gpx xmlns="http://www.topografix.com/GPX/1/1" xmlns:gpxtpx="http://www.garmin.com/xmlschemas/TrackPointExtension/v1" xmlns:xsi="http://www.w3.org/2001/XMLSchema-instance" creator="Suunto app" version="1.1" xsi:schemaLocation="http://www.topografix.com/GPX/1/1 http://www.topografix.com/GPX/1/1/gpx.xsd http://www.garmin.com/xmlschemas/TrackPointExtension/v1 http://www.garmin.com/xmlschemas/TrackPointExtensionv1.xsd"><metadata><name>suuntoapp-Trekking-2023-06-22T14-18-54Z</name><desc/><author><name>Jouni L</name></author></metadata><trk><name>suuntoapp-Trekking-2023-06-22T14-18-54Z</name><trkseg><trkpt lat="61.159993" lon="26.84015"><ele>125.0</ele><time>2023-06-22T14:23:41Z</time></trkpt><trkpt lat="61.159962" lon="26.840332"><ele>125.0</ele><time>2023-06-22T14:23:48Z</time></trkpt><trkpt lat="61.159908" lon="26.840492"><ele>125.0</ele><time>2023-06-22T14:23:57Z</time></trkpt><trkpt lat="61.159847" lon="26.840665"><ele>125.0</ele><time>2023-06-22T14:24:01Z</time></trkpt><trkpt lat="61.159825" lon="26.840852"><ele>125.0</ele><time>2023-06-22T14:24:12Z</time></trkpt><trkpt lat="61.159798" lon="26.841047"><ele>125.0</ele><time>2023-06-22T14:24:17Z</time></trkpt><trkpt lat="61.159763" lon="26.841248"><ele>125.0</ele><time>2023-06-22T14:24:25Z</time></trkpt><trkpt lat="61.159698" lon="26.8414"><ele>125.0</ele><time>2023-06-22T14:24:32Z</time></trkpt><trkpt lat="61.15962" lon="26.841563"><ele>125.0</ele><time>2023-06-22T14:24:41Z</time></trkpt><trkpt lat="61.159557" lon="26.841697"><ele>126.0</ele><time>2023-06-22T14:24:50Z</time></trkpt><trkpt lat="61.159475" lon="26.841827"><ele>126.0</ele><time>2023-06-22T14:24:55Z</time></trkpt><trkpt lat="61.159413" lon="26.841977"><ele>128.0</ele><time>2023-06-22T14:25:06Z</time></trkpt><trkpt lat="61.159352" lon="26.842123"><ele>128.0</ele><time>2023-06-22T14:25:14Z</time></trkpt><trkpt lat="61.15929" lon="26.842287"><ele>128.0</ele><time>2023-06-22T14:25:21Z</time></trkpt><trkpt lat="61.15921" lon="26.842412"><ele>127.0</ele><time>2023-06-22T14:25:28Z</time></trkpt><trkpt lat="61.159128" lon="26.842505"><ele>127.0</ele><time>2023-06-22T14:25:36Z</time></trkpt><trkpt lat="61.159057" lon="26.842632"><ele>126.0</ele><time>2023-06-22T14:25:48Z</time></trkpt><trkpt lat="61.158978" lon="26.84274"><ele>125.0</ele><time>2023-06-22T14:25:54Z</time></trkpt><trkpt lat="61.158898" lon="26.842847"><ele>125.0</ele><time>2023-06-22T14:26:01Z</time></trkpt><trkpt lat="61.158823" lon="26.842967"><ele>125.0</ele><time>2023-06-22T14:26:09Z</time></trkpt><trkpt lat="61.158783" lon="26.843007"><ele>126.0</ele><time>2023-06-22T14:26:21Z</time></trkpt><trkpt lat="61.158735" lon="26.843175"><ele>126.0</ele><time>2023-06-22T14:26:35Z</time></trkpt><trkpt lat="61.15872" lon="26.844258"><ele>125.0</ele><time>2023-06-22T14:28:36Z</time></trkpt><trkpt lat="61.15887" lon="26.844903"><ele>124.0</ele><time>2023-06-22T14:30:37Z</time></trkpt><trkpt lat="61.158455" lon="26.845523"><ele>126.0</ele><time>2023-06-22T14:32:36Z</time></trkpt><trkpt lat="61.157828" lon="26.84571"><ele>126.0</ele><time>2023-06-22T14:33:36Z</time></trkpt><trkpt lat="61.157452" lon="26.846288"><ele>127.0</ele><time>2023-06-22T14:34:37Z</time></trkpt><trkpt lat="61.15715" lon="26.8471"><ele>125.0</ele><time>2023-06-22T14:35:37Z</time></trkpt><trkpt lat="61.156967" lon="26.848027"><ele>125.0</ele><time>2023-06-22T14:36:36Z</time></trkpt><trkpt lat="61.156902" lon="26.849332"><ele>126.0</ele><time>2023-06-22T14:37:38Z</time></trkpt><trkpt lat="61.157122" lon="26.850447"><ele>127.0</ele><time>2023-06-22T14:38:36Z</time></trkpt><trkpt lat="61.15749" lon="26.851167"><ele>132.0</ele><time>2023-06-22T14:39:37Z</time></trkpt><trkpt lat="61.157922" lon="26.851827"><ele>131.0</ele><time>2023-06-22T14:40:37Z</time></trkpt><trkpt lat="61.15842" lon="26.852333"><ele>131.0</ele><time>2023-06-22T14:41:37Z</time></trkpt><trkpt lat="61.158797" lon="26.852737"><ele>130.0</ele><time>2023-06-22T14:42:38Z</time></trkpt><trkpt lat="61.159135" lon="26.853203"><ele>131.0</ele><time>2023-06-22T14:43:38Z</time></trkpt><trkpt lat="61.159103" lon="26.8539"><ele>129.0</ele><time>2023-06-22T14:45:37Z</time></trkpt><trkpt lat="61.15895" lon="26.85448"><ele>129.0</ele><time>2023-06-22T14:46:38Z</time></trkpt><trkpt lat="61.158368" lon="26.855172"><ele>129.0</ele><time>2023-06-22T14:47:37Z</time></trkpt><trkpt lat="61.15793" lon="26.855787"><ele>128.0</ele><time>2023-06-22T14:48:37Z</time></trkpt><trkpt lat="61.157867" lon="26.85635"><ele>125.0</ele><time>2023-06-22T14:50:37Z</time></trkpt><trkpt lat="61.15772" lon="26.856885"><ele>125.0</ele><time>2023-06-22T14:51:38Z</time></trkpt><trkpt lat="61.157603" lon="26.856632"><ele>126.0</ele><time>2023-06-22T14:53:49Z</time></trkpt></trkseg></trk></gpx>