<?xml version="1.0" encoding="UTF-8" standalone="no"?><gpx xmlns="http://www.topografix.com/GPX/1/1" xmlns:gpxtpx="http://www.garmin.com/xmlschemas/TrackPointExtension/v1" xmlns:xsi="http://www.w3.org/2001/XMLSchema-instance" creator="Suunto app" version="1.1" xsi:schemaLocation="http://www.topografix.com/GPX/1/1 http://www.topografix.com/GPX/1/1/gpx.xsd http://www.garmin.com/xmlschemas/TrackPointExtension/v1 http://www.garmin.com/xmlschemas/TrackPointExtensionv1.xsd"><metadata><name>suuntoapp-Trekking-2023-06-24T08-19-29Z</name><desc/><author><name>Jouni L</name></author></metadata><trk><name>suuntoapp-Trekking-2023-06-24T08-19-29Z</name><trkseg><trkpt lat="61.192702" lon="26.866323"><ele>137.0</ele><time>2023-06-24T08:19:29Z</time></trkpt><trkpt lat="61.19263" lon="26.86624"><ele>137.0</ele><time>2023-06-24T08:19:41Z</time></trkpt><trkpt lat="61.192633" lon="26.866052"><ele>137.0</ele><time>2023-06-24T08:19:51Z</time></trkpt><trkpt lat="61.192645" lon="26.865867"><ele>136.0</ele><time>2023-06-24T08:20:04Z</time></trkpt><trkpt lat="61.192635" lon="26.865677"><ele>137.0</ele><time>2023-06-24T08:20:13Z</time></trkpt><trkpt lat="61.192722" lon="26.865577"><ele>138.0</ele><time>2023-06-24T08:20:32Z</time></trkpt><trkpt lat="61.192642" lon="26.86543"><ele>138.0</ele><time>2023-06-24T08:20:48Z</time></trkpt><trkpt lat="61.192603" lon="26.865247"><ele>138.0</ele><time>2023-06-24T08:20:59Z</time></trkpt><trkpt lat="61.192617" lon="26.865055"><ele>137.0</ele><time>2023-06-24T08:21:09Z</time></trkpt><trkpt lat="61.192592" lon="26.86487"><ele>138.0</ele><time>2023-06-24T08:21:19Z</time></trkpt><trkpt lat="61.192552" lon="26.864678"><ele>138.0</ele><time>2023-06-24T08:21:29Z</time></trkpt><trkpt lat="61.192493" lon="26.864528"><ele>138.0</ele><time>2023-06-24T08:21:38Z</time></trkpt><trkpt lat="61.192503" lon="26.864342"><ele>138.0</ele><time>2023-06-24T08:21:50Z</time></trkpt><trkpt lat="61.192463" lon="26.864163"><ele>137.0</ele><time>2023-06-24T08:22:00Z</time></trkpt><trkpt lat="61.19205" lon="26.863777"><ele>142.0</ele><time>2023-06-24T08:24:36Z</time></trkpt><trkpt lat="61.191807" lon="26.863393"><ele>145.0</ele><time>2023-06-24T08:25:36Z</time></trkpt><trkpt lat="61.191425" lon="26.862862"><ele>145.0</ele><time>2023-06-24T08:26:36Z</time></trkpt><trkpt lat="61.19109" lon="26.862748"><ele>149.0</ele><time>2023-06-24T08:27:37Z</time></trkpt><trkpt lat="61.190672" lon="26.862387"><ele>145.0</ele><time>2023-06-24T08:29:37Z</time></trkpt><trkpt lat="61.190147" lon="26.86255"><ele>140.0</ele><time>2023-06-24T08:30:38Z</time></trkpt><trkpt lat="61.18987" lon="26.86246"><ele>140.0</ele><time>2023-06-24T08:31:37Z</time></trkpt><trkpt lat="61.189528" lon="26.862258"><ele>144.0</ele><time>2023-06-24T08:32:36Z</time></trkpt><trkpt lat="61.189058" lon="26.86197"><ele>144.0</ele><time>2023-06-24T08:33:37Z</time></trkpt><trkpt lat="61.188765" lon="26.861613"><ele>142.0</ele><time>2023-06-24T08:34:37Z</time></trkpt><trkpt lat="61.188308" lon="26.861368"><ele>140.0</ele><time>2023-06-24T08:35:37Z</time></trkpt><trkpt lat="61.187755" lon="26.86072"><ele>143.0</ele><time>2023-06-24T08:36:37Z</time></trkpt><trkpt lat="61.187355" lon="26.859848"><ele>138.0</ele><time>2023-06-24T08:37:37Z</time></trkpt><trkpt lat="61.187097" lon="26.858993"><ele>138.0</ele><time>2023-06-24T08:38:37Z</time></trkpt><trkpt lat="61.186963" lon="26.858387"><ele>140.0</ele><time>2023-06-24T08:39:36Z</time></trkpt><trkpt lat="61.186917" lon="26.857647"><ele>144.0</ele><time>2023-06-24T08:40:38Z</time></trkpt><trkpt lat="61.186822" lon="26.857112"><ele>144.0</ele><time>2023-06-24T08:41:36Z</time></trkpt><trkpt lat="61.18694" lon="26.856642"><ele>146.0</ele><time>2023-06-24T08:42:47Z</time></trkpt><trkpt lat="61.187055" lon="26.855842"><ele>146.0</ele><time>2023-06-24T08:44:39Z</time></trkpt><trkpt lat="61.187167" lon="26.855082"><ele>149.0</ele><time>2023-06-24T08:46:37Z</time></trkpt><trkpt lat="61.187158" lon="26.853798"><ele>152.0</ele><time>2023-06-24T08:47:36Z</time></trkpt><trkpt lat="61.187258" lon="26.852692"><ele>156.0</ele><time>2023-06-24T08:48:36Z</time></trkpt><trkpt lat="61.187407" lon="26.85158"><ele>153.0</ele><time>2023-06-24T08:49:37Z</time></trkpt><trkpt lat="61.18773" lon="26.850602"><ele>149.0</ele><time>2023-06-24T08:50:37Z</time></trkpt><trkpt lat="61.187972" lon="26.84924"><ele>147.0</ele><time>2023-06-24T08:51:36Z</time></trkpt><trkpt lat="61.18809" lon="26.848347"><ele>148.0</ele><time>2023-06-24T08:52:37Z</time></trkpt><trkpt lat="61.188003" lon="26.847267"><ele>151.0</ele><time>2023-06-24T08:53:40Z</time></trkpt><trkpt lat="61.187473" lon="26.846925"><ele>163.0</ele><time>2023-06-24T08:55:38Z</time></trkpt><trkpt lat="61.18713" lon="26.846575"><ele>166.0</ele><time>2023-06-24T08:57:37Z</time></trkpt><trkpt lat="61.187215" lon="26.845238"><ele>170.0</ele><time>2023-06-24T08:59:37Z</time></trkpt><trkpt lat="61.187542" lon="26.84352"><ele>178.0</ele><time>2023-06-24T09:01:37Z</time></trkpt><trkpt lat="61.188092" lon="26.842613"><ele>182.0</ele><time>2023-06-24T09:03:37Z</time></trkpt><trkpt lat="61.18847" lon="26.842028"><ele>177.0</ele><time>2023-06-24T09:05:37Z</time></trkpt><trkpt lat="61.188533" lon="26.841233"><ele>174.0</ele><time>2023-06-24T09:06:37Z</time></trkpt><trkpt lat="61.188553" lon="26.84008"><ele>169.0</ele><time>2023-06-24T09:07:37Z</time></trkpt><trkpt lat="61.188507" lon="26.839417"><ele>172.0</ele><time>2023-06-24T09:08:37Z</time></trkpt><trkpt lat="61.188307" lon="26.838212"><ele>175.0</ele><time>2023-06-24T09:10:37Z</time></trkpt><trkpt lat="61.188307" lon="26.838212"><ele>176.0</ele><time>2023-06-24T09:11:34Z</time></trkpt><trkpt lat="61.19033" lon="26.837062"><ele>156.0</ele><time>2023-06-24T09:33:56Z</time></trkpt><trkpt lat="61.190715" lon="26.836605"><ele>153.0</ele><time>2023-06-24T09:34:36Z</time></trkpt><trkpt lat="61.190932" lon="26.835825"><ele>147.0</ele><time>2023-06-24T09:35:36Z</time></trkpt><trkpt lat="61.191087" lon="26.835257"><ele>138.0</ele><time>2023-06-24T09:36:36Z</time></trkpt><trkpt lat="61.191385" lon="26.834763"><ele>137.0</ele><time>2023-06-24T09:37:37Z</time></trkpt><trkpt lat="61.191697" lon="26.83405"><ele>135.0</ele><time>2023-06-24T09:38:37Z</time></trkpt><trkpt lat="61.192103" lon="26.833115"><ele>132.0</ele><time>2023-06-24T09:39:38Z</time></trkpt><trkpt lat="61.19277" lon="26.832012"><ele>127.0</ele><time>2023-06-24T09:41:37Z</time></trkpt><trkpt lat="61.193182" lon="26.831728"><ele>132.0</ele><time>2023-06-24T09:42:37Z</time></trkpt><trkpt lat="61.193642" lon="26.83171"><ele>136.0</ele><time>2023-06-24T09:43:37Z</time></trkpt><trkpt lat="61.194033" lon="26.83148"><ele>143.0</ele><time>2023-06-24T09:44:37Z</time></trkpt><trkpt lat="61.194602" lon="26.831568"><ele>149.0</ele><time>2023-06-24T09:45:37Z</time></trkpt><trkpt lat="61.195042" lon="26.831247"><ele>149.0</ele><time>2023-06-24T09:46:38Z</time></trkpt><trkpt lat="61.195268" lon="26.830727"><ele>144.0</ele><time>2023-06-24T09:47:36Z</time></trkpt><trkpt lat="61.195712" lon="26.830208"><ele>140.0</ele><time>2023-06-24T09:48:38Z</time></trkpt><trkpt lat="61.195945" lon="26.829603"><ele>137.0</ele><time>2023-06-24T09:49:37Z</time></trkpt><trkpt lat="61.19617" lon="26.828873"><ele>128.0</ele><time>2023-06-24T09:50:36Z</time></trkpt><trkpt lat="61.196317" lon="26.828248"><ele>131.0</ele><time>2023-06-24T09:51:38Z</time></trkpt><trkpt lat="61.196372" lon="26.827695"><ele>128.0</ele><time>2023-06-24T09:52:37Z</time></trkpt><trkpt lat="61.196257" lon="26.82669"><ele>132.0</ele><time>2023-06-24T09:53:37Z</time></trkpt><trkpt lat="61.196295" lon="26.825203"><ele>143.0</ele><time>2023-06-24T09:55:37Z</time></trkpt><trkpt lat="61.196132" lon="26.824492"><ele>150.0</ele><time>2023-06-24T09:56:37Z</time></trkpt><trkpt lat="61.195803" lon="26.824162"><ele>154.0</ele><time>2023-06-24T09:57:37Z</time></trkpt><trkpt lat="61.195325" lon="26.823708"><ele>152.0</ele><time>2023-06-24T09:58:37Z</time></trkpt><trkpt lat="61.194875" lon="26.823113"><ele>148.0</ele><time>2023-06-24T09:59:37Z</time></trkpt><trkpt lat="61.1943" lon="26.82238"><ele>146.0</ele><time>2023-06-24T10:01:36Z</time></trkpt><trkpt lat="61.194013" lon="26.822087"><ele>143.0</ele><time>2023-06-24T10:02:37Z</time></trkpt><trkpt lat="61.193443" lon="26.821678"><ele>138.0</ele><time>2023-06-24T10:03:38Z</time></trkpt><trkpt lat="61.192812" lon="26.821768"><ele>134.0</ele><time>2023-06-24T10:04:39Z</time></trkpt><trkpt lat="61.192222" lon="26.822268"><ele>135.0</ele><time>2023-06-24T10:05:38Z</time></trkpt><trkpt lat="61.191065" lon="26.823943"><ele>136.0</ele><time>2023-06-24T10:06:41Z</time></trkpt><trkpt lat="61.190445" lon="26.824363"><ele>138.0</ele><time>2023-06-24T10:07:38Z</time></trkpt><trkpt lat="61.189755" lon="26.82488"><ele>133.0</ele><time>2023-06-24T10:08:37Z</time></trkpt><trkpt lat="61.189188" lon="26.82523"><ele>132.0</ele><time>2023-06-24T10:09:36Z</time></trkpt><trkpt lat="61.188778" lon="26.82546"><ele>122.0</ele><time>2023-06-24T10:10:38Z</time></trkpt><trkpt lat="61.188198" lon="26.825968"><ele>119.0</ele><time>2023-06-24T10:11:37Z</time></trkpt><trkpt lat="61.187545" lon="26.826225"><ele>117.0</ele><time>2023-06-24T10:12:37Z</time></trkpt><trkpt lat="61.187188" lon="26.826608"><ele>115.0</ele><time>2023-06-24T10:13:38Z</time></trkpt><trkpt lat="61.186373" lon="26.827267"><ele>114.0</ele><time>2023-06-24T10:14:42Z</time></trkpt><trkpt lat="61.185818" lon="26.828132"><ele>114.0</ele><time>2023-06-24T10:15:38Z</time></trkpt><trkpt lat="61.185208" lon="26.828978"><ele>116.0</ele><time>2023-06-24T10:16:38Z</time></trkpt><trkpt lat="61.1845" lon="26.829455"><ele>116.0</ele><time>2023-06-24T10:17:38Z</time></trkpt><trkpt lat="61.183932" lon="26.829593"><ele>119.0</ele><time>2023-06-24T10:18:37Z</time></trkpt><trkpt lat="61.183343" lon="26.831048"><ele>120.0</ele><time>2023-06-24T10:20:38Z</time></trkpt><trkpt lat="61.183202" lon="26.83238"><ele>120.0</ele><time>2023-06-24T10:21:38Z</time></trkpt><trkpt lat="61.183132" lon="26.8338"><ele>126.0</ele><time>2023-06-24T10:22:38Z</time></trkpt><trkpt lat="61.18313" lon="26.834872"><ele>130.0</ele><time>2023-06-24T10:23:37Z</time></trkpt><trkpt lat="61.183225" lon="26.836185"><ele>125.0</ele><time>2023-06-24T10:24:37Z</time></trkpt><trkpt lat="61.183625" lon="26.836462"><ele>125.0</ele><time>2023-06-24T10:26:37Z</time></trkpt><trkpt lat="61.183327" lon="26.837623"><ele>125.0</ele><time>2023-06-24T10:29:36Z</time></trkpt><trkpt lat="61.183407" lon="26.83914"><ele>126.0</ele><time>2023-06-24T10:30:38Z</time></trkpt><trkpt lat="61.183495" lon="26.840202"><ele>127.0</ele><time>2023-06-24T10:31:37Z</time></trkpt><trkpt lat="61.183818" lon="26.84171"><ele>126.0</ele><time>2023-06-24T10:32:38Z</time></trkpt><trkpt lat="61.183818" lon="26.84171"><ele>130.0</ele><time>2023-06-24T10:33:18Z</time></trkpt><trkpt lat="61.183773" lon="26.842307"><ele>131.0</ele><time>2023-06-24T10:40:35Z</time></trkpt><trkpt lat="61.183822" lon="26.841627"><ele>126.0</ele><time>2023-06-24T10:41:37Z</time></trkpt><trkpt lat="61.183617" lon="26.840205"><ele>125.0</ele><time>2023-06-24T10:43:17Z</time></trkpt><trkpt lat="61.185768" lon="26.840967"><ele>125.0</ele><time>2023-06-24T10:47:18Z</time></trkpt><trkpt lat="61.183817" lon="26.842557"><ele>132.0</ele><time>2023-06-24T12:01:47Z</time></trkpt><trkpt lat="61.18356" lon="26.843507"><ele>132.0</ele><time>2023-06-24T12:03:07Z</time></trkpt><trkpt lat="61.183193" lon="26.843703"><ele>134.0</ele><time>2023-06-24T12:04:07Z</time></trkpt><trkpt lat="61.182665" lon="26.843808"><ele>132.0</ele><time>2023-06-24T12:05:07Z</time></trkpt><trkpt lat="61.182027" lon="26.843828"><ele>134.0</ele><time>2023-06-24T12:06:07Z</time></trkpt><trkpt lat="61.18144" lon="26.843858"><ele>126.0</ele><time>2023-06-24T12:07:08Z</time></trkpt><trkpt lat="61.180758" lon="26.843948"><ele>124.0</ele><time>2023-06-24T12:08:07Z</time></trkpt><trkpt lat="61.180385" lon="26.844758"><ele>115.0</ele><time>2023-06-24T12:09:08Z</time></trkpt><trkpt lat="61.180307" lon="26.846023"><ele>116.0</ele><time>2023-06-24T12:10:07Z</time></trkpt><trkpt lat="61.180053" lon="26.847035"><ele>119.0</ele><time>2023-06-24T12:11:08Z</time></trkpt><trkpt lat="61.179763" lon="26.847443"><ele>120.0</ele><time>2023-06-24T12:12:07Z</time></trkpt><trkpt lat="61.1793" lon="26.847972"><ele>127.0</ele><time>2023-06-24T12:13:08Z</time></trkpt><trkpt lat="61.17901" lon="26.848818"><ele>124.0</ele><time>2023-06-24T12:14:06Z</time></trkpt><trkpt lat="61.178622" lon="26.849333"><ele>128.0</ele><time>2023-06-24T12:15:07Z</time></trkpt><trkpt lat="61.178532" lon="26.850185"><ele>131.0</ele><time>2023-06-24T12:16:08Z</time></trkpt><trkpt lat="61.178407" lon="26.851"><ele>146.0</ele><time>2023-06-24T12:18:07Z</time></trkpt><trkpt lat="61.178977" lon="26.850883"><ele>156.0</ele><time>2023-06-24T12:20:07Z</time></trkpt><trkpt lat="61.178832" lon="26.850285"><ele>162.0</ele><time>2023-06-24T12:22:06Z</time></trkpt><trkpt lat="61.17895" lon="26.84977"><ele>158.0</ele><time>2023-06-24T12:23:07Z</time></trkpt><trkpt lat="61.179142" lon="26.849252"><ele>162.0</ele><time>2023-06-24T12:24:06Z</time></trkpt><trkpt lat="61.179362" lon="26.848798"><ele>163.0</ele><time>2023-06-24T12:25:07Z</time></trkpt><trkpt lat="61.179745" lon="26.848463"><ele>161.0</ele><time>2023-06-24T12:27:07Z</time></trkpt><trkpt lat="61.180118" lon="26.847852"><ele>167.0</ele><time>2023-06-24T12:29:07Z</time></trkpt><trkpt lat="61.180118" lon="26.847852"><ele>168.0</ele><time>2023-06-24T12:29:32Z</time></trkpt><trkpt lat="61.180687" lon="26.848052"><ele>168.0</ele><time>2023-06-24T12:42:31Z</time></trkpt><trkpt lat="61.180162" lon="26.848062"><ele>166.0</ele><time>2023-06-24T12:44:07Z</time></trkpt><trkpt lat="61.179665" lon="26.848318"><ele>165.0</ele><time>2023-06-24T12:46:07Z</time></trkpt><trkpt lat="61.179362" lon="26.849247"><ele>161.0</ele><time>2023-06-24T12:48:07Z</time></trkpt><trkpt lat="61.179252" lon="26.849852"><ele>160.0</ele><time>2023-06-24T12:49:06Z</time></trkpt><trkpt lat="61.178873" lon="26.850507"><ele>152.0</ele><time>2023-06-24T12:51:07Z</time></trkpt><trkpt lat="61.178577" lon="26.850565"><ele>144.0</ele><time>2023-06-24T12:52:07Z</time></trkpt><trkpt lat="61.178515" lon="26.849787"><ele>132.0</ele><time>2023-06-24T12:55:06Z</time></trkpt><trkpt lat="61.178132" lon="26.849932"><ele>120.0</ele><time>2023-06-24T12:57:07Z</time></trkpt><trkpt lat="61.177752" lon="26.85054"><ele>121.0</ele><time>2023-06-24T12:58:07Z</time></trkpt><trkpt lat="61.177515" lon="26.851542"><ele>118.0</ele><time>2023-06-24T12:59:07Z</time></trkpt><trkpt lat="61.177483" lon="26.852455"><ele>113.0</ele><time>2023-06-24T13:00:07Z</time></trkpt><trkpt lat="61.177187" lon="26.853125"><ele>113.0</ele><time>2023-06-24T13:01:07Z</time></trkpt><trkpt lat="61.176885" lon="26.853997"><ele>113.0</ele><time>2023-06-24T13:02:07Z</time></trkpt><trkpt lat="61.176698" lon="26.854613"><ele>112.0</ele><time>2023-06-24T13:03:08Z</time></trkpt><trkpt lat="61.176478" lon="26.855125"><ele>113.0</ele><time>2023-06-24T13:04:06Z</time></trkpt><trkpt lat="61.176545" lon="26.85656"><ele>113.0</ele><time>2023-06-24T13:06:06Z</time></trkpt><trkpt lat="61.176773" lon="26.857715"><ele>113.0</ele><time>2023-06-24T13:08:06Z</time></trkpt><trkpt lat="61.177055" lon="26.858508"><ele>113.0</ele><time>2023-06-24T13:09:07Z</time></trkpt><trkpt lat="61.177013" lon="26.859198"><ele>113.0</ele><time>2023-06-24T13:10:06Z</time></trkpt><trkpt lat="61.177128" lon="26.859723"><ele>120.0</ele><time>2023-06-24T13:11:07Z</time></trkpt><trkpt lat="61.177442" lon="26.860207"><ele>126.0</ele><time>2023-06-24T13:14:07Z</time></trkpt><trkpt lat="61.177707" lon="26.860643"><ele>125.0</ele><time>2023-06-24T13:15:06Z</time></trkpt><trkpt lat="61.17786" lon="26.861378"><ele>147.0</ele><time>2023-06-24T13:18:07Z</time></trkpt><trkpt lat="61.177628" lon="26.862052"><ele>151.0</ele><time>2023-06-24T13:20:07Z</time></trkpt><trkpt lat="61.177148" lon="26.862993"><ele>154.0</ele><time>2023-06-24T13:22:07Z</time></trkpt><trkpt lat="61.176857" lon="26.86326"><ele>147.0</ele><time>2023-06-24T13:23:07Z</time></trkpt><trkpt lat="61.176357" lon="26.864652"><ele>155.0</ele><time>2023-06-24T13:25:11Z</time></trkpt><trkpt lat="61.176102" lon="26.864972"><ele>157.0</ele><time>2023-06-24T13:26:06Z</time></trkpt><trkpt lat="61.17524" lon="26.866377"><ele>144.0</ele><time>2023-06-24T13:28:36Z</time></trkpt><trkpt lat="61.174925" lon="26.866728"><ele>131.0</ele><time>2023-06-24T13:31:11Z</time></trkpt><trkpt lat="61.174667" lon="26.866475"><ele>119.0</ele><time>2023-06-24T13:33:07Z</time></trkpt><trkpt lat="61.174462" lon="26.866072"><ele>117.0</ele><time>2023-06-24T13:35:08Z</time></trkpt><trkpt lat="61.174542" lon="26.865453"><ele>119.0</ele><time>2023-06-24T13:36:11Z</time></trkpt><trkpt lat="61.1748" lon="26.864348"><ele>118.0</ele><time>2023-06-24T13:37:11Z</time></trkpt><trkpt lat="61.175348" lon="26.863567"><ele>113.0</ele><time>2023-06-24T13:38:11Z</time></trkpt><trkpt lat="61.175348" lon="26.863567"><ele>113.0</ele><time>2023-06-24T13:38:37Z</time></trkpt><trkpt lat="61.17479" lon="26.860773"><ele>133.0</ele><time>2023-06-24T14:13:39Z</time></trkpt><trkpt lat="61.174758" lon="26.859862"><ele>129.0</ele><time>2023-06-24T14:14:39Z</time></trkpt><trkpt lat="61.174643" lon="26.85919"><ele>126.0</ele><time>2023-06-24T14:15:36Z</time></trkpt><trkpt lat="61.174347" lon="26.858093"><ele>126.0</ele><time>2023-06-24T14:16:39Z</time></trkpt><trkpt lat="61.174072" lon="26.857358"><ele>123.0</ele><time>2023-06-24T14:17:38Z</time></trkpt><trkpt lat="61.17371" lon="26.85659"><ele>120.0</ele><time>2023-06-24T14:18:39Z</time></trkpt><trkpt lat="61.173572" lon="26.855923"><ele>128.0</ele><time>2023-06-24T14:19:36Z</time></trkpt><trkpt lat="61.173303" lon="26.854902"><ele>132.0</ele><time>2023-06-24T14:20:38Z</time></trkpt><trkpt lat="61.173187" lon="26.854142"><ele>137.0</ele><time>2023-06-24T14:21:38Z</time></trkpt><trkpt lat="61.173055" lon="26.853248"><ele>139.0</ele><time>2023-06-24T14:22:37Z</time></trkpt><trkpt lat="61.172775" lon="26.852605"><ele>138.0</ele><time>2023-06-24T14:23:37Z</time></trkpt><trkpt lat="61.1725" lon="26.852192"><ele>131.0</ele><time>2023-06-24T14:24:37Z</time></trkpt><trkpt lat="61.172073" lon="26.851483"><ele>122.0</ele><time>2023-06-24T14:25:39Z</time></trkpt><trkpt lat="61.171753" lon="26.851028"><ele>122.0</ele><time>2023-06-24T14:26:37Z</time></trkpt><trkpt lat="61.171407" lon="26.850217"><ele>120.0</ele><time>2023-06-24T14:27:37Z</time></trkpt><trkpt lat="61.171122" lon="26.849707"><ele>118.0</ele><time>2023-06-24T14:28:37Z</time></trkpt><trkpt lat="61.170862" lon="26.849457"><ele>118.0</ele><time>2023-06-24T14:29:38Z</time></trkpt><trkpt lat="61.170543" lon="26.849402"><ele>117.0</ele><time>2023-06-24T14:30:37Z</time></trkpt><trkpt lat="61.17011" lon="26.849302"><ele>122.0</ele><time>2023-06-24T14:31:39Z</time></trkpt><trkpt lat="61.169532" lon="26.849093"><ele>128.0</ele><time>2023-06-24T14:32:38Z</time></trkpt><trkpt lat="61.169143" lon="26.848568"><ele>125.0</ele><time>2023-06-24T14:34:36Z</time></trkpt><trkpt lat="61.168853" lon="26.848055"><ele>122.0</ele><time>2023-06-24T14:35:38Z</time></trkpt><trkpt lat="61.168543" lon="26.847582"><ele>120.0</ele><time>2023-06-24T14:36:39Z</time></trkpt><trkpt lat="61.168162" lon="26.847163"><ele>121.0</ele><time>2023-06-24T14:37:38Z</time></trkpt><trkpt lat="61.167912" lon="26.846923"><ele>120.0</ele><time>2023-06-24T14:38:38Z</time></trkpt><trkpt lat="61.16756" lon="26.846487"><ele>119.0</ele><time>2023-06-24T14:39:37Z</time></trkpt><trkpt lat="61.167043" lon="26.846337"><ele>123.0</ele><time>2023-06-24T14:41:37Z</time></trkpt><trkpt lat="61.166748" lon="26.846702"><ele>132.0</ele><time>2023-06-24T14:43:38Z</time></trkpt><trkpt lat="61.166412" lon="26.846767"><ele>121.0</ele><time>2023-06-24T14:45:38Z</time></trkpt><trkpt lat="61.16607" lon="26.846502"><ele>119.0</ele><time>2023-06-24T14:46:41Z</time></trkpt><trkpt lat="61.16553" lon="26.846282"><ele>116.0</ele><time>2023-06-24T14:47:39Z</time></trkpt><trkpt lat="61.164722" lon="26.846333"><ele>118.0</ele><time>2023-06-24T14:48:45Z</time></trkpt><trkpt lat="61.164382" lon="26.845813"><ele>125.0</ele><time>2023-06-24T14:50:37Z</time></trkpt><trkpt lat="61.163985" lon="26.845068"><ele>123.0</ele><time>2023-06-24T14:51:38Z</time></trkpt><trkpt lat="61.163652" lon="26.844688"><ele>121.0</ele><time>2023-06-24T14:52:37Z</time></trkpt><trkpt lat="61.163855" lon="26.84344"><ele>116.0</ele><time>2023-06-24T14:56:43Z</time></trkpt><trkpt lat="61.163933" lon="26.842732"><ele>120.0</ele><time>2023-06-24T14:57:40Z</time></trkpt><trkpt lat="61.164545" lon="26.842027"><ele>125.0</ele><time>2023-06-24T14:58:44Z</time></trkpt><trkpt lat="61.164878" lon="26.841752"><ele>127.0</ele><time>2023-06-24T14:59:39Z</time></trkpt><trkpt lat="61.16503" lon="26.841285"><ele>131.0</ele><time>2023-06-24T15:00:39Z</time></trkpt><trkpt lat="61.164947" lon="26.840297"><ele>127.0</ele><time>2023-06-24T15:01:38Z</time></trkpt><trkpt lat="61.164587" lon="26.83894"><ele>118.0</ele><time>2023-06-24T15:03:38Z</time></trkpt><trkpt lat="61.164953" lon="26.839202"><ele>121.0</ele><time>2023-06-24T15:07:38Z</time></trkpt><trkpt lat="61.164953" lon="26.839202"><ele>123.0</ele><time>2023-06-24T15:08:25Z</time></trkpt></trkseg></trk></gpx>